{"version": 0.6, "generator": "Overpass API 0.7.62.10 2d4cfc48", "osm3s": {"timestamp_osm_base": "2026-02-02T17:53:01Z", "copyright": "The data included in this document is from www.openstreetmap.org. The data is made available under ODbL."}, "elements": [{"type": "node", "id": 479033191, "lat": 50.8331951, "lon": 4.3696771, "tags": {"amenity": "cafe", "check_date:opening_hours": "2024-07-04", "contact:instagram": "https://www.instagram.com/place.aux.plantes", "indoor_seating": "yes", "name": "Place aux Plantes", "opening_hours:signed": "no", "outdoor_seating": "no"}}, {"type": "node", "id": 2452583796, "lat": 50.8328454, "lon": 4.3664663, "tags": {"amenity": "cafe", "indoor_seating": "yes", "name": "Frit Cocq", "outdoor_seating": "sidewalk"}}, {"type": "node", "id": 4026937928, "lat": 50.8336322, "lon": 4.3663559, "tags": {"amenity": "cafe", "indoor_seating": "yes", "name": "Caf\u00e9 Le Coq", "outdoor_seating": "yes"}}, {"type": "node", "id": 4864726693, "lat": 50.8378045, "lon": 4.3684184, "tags": {"amenity": "cafe", "cuisine": "sandwich", "email": "info@cafecircus.be", "indoor_seating": "yes", "name": "Caf\u00e9 Circus", "opening_hours": "Mo-Sa 12:00-01:00", "outdoor_seating": "yes", "start_date": "2022", "website": "https://www.cafecircus.be/"}}, {"type": "node", "id": 4864726695, "lat": 50.8379125, "lon": 4.3684466, "tags": {"amenity": "cafe", "check_date": "2023-12-09", "contact:phone": "+32 2 512 24 20", "contact:website": "http://energie-traiteur.com", "delivery": "yes", "description": "Cafe & Restaurant", "name": "Energie-Traiteur", "outdoor_seating": "yes"}}, {"type": "node", "id": 4864756748, "lat": 50.8387052, "lon": 4.3706359, "tags": {"amenity": "cafe", "indoor_seating": "yes", "name": "United Tastes", "outdoor_seating": "yes"}}, {"type": "node", "id": 6119928234, "lat": 50.8352875, "lon": 4.3631937, "tags": {"amenity": "cafe", "changing_table": "no", "entrance:kerb:height": "0.27", "entrance:ramp": "no", "entrance:step_count": "3", "entrance:width": "0.8", "lgbtq:women": "primary", "name": "The Crazy Circle", "survey:date": "2024-12-01", "toilets:wheelchair": "no", "website": "https://www.thecrazycircle.com/", "wheelchair:turning_circle": "no"}}, {"type": "node", "id": 6799873946, "lat": 50.8380352, "lon": 4.3685263, "tags": {"amenity": "cafe", "contact:website": "https://leopoldcafepresse.com/", "indoor_seating": "yes", "internet_access": "wlan", "internet_access:fee": "no", "name": "L\u00e9opold Caf\u00e9 Presse", "opening_hours": "Mo-Fr 08:00-19:00; Sa,Su 10:00-18:00", "outdoor_seating": "yes", "wheelchair": "no"}}, {"type": "node", "id": 7154176791, "lat": 50.8359102, "lon": 4.3640577, "tags": {"amenity": "cafe", "contact:phone": "+32 2 503 27 87", "contact:website": "https://www.belgacoffee.com", "name": "Belga & Co", "opening_hours": "Mo-Fr 08:00-18:30; Sa,Su 09:00-18:30"}}, {"type": "node", "id": 7699602919, "lat": 50.8354447, "lon": 4.3648826, "tags": {"amenity": "cafe", "check_date": "2025-02-05", "contact:facebook": "https://www.facebook.com/fikabrussels/", "contact:phone": "+32 2 502 88 85", "cuisine": "coffee_shop", "indoor_seating": "yes", "internet_access": "wlan", "internet_access:fee": "no", "name": "Fika", "opening_hours": "Tu-Sa 09:00-17:00", "outdoor_seating": "patio"}}, {"type": "node", "id": 8538698915, "lat": 50.8360652, "lon": 4.3682185, "tags": {"amenity": "cafe", "check_date:opening_hours": "2024-11-13", "indoor_seating": "yes", "name": "Le Consul", "name:signed": "no", "note": "Formerly Le Consul Caf\u00e9 - outdoor displays still visible - please do not recreate until there is evidence a new business has taken over", "opening_hours:signed": "no", "outdoor_seating": "yes"}}, {"type": "node", "id": 12181786179, "lat": 50.8382356, "lon": 4.362913, "tags": {"amenity": "cafe", "changing_table": "no", "changing_table:adult": "no", "contact:website": "https://leopoldcafepresse.com/", "entrance:kerb:height": "0.01", "entrance:step_count": "1", "entrance:width": "0.96", "internet_access": "wlan", "internet_access:fee": "no", "name": "Leopold Cafe Presse", "opening_hours": "Mo-Fr 08:00-20:00; Sa 09:00-20:00; Su,PH 10:00-18:00", "ramp:wheelchair": "no", "toilets:access": "customers", "toilets:wheelchair": "no", "wheelchair:turning_circle": "no"}}, {"type": "node", "id": 12223128404, "lat": 50.8340215, "lon": 4.3679905, "tags": {"amenity": "cafe", "name": "Coffee Lab", "website": "https://alchemistscoffee.com"}}, {"type": "node", "id": 12914862558, "lat": 50.8373797, "lon": 4.3672244, "tags": {"amenity": "cafe", "contact:instagram": "https://www.instagram.com/ondo.bx/", "cuisine": "coffee_shop", "name": "Ondo", "origin": "korean"}}, {"type": "node", "id": 13379157565, "lat": 50.8368144, "lon": 4.3658993, "tags": {"amenity": "cafe"}}]}