{"version": 0.6, "generator": "Overpass API 0.7.62.10 2d4cfc48", "osm3s": {"timestamp_osm_base": "2026-02-03T08:42:30Z", "copyright": "The data included in this document is from www.openstreetmap.org. The data is made available under ODbL."}, "elements": [{"type": "node", "id": 474985854, "lat": 50.8302079, "lon": 4.3442551, "tags": {"amenity": "pub", "check_date": "2025-08-13", "contact:phone": "+32 2 539 40 68", "food": "yes", "indoor_seating": "yes", "name": "Brasserie Verschueren", "outdoor_seating": "yes", "wheelchair": "limited"}}, {"type": "node", "id": 3100734054, "lat": 50.8308294, "lon": 4.3458708, "tags": {"amenity": "pub", "check_date": "2025-08-05", "cuisine": "pasta;chicken;burger", "name": "Rocky Pompadour", "name:en": "Rocky Pompadour", "name:fr": "Rocky Pompadour"}}, {"type": "node", "id": 3100741123, "lat": 50.8312334, "lon": 4.3470158, "tags": {"amenity": "bar", "check_date": "2025-02-23", "indoor_seating": "yes", "name": "La Victoire", "outdoor_seating": "yes"}}, {"type": "node", "id": 3349536701, "lat": 50.8305562, "lon": 4.3459703, "tags": {"amenity": "pub", "check_date": "2025-08-05", "contact:website": "https://cipiace.be", "name": "CiPiaCe", "outdoor_seating": "pedestrian_zone"}}, {"type": "node", "id": 3349536703, "lat": 50.8306426, "lon": 4.3461193, "tags": {"alt_name": "Pub l'Union", "amenity": "pub", "brewery": "various", "changing_table": "no", "changing_table:adult": "no", "check_date": "2025-08-05", "entrance:kerb:height": "0.11", "entrance:step_count": "1", "entrance:width": "1.3", "food": "yes", "indoor_seating": "yes", "name": "Brasserie de l'Union", "opening_hours": "Mo-Su 08:30-23:30", "outdoor_seating": "yes", "ramp:wheelchair": "no", "wheelchair": "limited", "wheelchair:turning_circle": "no"}}, {"type": "node", "id": 6815860564, "lat": 50.8309882, "lon": 4.3464518, "tags": {"amenity": "bar", "check_date": "2025-02-02", "indoor_seating": "yes", "name": "Lusitano", "outdoor_seating": "yes"}}, {"type": "node", "id": 6815868156, "lat": 50.830391, "lon": 4.3454621, "tags": {"amenity": "bar", "name": "Dust bar"}}, {"type": "node", "id": 6815871276, "lat": 50.8305426, "lon": 4.3458698, "tags": {"amenity": "pub", "check_date": "2025-03-14", "indoor_seating": "yes", "name": "Brasserie Egalit\u00e9", "outdoor_seating": "yes"}}, {"type": "node", "id": 6815930828, "lat": 50.8302343, "lon": 4.3446829, "tags": {"amenity": "pub", "description": "Brasserie", "name": "Le Louvre", "opening_hours": "Mo-Su 06:00-02:00", "outdoor_seating": "pedestrian_zone", "payment:credit_cards": "yes", "payment:debit_cards": "yes"}}, {"type": "node", "id": 6815969274, "lat": 50.8308984, "lon": 4.34418, "tags": {"amenity": "bar", "check_date": "2025-02-23", "indoor_seating": "yes", "name": "El Faro", "outdoor_seating": "yes", "payment:credit_cards": "yes", "payment:debit_cards": "yes"}}, {"type": "node", "id": 7041630137, "lat": 50.8311708, "lon": 4.3459958, "tags": {"amenity": "bar", "brewery": "Ermitage;Kaapse_Brouwers;Cantillon;Cyclic_Beer_Farm;Ministry_of_Belgian_Beer", "check_date": "2024-08-31", "contact:phone": "+32 2 732 32 68", "contact:website": "https://ermitagesaintgilles.be/", "microbrewery": "yes", "name": "L'Ermitage Saint-Gilles", "opening_hours": "Mo-Su 16:00-24:00", "outdoor_seating": "yes", "start_date": "2019-12-07"}}, {"type": "node", "id": 9010620573, "lat": 50.8344631, "lon": 4.3431497, "tags": {"amenity": "pub", "indoor_seating": "yes", "name": "Volle Pot", "outdoor_seating": "no"}}, {"type": "node", "id": 9654388103, "lat": 50.8304305, "lon": 4.345621, "tags": {"amenity": "pub", "check_date": "2025-11-14", "indoor_seating": "yes", "internet_access": "wlan", "name": "Caf\u00e9 Maison du Peuple", "opening_hours": "Mo-Th 11:00-24:00, Fr 11:00-03:00, Sa 09:30-03:00, Su 09:30-23:00", "outdoor_seating": "yes", "payment:credit_cards": "yes", "payment:debit_cards": "yes", "wheelchair": "yes"}}, {"type": "node", "id": 10159200292, "lat": 50.8336004, "lon": 4.3444264, "tags": {"amenity": "pub", "indoor_seating": "yes", "name": "New Faucon", "outdoor_seating": "sidewalk", "wheelchair": "no"}}, {"type": "node", "id": 10246337601, "lat": 50.8308458, "lon": 4.3415553, "tags": {"amenity": "bar", "check_date": "2022-12-08", "name": "Galletos"}}, {"type": "node", "id": 10246337602, "lat": 50.8312604, "lon": 4.3429147, "tags": {"amenity": "bar", "check_date": "2025-09-18", "name": "Le bateau ivre"}}, {"type": "node", "id": 10246337603, "lat": 50.8313678, "lon": 4.3433737, "tags": {"amenity": "bar", "changing_table": "no", "changing_table:adult": "no", "check_date": "2025-09-18", "entrance:kerb:height": "0.2", "entrance:step_count": "2", "entrance:width": "0.87", "indoor_seating": "yes", "name": "Le Volders", "outdoor_seating": "yes", "ramp:wheelchair": "no", "wheelchair:turning_circle": "yes"}}, {"type": "node", "id": 11457799168, "lat": 50.8311019, "lon": 4.3448126, "tags": {"amenity": "pub", "check_date": "2025-02-02", "contact:instagram": "fightclub1060", "cuisine": "pizza", "name": "Fight Club"}}, {"type": "node", "id": 11585729488, "lat": 50.8320163, "lon": 4.3335351, "tags": {"amenity": "bar", "name": "Au Coin Du Monde 2", "wheelchair": "no"}}]}