{"version": 0.6, "generator": "Overpass API 0.7.62.10 2d4cfc48", "osm3s": {"timestamp_osm_base": "2026-02-02T16:39:28Z", "copyright": "The data included in this document is from www.openstreetmap.org. The data is made available under ODbL."}, "elements": [{"type": "node", "id": 1676021592, "lat": 50.895347, "lon": 4.387884, "tags": {"amenity": "restaurant", "contact:phone": "+32 2 262 27 49", "name": "In den Achtsten Hemel", "opening_hours": "Mo-Sa 11:00-22:00"}}, {"type": "node", "id": 6849402554, "lat": 50.8950823, "lon": 4.3875505, "tags": {"amenity": "restaurant", "contact:email": "info@lescyclades.be", "contact:facebook": "https://www.facebook.com/people/Les-Cyclades/100063972435015/", "contact:phone": "+32 2 269 69 94", "contact:website": "https://www.lescyclades.be/", "cuisine": "greek", "name": "Les Cyclades", "opening_hours": "Tu-Su 11:30-14:30,18:00-23:00; Fr,Sa 11:30-14:30,18:00-23:30", "outdoor_seating": "yes", "takeaway": "yes"}}, {"type": "node", "id": 8171731378, "lat": 50.8948068, "lon": 4.3835871, "tags": {"amenity": "restaurant", "contact:facebook": "https://www.facebook.com/LeMandarinChinoisNeder", "contact:phone": "+32 2 262 15 41", "cuisine": "chinese", "name": "Le Mandarin", "opening_hours": "Mo-Sa 18:00-22:00; Tu off; Su 12:00-14:00,18:00-22:00", "outdoor_seating": "yes", "takeaway": "yes"}}, {"type": "node", "id": 8305755592, "lat": 50.8947193, "lon": 4.3852436, "tags": {"air_conditioning": "yes", "amenity": "restaurant", "contact:email": "info@o-thai.com", "contact:facebook": "https://www.facebook.com/%C3%94-Tha%C3%AF-2091899007805406/", "contact:phone": "+32 2 772 03 18", "contact:website": "https://o-thai.com/en", "cuisine": "thai", "delivery": "yes", "name": "\u00d4 Tha\u00ef", "opening_hours": "10:30-22:00; Fr,Sa 10:30-24:00", "takeaway": "yes", "wheelchair": "yes"}}, {"type": "node", "id": 8305795235, "lat": 50.8942819, "lon": 4.3825247, "tags": {"amenity": "restaurant", "contact:email": "info@delicesduliban.be", "contact:facebook": "https://www.facebook.com/delicesdulibanBE/", "contact:mobile": "+32 489 00 09 10", "cuisine": "lebanese", "delivery": "yes", "name": "D\u00e9lices du Liban", "opening_hours": "Tu-Su 11:00-14:30,17:00-20:30", "outdoor_seating": "yes", "takeaway": "yes", "website": "https://delicesduliban.be/"}}, {"type": "node", "id": 8318753745, "lat": 50.8956204, "lon": 4.389983, "tags": {"amenity": "restaurant", "contact:phone": "+32 2 268 37 75", "cuisine": "chinese", "name": "Golden City", "opening_hours": "12:00-14:00,18:00-23:00", "takeaway": "yes"}}, {"type": "node", "id": 8321898980, "lat": 50.8952102, "lon": 4.3872842, "tags": {"amenity": "restaurant", "contact:email": "info@perpassione.be", "contact:facebook": "https://www.facebook.com/PerpassioneNOH/", "contact:mobile": "+32 489 95 87 27", "contact:phone": "+32 2 261 11 27", "contact:website": "https://www.perpassione.be", "cuisine": "italian", "delivery": "yes", "name": "Per Passione", "opening_hours": "Tu-Fr 11:30-14:00,18:00-22:00; Sa,Su 18:00-22:00", "takeaway": "yes"}}, {"type": "node", "id": 9825551908, "lat": 50.894796, "lon": 4.3835068, "tags": {"amenity": "restaurant", "contact:email": "info@pizzeriabellaciao.be", "contact:phone": "+32 2 305 55 40", "contact:website": "https://www.pizzeriabellaciao.be/", "cuisine": "pizza;italian", "delivery": "yes", "name": "Bella Ciao", "opening_hours": "Mo-Sa 11:00-14:00,17:30-23:00; Tu off; Fr 15:30-23:00; Su 11:00-14:00,17:30-23:15", "takeaway": "yes"}}]}