{"version": 0.6, "generator": "Overpass API 0.7.62.10 2d4cfc48", "osm3s": {"timestamp_osm_base": "2026-02-02T19:07:51Z", "copyright": "The data included in this document is from www.openstreetmap.org. The data is made available under ODbL."}, "elements": [{"type": "node", "id": 2322014482, "lat": 50.8225721, "lon": 4.3538971, "tags": {"amenity": "cafe", "check_date": "2024-07-18", "diet:vegetarian": "yes", "internet_access": "wlan", "internet_access:fee": "no", "name": "L'Atelier", "outdoor_seating": "yes", "smoking": "no"}}, {"type": "node", "id": 2667340254, "lat": 50.8253385, "lon": 4.3534806, "tags": {"amenity": "cafe", "contact:website": "https://www.la-belladone.com/", "name": "La Belladone", "opening_hours": "Tu 18:00-24:00; We-Sa 11:00-01:00; Su 11:00-18:00", "wikidata": "Q119558424"}}, {"type": "node", "id": 4413558465, "lat": 50.8257302, "lon": 4.3476655, "tags": {"amenity": "cafe", "check_date": "2025-08-08", "contact:facebook": "https://www.facebook.com/Kitchenette.saintgilles", "cuisine": "sandwich", "indoor_seating": "yes", "internet_access": "yes", "name": "Kitchenette", "opening_hours": "Mo-Sa 07:30-16:00", "outdoor_seating": "sidewalk", "smoking": "no"}}, {"type": "node", "id": 4426245879, "lat": 50.826385, "lon": 4.3449447, "tags": {"amenity": "cafe", "check_date": "2025-10-08", "name": "Invictus"}}, {"type": "node", "id": 7195165369, "lat": 50.8236649, "lon": 4.3480345, "tags": {"amenity": "cafe", "contact:mobile": "+32 492 54 00 62", "contact:website": "https://www.thewildlab.be/", "description": "Vegetarian caf\u00e9 (brunch, smoothie, bowls, coffee)", "diet:vegan": "yes", "diet:vegetarian": "only", "name": "The Wild Lab", "opening_hours": "Tu-Fr 10:00-16:00; Sa, Su 9:30-16:00"}}, {"type": "node", "id": 7980571564, "lat": 50.8228975, "lon": 4.353184, "tags": {"amenity": "cafe", "check_date": "2025-03-28", "contact:instagram": "https://www.instagram.com/kami.brussels", "cuisine": "coffee_shop;lunch;organic", "name": "Kami", "opening_hours": "Tu-Fr 08:30-16:00; Sa-Su 10:00-17:00", "payment:cash": "yes", "payment:credit_cards": "yes", "payment:debit_cards": "yes"}}, {"type": "node", "id": 8860469748, "lat": 50.8225557, "lon": 4.3497732, "tags": {"amenity": "cafe", "contact:phone": "+32 2 343 18 48", "name": "Eat a nous", "opening_hours": "Tu 10:00-18:30; We,Th 09:30-18:30; Fr 09:00-15:00"}}, {"type": "node", "id": 9238354199, "lat": 50.8231938, "lon": 4.3530519, "tags": {"amenity": "cafe", "contact:facebook": "https://www.facebook.com/Kaki.CakeBar/", "contact:phone": "+32 2 468 29 62", "cuisine": "coffee_shop;cake;asian;teahouse;dessert", "name": "Kaki Cake Bar", "opening_hours": "Tu-Fr 09:00-18:00; Sa,Su 10:00-18:00", "takeaway": "yes"}}, {"type": "node", "id": 9654550699, "lat": 50.8245717, "lon": 4.3480983, "tags": {"amenity": "cafe", "check_date": "2025-08-08", "contact:email": "modanova@hotmail.fr", "contact:mobile": "+32 478 03 41 86", "contact:website": "https://modanova.be/", "name": "Moda Nova"}}, {"type": "node", "id": 10139555019, "lat": 50.823946, "lon": 4.3439293, "tags": {"amenity": "cafe", "name": "Caf\u00e9 Mercedes"}}, {"type": "node", "id": 10633599645, "lat": 50.8255911, "lon": 4.3391606, "tags": {"amenity": "cafe", "name": "Le Sportif", "outdoor_seating": "yes"}}, {"type": "node", "id": 10633599829, "lat": 50.8254113, "lon": 4.3397816, "tags": {"amenity": "cafe", "name": "Doni M"}}, {"type": "node", "id": 10777960505, "lat": 50.8233983, "lon": 4.3537354, "tags": {"amenity": "cafe", "contact:instagram": "https://www.instagram.com/medartcafe", "cuisine": "coffee_shop", "indoor_seating": "yes", "name": "Med Art", "outdoor_seating": "no"}}, {"type": "node", "id": 10792703407, "lat": 50.8236365, "lon": 4.3538115, "tags": {"amenity": "cafe", "name": "Olive Restaurant"}}, {"type": "node", "id": 11649060382, "lat": 50.8238317, "lon": 4.3433039, "tags": {"amenity": "cafe", "contact:facebook": "https://www.facebook.com/574866346279984", "contact:instagram": "https://instagram.com/alchimiste.cafe", "contact:phone": "+32 2 534 69 14", "contact:website": "https://alchimistecafe.be/", "cuisine": "coffee_shop;pancake;sandwich;cake", "diet:dairy_free": "yes", "diet:gluten_free": "yes", "diet:vegan": "only", "indoor_seating": "yes", "internet_access": "wlan", "internet_access:fee": "customers", "name": "L\u2019Alchimiste", "opening_hours": "Mo-Fr 07:30-15:00; Sa-Su 10:00-15:00", "outdoor_seating": "yes", "smoking": "outside"}}, {"type": "node", "id": 12074173218, "lat": 50.8258006, "lon": 4.3467342, "tags": {"amenity": "cafe", "contact:website": "https://cafelapompe.be/", "indoor_seating": "yes", "name": "Caf\u00e9 La Pompe", "opening_hours": "Mo-Su,PH 08:00-01:00; Su 08:00-01:00; Fr,Sa 08:00-02:00", "outdoor_seating": "yes"}}, {"type": "node", "id": 12581469272, "lat": 50.8237375, "lon": 4.3429621, "tags": {"amenity": "cafe", "indoor_seating": "yes", "name": "El Loco", "outdoor_seating": "yes"}}, {"type": "node", "id": 12581484289, "lat": 50.8241242, "lon": 4.3431015, "tags": {"amenity": "cafe", "indoor_seating": "yes", "name": "Amarantino", "outdoor_seating": "yes"}}, {"type": "node", "id": 12581487012, "lat": 50.8235381, "lon": 4.3428568, "tags": {"amenity": "cafe", "indoor_seating": "yes", "name": "Le Time", "outdoor_seating": "yes"}}, {"type": "node", "id": 12740755712, "lat": 50.8251383, "lon": 4.3487829, "tags": {"amenity": "cafe", "indoor_seating": "yes", "outdoor_seating": "yes"}}, {"type": "node", "id": 13135241448, "lat": 50.8260106, "lon": 4.3468549, "tags": {"amenity": "cafe", "contact:instagram": "https://www.instagram.com/solti.bxl", "contact:website": "https://solti.be", "cuisine": "coffee_shop", "name": "Solti"}}, {"type": "node", "id": 13159406392, "lat": 50.8254807, "lon": 4.3480441, "tags": {"amenity": "cafe", "cuisine": "coffee_shop", "indoor_seating": "yes", "name": "Mauvais \u00c9l\u00e8ve", "outdoor_seating": "sidewalk"}}]}