{"version": 0.6, "generator": "Overpass API 0.7.62.10 2d4cfc48", "osm3s": {"timestamp_osm_base": "2026-02-10T15:05:22Z", "copyright": "The data included in this document is from www.openstreetmap.org. The data is made available under ODbL."}, "elements": [{"type": "node", "id": 708490601, "lat": 50.8480389, "lon": 4.3553132, "tags": {"amenity": "cafe", "check_date": "2025-01-31", "contact:facebook": "VanesMokafe", "contact:phone": "+32 2 511 78 70", "indoor_seating": "yes", "level": "0", "name": "Mokaf\u00e9 Taverne", "opening_hours": "Mo-Sa 07:00-23:00; Su 07:30-20:00", "outdoor_seating": "yes", "toilets:wheelchair": "no", "wheelchair": "yes", "wikidata": "Q130753115", "wikimedia_commons": "Category:Mokaf\u00e9 Taverne"}}, {"type": "node", "id": 751802476, "lat": 50.8495185, "lon": 4.3511576, "tags": {"amenity": "cafe", "check_date": "2025-10-29", "check_date:opening_hours": "2025-10-27", "drive_through": "no", "indoor_seating": "yes", "name": "Cafe Inn", "opening_hours": "Mo-Su,PH 07:00-24:00", "outdoor_seating": "yes", "payment:cash": "yes", "payment:credit_cards": "yes", "toilets": "yes", "toilets:wheelchair": "no"}}, {"type": "node", "id": 1037462990, "lat": 50.8464956, "lon": 4.3498354, "tags": {"amenity": "cafe", "contact:email": "francois.lafontaine@icloud.com", "contact:website": "https://www.blackpotioncoffee.com", "cuisine": "coffee_shop", "diet:vegan": "yes", "diet:vegetarian": "yes", "indoor_seating": "yes", "internet_access": "wlan", "internet_access:fee": "no", "mapillary": "365348205569631", "name": "Caf\u00e9 Capitale", "old_name": "Coffee Company", "opening_hours": "Mo-Fr 08:00-19:00, Sa-Su 08:30-19:00", "outdoor_seating": "yes", "payment:cash": "yes", "payment:contactless": "yes", "payment:debit_cards": "yes", "takeaway": "yes", "toilets": "yes", "toilets:access": "customers", "toilets:wheelchair": "no", "wheelchair": "yes", "wheelchair:description": "Toilets located at level -1"}}, {"type": "node", "id": 1631382677, "lat": 50.8455743, "lon": 4.3480751, "tags": {"amenity": "cafe", "name": "Au Soleil", "opening_hours": "Mo-Th 09:30-01:00, Fr,Sa 09:30-02:00, Su 09:30-24:00", "outdoor_seating": "pedestrian_zone", "wikidata": "Q42416698", "wikimedia_commons": "Category:Au Soleil"}}, {"type": "node", "id": 3000941407, "lat": 50.8479405, "lon": 4.3522822, "tags": {"amenity": "cafe", "contact:email": "info@cafe-tasse.com", "contact:fax": "+32 2 502 49 07", "contact:phone": "+32 2 502 49 07", "contact:website": "https://cafe-tasse.com/", "name": "Caf\u00e9-Tasse", "opening_hours": "Mo-Fr 10:30-18:30; Sa 11:00-19:00; Su 12:00-18:30", "shop": "chocolate"}}, {"type": "node", "id": 3118681459, "lat": 50.8471778, "lon": 4.3546289, "tags": {"amenity": "cafe", "brand": "Le Pain Quotidien", "brand:wikidata": "Q2046903", "brand:wikipedia": "en:Le Pain Quotidien", "contact:phone": "+32 2 502 02 20", "contact:website": "https://www.lepainquotidien.com/be/en/locations/Galerie_de_la_Reine/Galerie-de-la-Reine-11", "cuisine": "coffee_shop", "diet:vegan": "yes", "diet:vegetarian": "yes", "entrance:step_count": "0", "entrance:width": "0.82", "indoor_seating": "yes", "name": "Le Pain Quotidien", "opening_hours": "Mo-Sa 07:00-19:00; Su,PH 08:00-19:00", "outdoor_seating": "yes", "takeaway": "yes", "toilets:access": "customers", "wheelchair": "limited"}}, {"type": "node", "id": 3118693286, "lat": 50.8479107, "lon": 4.3552138, "tags": {"alt_name": "Aksum Coffee House", "amenity": "cafe", "check_date": "2025-01-31", "contact:mobile": "+32 473 85 41 66", "contact:website": "https://aksumcoffeehouse.com/en/location/aksum-coffee-house-bruxelles-5941", "description": "Organic Ethiopian coffee, fair-trade tea, local cakes, etc.", "entrance:kerb:height": "0.04", "entrance:step_count": "1", "entrance:width": "0.83", "indoor_seating": "yes", "level": "0", "name": "Aksum", "opening_hours": "Su-Fr 09:00-21:00; Sa 09:00-22:00", "opening_hours:signed": "no", "outdoor_seating": "yes"}}, {"type": "node", "id": 3118694138, "lat": 50.8488715, "lon": 4.354376, "tags": {"amenity": "cafe", "check_date": "2024-11-19", "check_date:opening_hours": "2024-11-19", "cuisine": "bagel;cake;coffee_shop", "entrance:kerb:height": "0.08", "entrance:step_count": "1", "entrance:width": "0.9", "internet_access": "wlan", "level": "0", "name": "Bigg Cake", "opening_hours": "Mo-Su 08:30-18:30", "opening_hours:signed": "no", "toilets": "yes", "toilets:access": "customers", "website": "https://biggcake.com"}}, {"type": "node", "id": 3328728103, "lat": 50.8466302, "lon": 4.3540301, "tags": {"amenity": "cafe", "name": "Cafe Affligem"}}, {"type": "node", "id": 3506621359, "lat": 50.8480214, "lon": 4.3569402, "tags": {"amenity": "cafe", "check_date": "2026-01-08", "indoor_seating": "yes", "name": "Croix100", "outdoor_seating": "no"}}, {"type": "node", "id": 3574500900, "lat": 50.8470358, "lon": 4.3519105, "tags": {"amenity": "cafe", "brand": "Starbucks", "brand:wikidata": "Q37158", "brand:wikipedia": "en:Starbucks", "contact:website": "https://www.starbucks.be/nl/store-locator?types=starbucks&zoom=15&latLng=50.84556%2C4.356939999999998&place=Brussel&store=15272-158067&storeDetail=15272-158067", "cuisine": "coffee_shop", "indoor_seating": "yes", "internet_access": "yes", "internet_access:fee": "no", "name": "Starbucks", "official_name": "Starbucks Coffee", "opening_hours": "Mo-Th,Su 09:00-20:00; Fr-Sa 09:00-21:00", "operator": "Autogrill Belux", "operator:wikidata": "Q22131845", "outdoor_seating": "yes", "ref": "152", "smoking": "no", "takeaway": "yes", "toilets": "yes", "wheelchair": "no", "wifi": "free"}}, {"type": "node", "id": 4284192891, "lat": 50.8472973, "lon": 4.352745, "tags": {"alt_name": "The Sisters caf\u00e9", "amenity": "cafe", "changing_table": "no", "contact:email": "thesister.cafe@gmail.com", "contact:phone": "+32 2 513 22 26", "contact:website": "https://www.thesistercafe-brussels.com", "cuisine": "sandwich", "diet:gluten_free": "only", "diet:vegan": "only", "diet:vegetarian": "only", "email": "thesister.cafe@gmail.com", "entrance:kerb:height": "0.1", "entrance:ramp": "no", "entrance:step_count": "1", "entrance:width": "0.8", "indoor_seating": "yes", "internet_access": "wlan", "internet_access:fee": "no", "internet_access:ssid": "THE SISTER", "name": "The Sister", "opening_hours": "Mo-Fr 10:00-23:00; Sa 09:00-24:00; Su 09:00-23:00", "organic": "only", "outdoor_seating": "pedestrian_zone", "service:electricity": "limited", "toilets:access": "customers", "toilets:wheelchair": "no", "wheelchair": "limited", "wheelchair:turning_circle": "no"}}, {"type": "node", "id": 4323046261, "lat": 50.848492, "lon": 4.3510886, "tags": {"amenity": "cafe", "check_date": "2026-01-05", "check_date:opening_hours": "2026-01-05", "cuisine": "coffee_shop", "internet_access": "yes", "name": "Corica", "opening_hours": "Mo-Sa 08:00-18:00", "opening_hours:signed": "no", "outdoor_seating": "yes", "payment:cash": "yes", "payment:credit_cards": "yes", "payment:debit_cards": "yes", "shop": "coffee", "wheelchair": "limited"}}, {"type": "node", "id": 4352415601, "lat": 50.8478237, "lon": 4.3519088, "tags": {"alt_name": "St.Nicolaascaf\u00e9;Sint-Nicolaas;Sint-Nicolaascaf\u00e9", "amenity": "cafe", "name": "St. Nicolaas"}}, {"type": "node", "id": 4361635914, "lat": 50.845936, "lon": 4.348288, "tags": {"amenity": "cafe", "check_date": "2025-08-18", "name": "Le Saint-Jacques"}}, {"type": "node", "id": 4361643032, "lat": 50.84553, "lon": 4.3479887, "tags": {"amenity": "cafe", "check_date:opening_hours": "2025-09-27", "name": "Llanes", "opening_hours:signed": "no", "wheelchair": "limited"}}, {"type": "node", "id": 4413342799, "lat": 50.8476852, "lon": 4.3532546, "tags": {"amenity": "cafe", "check_date": "2024-08-11", "contact:instagram": "https://www.instagram.com/mani.brussels/", "description": "Brazilian Superfood", "internet_access": "wlan", "internet_access:fee": "no", "level": "0", "name": "Mani Cafe & Tapiocaria", "opening_hours": "Mo off; Tu-Su 13:00-20:00", "outdoor_seating": "no", "wheelchair": "no"}}, {"type": "node", "id": 4413385342, "lat": 50.8485379, "lon": 4.3523259, "tags": {"amenity": "cafe", "contact:email": "brussels@8tea5.com", "contact:mobile": "+32 475 83 92 66", "contact:website": "http://www.8tea5.com/locations/brussels/", "name": "8tea5", "opening_hours": "Mo-Sa 10:30-20:00; Su 12:00-18:00"}}, {"type": "node", "id": 4413690827, "lat": 50.8485004, "lon": 4.3557949, "tags": {"amenity": "cafe", "check_date:opening_hours": "2026-01-08", "entrance:kerb:height": "0.35", "entrance:ramp": "no", "entrance:step_count": "2", "entrance:width": "0.8", "indoor_seating": "yes", "name": "COVE", "opening_hours:signed": "no", "wheelchair": "limited", "wheelchair:turning_circle": "no"}}, {"type": "node", "id": 4413722003, "lat": 50.845652, "lon": 4.3535072, "tags": {"amenity": "cafe", "indoor_seating": "yes", "name": "Chez Charles", "outdoor_seating": "yes"}}, {"type": "node", "id": 4413802968, "lat": 50.8467715, "lon": 4.3537237, "tags": {"amenity": "cafe", "check_date": "2024-01-04", "contact:website": "https://www.bubbletearoom.be/", "cuisine": "bubble_tea", "name": "Bubbletearoom.be", "note": "Formerly La Coquille d'Or chocolate shop - large outdoor display still visible but the shop is closed as of July 2018 during works on the building", "opening_hours": "Mo-Su 11:00-23:00", "wheelchair": "limited"}}, {"type": "node", "id": 4413802974, "lat": 50.8478493, "lon": 4.352351, "tags": {"amenity": "cafe", "check_date:opening_hours": "2023-04-01", "cuisine": "pancake;bagel;waffle", "indoor_seating": "yes", "name": "Eight & Three", "opening_hours:signed": "no", "outdoor_seating": "sidewalk", "wheelchair": "yes"}}, {"type": "node", "id": 4413933717, "lat": 50.8470953, "lon": 4.3507716, "tags": {"amenity": "cafe", "check_date:opening_hours": "2024-04-20", "cuisine": "coffee_shop", "name": "Latt\u00e9 Art", "opening_hours:signed": "no", "wheelchair": "limited"}}, {"type": "node", "id": 4413952485, "lat": 50.8458281, "lon": 4.3514434, "tags": {"amenity": "cafe", "brand": "Xing Fu Tang", "brand:en": "Xing Fu Tang", "brand:wikidata": "Q95720330", "brand:zh": "\u5e78\u798f\u5802", "contact:website": "https://xingfutang.be/", "cuisine": "bubble_tea", "name": "Xing Fu Tang", "name:en": "Xing Fu Tang", "name:zh": "\u5e78\u798f\u5802", "note": "Surveyed in May 2023 with posters announced an imminent opening, probably June/July 2023", "takeaway": "only"}}, {"type": "node", "id": 4418284328, "lat": 50.8445931, "lon": 4.3479404, "tags": {"amenity": "cafe", "check_date": "2023-11-14", "cuisine": "coffee;bakery", "indoor_seating": "yes", "name": "L'Aca", "outdoor_seating": "yes", "smoking": "no"}}, {"type": "node", "id": 4418284331, "lat": 50.8484185, "lon": 4.3544994, "tags": {"amenity": "cafe", "contact:email": "cupcats@cupcats.be", "contact:mobile": "+32 487 01 91 39", "contact:website": "https://www.cupcats.be/", "cuisine": "coffee_shop", "description": "Cat caf\u00e9: this is a normal caf\u00e9 but there are many cats around the house and customers may interact with cats or pet them", "dog": "no", "drink:coffee": "served", "drink:hot_chocolate": "served", "drink:tea": "served", "name": "Cup Cats", "opening_hours": "Mo-Th 10:00-17:30; Fr,Su 10:00-19:00; Sa 10:00-20:00", "start_date": "2024-11", "theme": "cat"}}, {"type": "node", "id": 4418284343, "lat": 50.8500583, "lon": 4.3549603, "tags": {"amenity": "cafe", "bar": "yes", "cafe": "board_game", "contact:facebook": "https://www.facebook.com/comicsansbrussels/", "contact:instagram": "https://www.instagram.com/comicsansbrussels/", "contact:website": "https://www.comicsansbrussels.be/", "entrance:kerb:height": "0.15", "entrance:step_count": "1", "entrance:width": "0.98", "name": "Comic Sans", "opening_hours": "We-Th 15:00-24:00; Fr-Sa 15:00-02:00; Su 14:00-22:00", "toilets:wheelchair": "no", "wheelchair": "limited"}}, {"type": "node", "id": 4440441859, "lat": 50.8471934, "lon": 4.35238, "tags": {"amenity": "cafe", "changing_table": "no", "contact:instagram": "https://www.instagram.com/cafe.tiera/", "cuisine": "coffee_shop", "entrance:kerb:height": "0.14", "entrance:ramp": "no", "entrance:step_count": "1", "entrance:width": "0.83", "name": "Caf\u00e9 Tiera", "opening_hours": "Mo-Su 09:00-19:00", "toilets:wheelchair": "no", "wheelchair:turning_circle": "no"}}, {"type": "node", "id": 4471354929, "lat": 50.8497975, "lon": 4.354654, "tags": {"amenity": "cafe", "check_date:opening_hours": "2024-06-01", "indoor_seating": "yes", "name": "L\u2019Intermezzo", "opening_hours:signed": "no", "outdoor_seating": "yes"}}, {"type": "node", "id": 4553116328, "lat": 50.8449359, "lon": 4.3552114, "tags": {"amenity": "cafe", "changing_table": "no", "changing_table:adult": "no", "check_date:opening_hours": "2022-12-05", "indoor_seating": "yes", "name": "Brasserie de la Madeleine", "opening_hours:signed": "no", "outdoor_seating": "yes", "wheelchair:turning_circle": "no"}}, {"type": "node", "id": 4855303748, "lat": 50.8485917, "lon": 4.3561834, "tags": {"amenity": "cafe", "check_date:opening_hours": "2024-05-16", "diet:vegetarian": "yes", "entrance:step_count": "0", "entrance:width": "0.82", "indoor_seating": "yes", "name": "L'Arenberg", "opening_hours:signed": "no", "outdoor_seating": "yes"}}, {"type": "node", "id": 4897680323, "lat": 50.8447746, "lon": 4.3532394, "tags": {"amenity": "cafe", "contact:phone": "+32 2 513 65 13", "entrance:kerb:height": "0.08", "entrance:step_count": "1", "entrance:width": "0.74", "indoor_seating": "yes", "name": "Le Saint-Jean", "outdoor_seating": "yes", "toilets:wheelchair": "no", "wheelchair:turning_circle": "yes"}}, {"type": "node", "id": 6259353400, "lat": 50.8441539, "lon": 4.3552907, "tags": {"amenity": "cafe", "check_date:opening_hours": "2024-08-13", "level": "0", "name": "... by Lefty", "opening_hours:signed": "no"}}, {"type": "node", "id": 8447162877, "lat": 50.8461395, "lon": 4.3499491, "tags": {"amenity": "cafe", "indoor_seating": "no", "name": "Be Coffee", "payment:cash": "yes", "takeaway": "only"}}, {"type": "node", "id": 9188136910, "lat": 50.8471277, "lon": 4.3538526, "tags": {"air_conditioning": "yes", "amenity": "cafe", "contact:website": "https://lloydcoffee.com/", "indoor_seating": "yes", "internet_access": "wlan", "internet_access:fee": "no", "level": "0", "name": "Lloyd Coffee Eatery", "opening_hours": "Mo-Th,Su 07:00-20:00; Fr-Sa 07:00-22:00", "outdoor_seating": "yes", "toilets": "yes", "wheelchair": "no"}}, {"type": "node", "id": 10102908150, "lat": 50.8501378, "lon": 4.3526304, "tags": {"amenity": "cafe", "layer": "-1", "level": "-1", "location": "underground", "name": "Gong cha"}}, {"type": "node", "id": 10811278679, "lat": 50.8488994, "lon": 4.3572325, "tags": {"amenity": "cafe", "check_date:opening_hours": "2024-06-02", "indoor_seating": "yes", "name": "Het Clubke", "opening_hours:signed": "no", "outdoor_seating": "no"}}, {"type": "node", "id": 11138953593, "lat": 50.8479916, "lon": 4.357304, "tags": {"amenity": "cafe", "check_date:opening_hours": "2025-02-05", "name": "Lloyds Coffee Eatery", "opening_hours": "Mo-Fr 08:00-20:00; Sa,Su 09:00-20:00"}}, {"type": "node", "id": 11295402933, "lat": 50.8481063, "lon": 4.350362, "tags": {"amenity": "cafe", "level": "1"}}, {"type": "node", "id": 12092390397, "lat": 50.8468634, "lon": 4.3547415, "tags": {"amenity": "cafe", "check_date": "2024-08-04", "cuisine": "burger;breakfast", "name": "Cliff", "outdoor_seating": "yes"}}, {"type": "node", "id": 12119817301, "lat": 50.8496405, "lon": 4.3513687, "tags": {"amenity": "cafe", "check_date:opening_hours": "2025-10-27", "contact:website": "https://viage.be/en/wine-and-dine/viage-chill", "cuisine": "coffee_shop;tea", "level": "0", "name": "Viage Chill", "opening_hours": "Mo-Su 09:00-23:00"}}, {"type": "node", "id": 12762961501, "lat": 50.8459962, "lon": 4.3560884, "tags": {"amenity": "cafe", "diet:vegan": "yes", "name": "June", "payment:cash": "no", "surveillance": "yes", "surveillance:zone": "indoor"}}, {"type": "node", "id": 12919260703, "lat": 50.8465637, "lon": 4.3535159, "tags": {"amenity": "cafe", "name": "Bigg Cake"}}, {"type": "node", "id": 13110477322, "lat": 50.8446506, "lon": 4.3548554, "tags": {"amenity": "cafe", "name": "Le caf\u00e9 litt\u00e9raire"}}]}