{"version": 0.6, "generator": "Overpass API 0.7.62.10 2d4cfc48", "osm3s": {"timestamp_osm_base": "2026-02-03T09:29:45Z", "copyright": "The data included in this document is from www.openstreetmap.org. The data is made available under ODbL."}, "elements": [{"type": "node", "id": 493584391, "lat": 50.8594259, "lon": 4.3681593, "tags": {"name": "Sainte-Marie - Sint-Maria", "name:fr": "Sainte-Marie", "name:nl": "Sint-Maria", "public_transport": "stop_position", "railway": "tram_stop", "tram": "yes"}}, {"type": "node", "id": 3126574311, "lat": 50.8612075, "lon": 4.3675884, "tags": {"name": "Lefrancq", "public_transport": "stop_position", "railway": "tram_stop", "tram": "yes"}}, {"type": "node", "id": 3126574334, "lat": 50.8614813, "lon": 4.3675442, "tags": {"name": "Lefrancq", "public_transport": "stop_position", "railway": "tram_stop", "tram": "yes"}}, {"type": "node", "id": 3126953156, "lat": 50.8557863, "lon": 4.3670246, "tags": {"name": "Gillon", "public_transport": "stop_position", "railway": "tram_stop", "tram": "yes"}}, {"type": "node", "id": 3129550769, "lat": 50.8666194, "lon": 4.3687335, "tags": {"name": "Gallait", "public_transport": "stop_position", "railway": "tram_stop", "tram": "yes"}}, {"type": "node", "id": 3136264499, "lat": 50.8614376, "lon": 4.3684199, "tags": {"name": "Lefrancq", "public_transport": "stop_position", "railway": "tram_stop", "tram": "yes"}}, {"type": "node", "id": 3136264502, "lat": 50.8616047, "lon": 4.3677867, "tags": {"name": "Lefrancq", "public_transport": "stop_position", "railway": "tram_stop", "tram": "yes"}}, {"type": "node", "id": 4443023364, "lat": 50.8657117, "lon": 4.3645424, "tags": {"name": "Thomas", "public_transport": "stop_position", "railway": "tram_stop", "tram": "yes"}}, {"type": "node", "id": 4550707766, "lat": 50.8695622, "lon": 4.3713347, "tags": {"name": "Pavillon - Paviljoen", "name:fr": "Pavillon", "name:nl": "Paviljoen", "public_transport": "stop_position", "railway": "tram_stop", "tram": "yes"}}, {"type": "node", "id": 4550707777, "lat": 50.869249, "lon": 4.3710073, "tags": {"name": "Pavillon - Paviljoen", "name:fr": "Pavillon", "name:nl": "Paviljoen", "public_transport": "stop_position", "railway": "tram_stop", "tram": "yes"}}, {"type": "node", "id": 4940156036, "lat": 50.8653985, "lon": 4.3677531, "tags": {"name": "Gallait", "public_transport": "stop_position", "railway": "tram_stop", "tram": "yes"}}, {"type": "node", "id": 9041016656, "lat": 50.8649682, "lon": 4.3655866, "tags": {"name": "Liedts", "public_transport": "stop_position", "railway": "tram_stop", "tram": "yes"}}, {"type": "node", "id": 9041016662, "lat": 50.8644336, "lon": 4.365929, "tags": {"name": "Liedts", "public_transport": "stop_position", "railway": "tram_stop", "tram": "yes"}}]}