{"version": 0.6, "generator": "Overpass API 0.7.62.10 2d4cfc48", "osm3s": {"timestamp_osm_base": "2026-02-03T09:05:09Z", "copyright": "The data included in this document is from www.openstreetmap.org. The data is made available under ODbL."}, "elements": [{"type": "node", "id": 766893278, "lat": 50.8591422, "lon": 4.3784109, "tags": {"amenity": "restaurant", "name": "La Couronne"}}, {"type": "node", "id": 2344231196, "lat": 50.8521887, "lon": 4.3865062, "tags": {"air_conditioning": "yes", "amenity": "restaurant", "contact:facebook": "https://www.facebook.com/laruota.dagaetano/", "contact:instagram": "https://instagram.com/laruotabxl", "contact:mail": "https://ruota.be/en/reservation", "contact:phone": "+32 2 736 57 37", "contact:website": "https://ruota.be/", "cuisine": "italian;pizza", "diet:halal": "yes", "diet:vegetarian": "yes", "internet_access": "wlan", "name": "La Ruota", "opening_hours": "Mo-Su 11:45-14:45, 18:00-23:00", "takeaway": "yes", "wheelchair": "yes"}}, {"type": "node", "id": 2354753070, "lat": 50.8581051, "lon": 4.3831557, "tags": {"amenity": "restaurant", "check_date": "2022-10-03", "name": "Karaca Concept", "opening_hours": "Mo-Sa 15:00-24:00"}}, {"type": "node", "id": 2357400190, "lat": 50.8530043, "lon": 4.3878908, "tags": {"amenity": "restaurant", "contact:email": "pizzeria@merveillosa.be", "contact:mobile": "+32 489 87 72 43", "contact:website": "http://www.pizzeriamerveillosa.be/", "cuisine": "pizza", "name": "Pizza Merveillosa", "opening_hours": "We-Mo 12:00-23:00", "takeaway": "yes"}}, {"type": "node", "id": 2357756974, "lat": 50.8530973, "lon": 4.391313, "tags": {"amenity": "restaurant", "contact:website": "https://obeyrouth-restaurant.be/", "cuisine": "lebanese", "name": "O Beyrouth"}}, {"type": "node", "id": 2359101259, "lat": 50.852763, "lon": 4.3901707, "tags": {"amenity": "restaurant", "contact:phone": "+32 2 732 61 81", "contact:website": "http://www.poseidons.be/", "cuisine": "greek", "name": "Poseidon", "opening_hours": "Mo-Fr 11:00-14:00, 18:00-22:00; Sa-Su 11:00-15:00, 18:00-22:00", "takeaway": "only"}}, {"type": "node", "id": 2403700022, "lat": 50.8492301, "lon": 4.389329, "tags": {"amenity": "restaurant", "contact:phone": "+32 2 351 63 23", "contact:website": "https://topogigiobruxelles.be", "cuisine": "italian;pizza", "diet:vegan": "no", "diet:vegetarian": "yes", "internet_access": "wlan", "name": "TopoGigio"}}, {"type": "node", "id": 2421757610, "lat": 50.8497369, "lon": 4.3902097, "tags": {"amenity": "restaurant", "check_date:opening_hours": "2024-04-28", "contact:phone": "+32 2 735 15 17", "contact:website": "https://lesainthubert.be/", "diet:vegetarian": "no", "name": "Le Saint Hubert", "opening_hours": "Mo-Su 11:00-23:00", "opening_hours:signed": "no", "outdoor_seating": "yes"}}, {"type": "node", "id": 3895091138, "lat": 50.8592348, "lon": 4.3816949, "tags": {"amenity": "restaurant", "check_date": "2025-02-12", "contact:email": "info@tpotverdoemmeke.be", "contact:phone": "+32 2 245 25 07", "contact:website": "http://www.tpotverdoemmeke.be/", "cuisine": "regional", "delivery": "no", "name": "\u2018t Potverdoemmeke", "opening_hours": "Tu-Th 12:00-14:30,18:30-22:00; Fr 12:00-14:30,18:30-22:30; Sa 18:30-22:30; Su 12:00-14:30,18:30-22:00", "takeaway": "no"}}, {"type": "node", "id": 4555988777, "lat": 50.8536252, "lon": 4.3855409, "tags": {"amenity": "restaurant", "name": "Don Luis", "opening_hours": "Tu-Su 12:00-15:00,18:30-23:00", "website": "http://www.restaurantdonluis.com"}}, {"type": "node", "id": 4791470942, "lat": 50.8561181, "lon": 4.3920839, "tags": {"amenity": "restaurant", "check_date": "2026-01-01", "contact:facebook": "https://www.facebook.com/p/La-Selva-100063556779945/", "contact:phone": "+32 2 735 89 34", "cuisine": "pizza;italian", "diet:vegan": "no", "diet:vegetarian": "yes", "name": "La Selva", "opening_hours": "Th-Tu 12:00-14:30,18:00-22:30", "payment:bancontact": "yes", "payment:mastercard": "yes", "payment:pluxee": "yes", "payment:visa": "yes", "wheelchair": "limited"}}, {"type": "node", "id": 6510543920, "lat": 50.8529151, "lon": 4.386851, "tags": {"amenity": "restaurant", "contact:instagram": "https://www.instagram.com/stella_ditalia251/", "cuisine": "pizza", "name": "Stella d'Italia"}}, {"type": "node", "id": 6514697589, "lat": 50.8555612, "lon": 4.3836131, "tags": {"amenity": "restaurant", "contact:website": "https://www.restobroadway.be/", "name": "Broadway"}}, {"type": "node", "id": 7849442528, "lat": 50.8567777, "lon": 4.3913802, "tags": {"amenity": "restaurant", "contact:facebook": "https://www.facebook.com/lezinneke", "contact:phone": "+32 2 245 03 22", "contact:website": "https://www.lezinneke.be", "cuisine": "seafood;belgian", "name": "Le Zinneke", "opening_hours": "Mo,Tu off; We,Th,Su 12:00-14:00,18:00-22:00; Fr,Sa 12:00-14:00,18:00-22:30", "wheelchair": "no"}}, {"type": "node", "id": 8032451943, "lat": 50.8532727, "lon": 4.3808262, "tags": {"amenity": "restaurant", "contact:facebook": "https://www.facebook.com/Le-Chateau-de-Dracula-749929178672775/", "contact:mobile": "+32 472 32 69 18", "contact:website": "https://www.lechateaudedracula.com/", "cuisine": "romanian", "name": "Le Chateau de Dracula", "opening_hours": "Mo off; Tu-Su 11:00-23:00", "reservation": "yes", "takeaway": "yes"}}, {"type": "node", "id": 8309114965, "lat": 50.8539602, "lon": 4.3860861, "tags": {"amenity": "restaurant", "cuisine": "thai", "name": "Saveurs Tha\u00ef", "takeaway": "only"}}, {"type": "node", "id": 9427819835, "lat": 50.853293, "lon": 4.3884265, "tags": {"amenity": "restaurant", "contact:phone": "+32 2 736 54 25", "contact:website": "https://dongigi.business.site/", "cuisine": "italian", "name": "Don Gigi", "opening_hours": "Mo-Sa 10:30-21:30; Su off"}}, {"type": "node", "id": 9592008103, "lat": 50.8539235, "lon": 4.3883292, "tags": {"amenity": "restaurant", "cuisine": "chinese", "name": "Les Oiseaux en Carottes", "opening_hours": "Mo,We-Su,PH 11:00-14:30,17:00-22:30, Tu off", "takeaway": "only"}}, {"type": "node", "id": 9983272964, "lat": 50.8554451, "lon": 4.3974793, "tags": {"amenity": "restaurant", "check_date": "2022-08-28", "name": "Au Relais - Chez Casimir", "opening_hours": "Mo-Sa 11:30-23:00; Su off"}}, {"type": "node", "id": 9990206280, "lat": 50.8549958, "lon": 4.39731, "tags": {"amenity": "restaurant", "check_date": "2022-08-31", "cuisine": "international", "name": "Loulou", "payment:bancontact": "yes", "payment:maestro": "yes", "payment:mastercard": "yes", "payment:visa": "yes", "payment:visa_electron": "yes"}}, {"type": "node", "id": 9991106394, "lat": 50.8552706, "lon": 4.3961045, "tags": {"amenity": "restaurant", "check_date": "2022-08-31", "name": "Smash.B", "opening_hours": "Mo,Su off; Tu-Sa 16:00-22:00", "payment:bancontact": "yes", "payment:maestro": "yes", "payment:mastercard": "yes", "payment:visa": "yes", "payment:visa_electron": "yes", "website": "https://www.smahb.be/", "wheelchair": "no"}}, {"type": "node", "id": 10130005741, "lat": 50.857517, "lon": 4.3843973, "tags": {"amenity": "restaurant", "check_date": "2022-10-26", "cuisine": "greek", "name": "Nammos"}}, {"type": "node", "id": 10178835187, "lat": 50.8522007, "lon": 4.3898085, "tags": {"amenity": "restaurant", "contact:instagram": "https://www.instagram.com/yoka.tomo/", "contact:mobile": "+32 475 40 99 60", "contact:website": "https://yokatomo.brussels", "cuisine": "japanese", "description": "Craft japanese food Izakaya", "name": "Yoka Tomo", "opening_hours": "We-Sa 18:30-22:00", "panoramax": "df99aaa5-4e72-476f-8923-740952dfdac8", "payment:cash": "yes", "payment:credit_cards": "yes", "payment:debit_cards": "yes", "start_date": "2022-10-21"}}, {"type": "node", "id": 11513913814, "lat": 50.8520421, "lon": 4.385917, "tags": {"amenity": "restaurant", "contact:mobile": "+32 498 64 51 08", "contact:website": "https://groseille.brussels/", "name": "Groseille", "opening_hours": "Mo,Tu,Su off; We-Fr 12:00-14:00,18:30-21:30; Sa 12:00-14:00,18:30-22:00"}}, {"type": "node", "id": 11513913817, "lat": 50.8522074, "lon": 4.3865815, "tags": {"amenity": "restaurant", "cuisine": "pizza", "name": "Da Gaetano"}}, {"type": "node", "id": 11872780875, "lat": 50.8527161, "lon": 4.3906233, "tags": {"amenity": "restaurant", "cuisine": "italian;pizza;pasta", "name": "Da Mario Take Away", "takeaway": "only"}}, {"type": "node", "id": 12877638724, "lat": 50.852789, "lon": 4.3889271, "tags": {"amenity": "restaurant", "cuisine": "pizza", "name": "Princesse Pizzeria", "takeaway": "yes"}}, {"type": "node", "id": 13173726135, "lat": 50.8525378, "lon": 4.3950784, "tags": {"amenity": "restaurant", "contact:phone": "+32 2 608 39 31", "contact:website": "http://www.pizzasaco.com/", "cuisine": "pizza", "diet:vegan": "no", "diet:vegetarian": "yes", "name": "Pizza Saco", "opening_hours": "Mo-Sa 18:00-23:00", "outdoor_seating": "yes", "reservation": "yes", "takeaway": "yes"}}]}