{"version": 0.6, "generator": "Overpass API 0.7.62.10 2d4cfc48", "osm3s": {"timestamp_osm_base": "2026-02-02T15:44:23Z", "copyright": "The data included in this document is from www.openstreetmap.org. The data is made available under ODbL."}, "elements": [{"type": "node", "id": 356622607, "lat": 50.8416416, "lon": 4.3520936, "tags": {"amenity": "cafe", "contact:instagram": "kafei_bxl", "contact:phone": "+32 2 305 35 68", "indoor_seating": "yes", "name": "Kafei Korner Sablon", "opening_hours": "Tu-Fr 08:30-16:00; Sa-Su 10:00-17:00", "outdoor_seating": "sidewalk", "payment:cash": "no", "wheelchair": "no"}}, {"type": "node", "id": 432643368, "lat": 50.9010685, "lon": 4.4224806, "tags": {"amenity": "cafe", "name": "New Corner"}}, {"type": "node", "id": 642092961, "lat": 50.8488796, "lon": 4.3804246, "tags": {"amenity": "cafe", "check_date": "2025-04-22", "name": "Meltino"}}, {"type": "node", "id": 642094471, "lat": 50.8489228, "lon": 4.3806553, "tags": {"amenity": "cafe", "check_date": "2025-04-22", "name": "Caf\u00e9 Nico's"}}, {"type": "node", "id": 708490601, "lat": 50.8480389, "lon": 4.3553132, "tags": {"amenity": "cafe", "check_date": "2025-01-31", "contact:facebook": "VanesMokafe", "contact:phone": "+32 2 511 78 70", "indoor_seating": "yes", "level": "0", "name": "Mokaf\u00e9 Taverne", "opening_hours": "Mo-Sa 07:00-23:00; Su 07:30-20:00", "outdoor_seating": "yes", "toilets:wheelchair": "no", "wheelchair": "yes", "wikidata": "Q130753115", "wikimedia_commons": "Category:Mokaf\u00e9 Taverne"}}, {"type": "node", "id": 714030664, "lat": 50.8417954, "lon": 4.3840386, "tags": {"amenity": "cafe", "contact:email": "schuman@artsnbagels.com", "contact:phone": "+32 2 725 04 33", "contact:website": "https://www.artsnbagels.com", "indoor_seating": "yes", "name": "Art's & Bagels", "opening_hours": "Mo-Fr 06:45-17:30; Sa-Su 11:00-16:00", "outdoor_seating": "yes"}}, {"type": "node", "id": 751802476, "lat": 50.8495185, "lon": 4.3511576, "tags": {"amenity": "cafe", "check_date": "2025-10-29", "check_date:opening_hours": "2025-10-27", "drive_through": "no", "indoor_seating": "yes", "name": "Cafe Inn", "opening_hours": "Mo-Su,PH 07:00-24:00", "outdoor_seating": "yes", "payment:cash": "yes", "payment:credit_cards": "yes", "toilets": "yes", "toilets:wheelchair": "no"}}, {"type": "node", "id": 870247035, "lat": 50.8504401, "lon": 4.3467468, "tags": {"amenity": "cafe", "bar": "yes", "check_date": "2023-07-07", "contact:email": "info@cafedemarkten.be", "contact:facebook": "cafedemarkten", "contact:instagram": "cafedemarkten", "contact:website": "https://www.cafedemarkten.be/", "diet:gluten_free": "yes", "diet:vegetarian": "yes", "happy_hours": "Mo-Sa 20:00-21:00", "internet_access": "wlan", "internet_access:fee": "no", "name": "Caf\u00e9 De Markten", "opening_hours": "Mo-Sa 08:00-00:00; Su 10:00-24:00", "operator": "Gemeenschapscentrum De Markten", "operator:wikidata": "Q33100331", "outdoor_seating": "yes", "smoking": "no", "takeaway": "no", "wheelchair": "limited"}}, {"type": "node", "id": 1037462990, "lat": 50.8464956, "lon": 4.3498354, "tags": {"amenity": "cafe", "contact:email": "francois.lafontaine@icloud.com", "contact:website": "https://www.blackpotioncoffee.com", "cuisine": "coffee_shop", "diet:vegan": "yes", "diet:vegetarian": "yes", "indoor_seating": "yes", "internet_access": "wlan", "internet_access:fee": "no", "mapillary": "365348205569631", "name": "Caf\u00e9 Capitale", "old_name": "Coffee Company", "opening_hours": "Mo-Fr 08:00-19:00, Sa-Su 08:30-19:00", "outdoor_seating": "yes", "payment:cash": "yes", "payment:contactless": "yes", "payment:debit_cards": "yes", "takeaway": "yes", "toilets": "yes", "toilets:access": "customers", "toilets:wheelchair": "no", "wheelchair": "yes", "wheelchair:description": "Toilets located at level -1"}}, {"type": "node", "id": 1078589903, "lat": 50.891663, "lon": 4.4186256, "tags": {"amenity": "cafe", "name": "Caf\u00e9 Queen's", "opening_hours:signed": "no", "toilets": "yes", "toilets:access": "public", "toilets:description": "Le r\u00e9seau des toilettes accueillantes - Netwerk gastvrije toiletten", "toilets:fee": "no"}}, {"type": "node", "id": 1106127079, "lat": 50.8900681, "lon": 4.337282, "tags": {"amenity": "cafe", "name": "Stadium"}}, {"type": "node", "id": 1200029076, "lat": 50.8733905, "lon": 4.3587744, "tags": {"amenity": "cafe", "name": "Tanja"}}, {"type": "node", "id": 1200029086, "lat": 50.872939, "lon": 4.3575811, "tags": {"amenity": "cafe", "name": "Fiume"}}, {"type": "node", "id": 1200215878, "lat": 50.8703645, "lon": 4.3430174, "tags": {"amenity": "cafe", "name": "L` Orchid\u00e8e"}}, {"type": "node", "id": 1607139668, "lat": 50.8508027, "lon": 4.3602538}, {"type": "node", "id": 1618802479, "lat": 50.8127684, "lon": 4.381631, "tags": {"amenity": "cafe", "check_date:opening_hours": "2024-02-03", "indoor_seating": "yes", "internet_access": "wlan", "name": "Coin Culture ULB", "opening_hours": "Mo-Fr 08:00-20:00", "outdoor_seating": "street", "source": "survey+bing"}}, {"type": "node", "id": 1631382677, "lat": 50.8455743, "lon": 4.3480751, "tags": {"amenity": "cafe", "name": "Au Soleil", "opening_hours": "Mo-Th 09:30-01:00, Fr,Sa 09:30-02:00, Su 09:30-24:00", "outdoor_seating": "pedestrian_zone", "wikidata": "Q42416698", "wikimedia_commons": "Category:Au Soleil"}}, {"type": "node", "id": 1762908679, "lat": 50.8401198, "lon": 4.3428493, "tags": {"amenity": "cafe", "check_date": "2024-08-26", "indoor_seating": "yes", "name": "Salon de Th\u00e9 El Massirat", "outdoor_seating": "yes"}}, {"type": "node", "id": 2329109390, "lat": 50.8504846, "lon": 4.3546054, "tags": {"amenity": "cafe", "brand": "CoCo", "brand:wikidata": "Q65084369", "changing_table": "no", "changing_table:adult": "no", "cuisine": "bubble_tea", "entrance:kerb:height": "0.03", "entrance:step_count": "1", "entrance:width": "0.83", "name": "CoCo Fresh Tea & Juice", "ramp:wheelchair": "no", "shop": "tea", "short_name": "CoCo", "takeaway": "yes", "wheelchair:turning_circle": "no"}}, {"type": "node", "id": 2341205153, "lat": 50.848721, "lon": 4.3673896, "tags": {"amenity": "cafe", "name": "Dubai Lounge"}}, {"type": "node", "id": 2403700024, "lat": 50.8491532, "lon": 4.3894539, "tags": {"amenity": "cafe", "name": "Friends", "outdoor_seating": "yes"}}, {"type": "node", "id": 2420204404, "lat": 50.853365, "lon": 4.3465785, "tags": {"amenity": "cafe", "cuisine": "ice_cream", "name": "Gasterea"}}, {"type": "node", "id": 2422528369, "lat": 50.852399, "lon": 4.3481654, "tags": {"amenity": "cafe", "indoor_seating": "yes", "name": "La P\u00e9niche", "outdoor_seating": "yes", "wheelchair": "no"}}, {"type": "node", "id": 2422528370, "lat": 50.8521145, "lon": 4.3483614, "tags": {"amenity": "cafe", "description": "Breakfast, brunch", "name": "Woodpecker", "opening_hours": "Mo-Fr 09:30-16:00; Sa,Su 09:00-17:00", "outdoor_seating": "sidewalk", "wheelchair": "no"}}, {"type": "node", "id": 2436568789, "lat": 50.8452572, "lon": 4.3692977, "tags": {"amenity": "cafe", "entrance:kerb:height": "0.02", "entrance:step_count": "1", "entrance:width": "1.37", "indoor_seating": "yes", "internet_access": "yes", "internet_access:fee": "no", "name": "L\u00e9opold Caf\u00e9 Presse", "outdoor_seating": "yes", "smoking": "no", "wheelchair": "yes"}}, {"type": "node", "id": 2506176830, "lat": 50.8552378, "lon": 4.3522022, "tags": {"alt_name": "Caf\u00e9 De Brug/Bij Virginie", "amenity": "cafe", "name": "Bridge Caf\u00e9"}}, {"type": "node", "id": 2506176927, "lat": 50.8534555, "lon": 4.3535997, "tags": {"amenity": "cafe", "contact:email": "bookings@caffebatavia.eu", "contact:phone": "+32 2 881 22 97", "contact:website": "https://caffebatavia.eu/", "cuisine": "coffee_shop", "description": "Indonesian speciality coffees, sweet & savoury Indonesian and Asian fusion kitchen", "name": "Caff\u00e8 Batavia"}}, {"type": "node", "id": 2514211665, "lat": 50.8445558, "lon": 4.3592816, "tags": {"amenity": "cafe", "changing_table": "no", "changing_table:adult": "no", "contact:facebook": "https://www.facebook.com/pages/category/Breakfast---Brunch-Restaurant/cafeboudin/", "contact:instagram": "https://www.instagram.com/cafeboudin/", "cuisine": "coffee_shop", "entrance:kerb:height": "0.15", "entrance:step_count": "1", "entrance:width": "0.8", "name": "Caf\u00e9 Boudin", "ramp:wheelchair": "no", "wheelchair": "no", "wheelchair:turning_circle": "no"}}, {"type": "node", "id": 2514211675, "lat": 50.8446141, "lon": 4.3593238, "tags": {"amenity": "cafe", "name": "Caf\u00e9-Bar Manhattan", "wheelchair": "no"}}, {"type": "node", "id": 2518122610, "lat": 50.8526565, "lon": 4.3456354, "tags": {"amenity": "cafe", "indoor_seating": "yes", "name": "Au Laboureur", "opening_hours": "Mo-Su 08:30-22:00", "outdoor_seating": "yes", "smoking": "outside", "wheelchair": "limited"}}, {"type": "node", "id": 2522239625, "lat": 50.8468355, "lon": 4.3475706, "tags": {"amenity": "cafe", "contact:email": "moka.coffeeandbeer@gmail.com", "contact:facebook": "https://www.facebook.com/moka.coffee.and.beer/", "cuisine": "coffee_shop", "description": "Moka - Coffee & Beer is specialized in coffee and beer and works with the new Brussels brewery \"iLLeGaaL\". We are creators of our own coffee blend. We also lovingly make our pastries, carrot cakes, chocolate pies, lemon pies, cookies...", "name": "Moka", "opening_hours": "Tu-Fr 08:30-18:00; Sa 11:00-18:00"}}, {"type": "node", "id": 2522239653, "lat": 50.8480374, "lon": 4.3463544, "tags": {"amenity": "cafe", "check_date": "2023-09-27", "contact:website": "https://boomcafe.be/", "cuisine": "coffee_shop", "indoor_seating": "yes", "internet_access": "wlan", "name": "BoOm Caf\u00e9 Associatif", "opening_hours": "We-Su 15:00-21:00", "outdoor_seating": "yes", "smoking": "outside"}}, {"type": "node", "id": 2522239659, "lat": 50.8480463, "lon": 4.3458585, "tags": {"amenity": "cafe", "contact:instagram": "cafe.tiera", "contact:website": "https://cafetiera.be/", "cuisine": "bagel;coffee_shop;sandwich", "name": "Caf\u00e9 Tiera", "opening_hours": "Mo-Su 09:00-19:00", "outdoor_seating": "yes", "start_date": "2020-06-08"}}, {"type": "node", "id": 2522741195, "lat": 50.8528472, "lon": 4.3417514, "tags": {"amenity": "cafe", "contact:email": "info@mokcoffee.be", "contact:instagram": "https://www.instagram.com/mok_coffee/", "contact:website": "https://mokcoffee.be/", "cuisine": "coffee_shop", "name": "MOK", "opening_hours": "Mo-Fr 09:00-18:00; Sa-Su 10:00-18:00"}}, {"type": "node", "id": 2620469573, "lat": 50.8523785, "lon": 4.3534648, "tags": {"amenity": "cafe", "name": "Belrose cake"}}, {"type": "node", "id": 2665166030, "lat": 50.8381993, "lon": 4.3510833, "tags": {"amenity": "cafe", "name": "Caf\u00e9 Buvette"}}, {"type": "node", "id": 3000941407, "lat": 50.8479405, "lon": 4.3522822, "tags": {"amenity": "cafe", "contact:email": "info@cafe-tasse.com", "contact:fax": "+32 2 502 49 07", "contact:phone": "+32 2 502 49 07", "contact:website": "https://cafe-tasse.com/", "name": "Caf\u00e9-Tasse", "opening_hours": "Mo-Fr 10:30-18:30; Sa 11:00-19:00; Su 12:00-18:30", "shop": "chocolate"}}, {"type": "node", "id": 3014396256, "lat": 50.839521, "lon": 4.3536306, "tags": {"amenity": "cafe", "check_date": "2025-03-15", "contact:facebook": "https://www.facebook.com/Leperroquetbruxelles", "contact:instagram": "https://www.instagram.com/le_perroquet", "cuisine": "gyros", "indoor_seating": "yes", "name": "Le Perroquet", "opening_hours": "Tu-We 12:00-22:30, Th-Sa 12:00-23:30; Su 12:00-22:30", "outdoor_seating": "yes", "wheelchair": "limited"}}, {"type": "node", "id": 3118681459, "lat": 50.8471778, "lon": 4.3546289, "tags": {"amenity": "cafe", "brand": "Le Pain Quotidien", "brand:wikidata": "Q2046903", "brand:wikipedia": "en:Le Pain Quotidien", "contact:phone": "+32 2 502 02 20", "contact:website": "https://www.lepainquotidien.com/be/en/locations/Galerie_de_la_Reine/Galerie-de-la-Reine-11", "cuisine": "coffee_shop", "diet:vegan": "yes", "diet:vegetarian": "yes", "entrance:step_count": "0", "entrance:width": "0.82", "indoor_seating": "yes", "name": "Le Pain Quotidien", "opening_hours": "Mo-Sa 07:00-19:00; Su,PH 08:00-19:00", "outdoor_seating": "yes", "takeaway": "yes", "toilets:access": "customers", "wheelchair": "limited"}}, {"type": "node", "id": 3118693286, "lat": 50.8479107, "lon": 4.3552138, "tags": {"alt_name": "Aksum Coffee House", "amenity": "cafe", "check_date": "2025-01-31", "contact:mobile": "+32 473 85 41 66", "contact:website": "https://aksumcoffeehouse.com/en/location/aksum-coffee-house-bruxelles-5941", "description": "Organic Ethiopian coffee, fair-trade tea, local cakes, etc.", "entrance:kerb:height": "0.04", "entrance:step_count": "1", "entrance:width": "0.83", "indoor_seating": "yes", "level": "0", "name": "Aksum", "opening_hours": "Su-Fr 09:00-21:00; Sa 09:00-22:00", "opening_hours:signed": "no", "outdoor_seating": "yes"}}, {"type": "node", "id": 3118694138, "lat": 50.8488715, "lon": 4.354376, "tags": {"amenity": "cafe", "check_date": "2024-11-19", "check_date:opening_hours": "2024-11-19", "cuisine": "bagel;cake;coffee_shop", "entrance:kerb:height": "0.08", "entrance:step_count": "1", "entrance:width": "0.9", "internet_access": "wlan", "level": "0", "name": "Bigg Cake", "opening_hours": "Mo-Su 08:30-18:30", "opening_hours:signed": "no", "toilets": "yes", "toilets:access": "customers", "website": "https://biggcake.com"}}, {"type": "node", "id": 3292711061, "lat": 50.895039, "lon": 4.3418282, "tags": {"amenity": "cafe", "check_date": "2025-06-21", "contact:website": "https://www.atomiumrestaurant.be/fr/la-terrasse/", "diet:vegetarian": "yes", "indoor_seating": "yes", "name": "Terrasse - Terras", "name:fr": "Terrasse", "name:nl": "Terras", "opening_hours": "10:00-18:00", "outdoor_seating": "yes", "payment:credit_cards": "yes", "payment:debit_cards": "yes", "toilets:wheelchair": "no", "wheelchair": "no"}}, {"type": "node", "id": 3323729862, "lat": 50.8274084, "lon": 4.3642985, "tags": {"amenity": "cafe", "check_date": "2025-06-12", "check_date:opening_hours": "2025-06-12", "contact:phone": "+32 2 646 72 14", "contact:website": "https://naturalcaffe.com/", "cuisine": "coffee_shop", "full_name": "Natural Caff\u00e8 Louise", "indoor_seating": "yes", "name": "Natural Caffe", "opening_hours": "Mo-Fr 07:30-18:00; Sa 09:00-19:00; Su 10:00-15:00; PH off", "outdoor_seating": "yes", "wheelchair": "no"}}, {"type": "node", "id": 3328725119, "lat": 50.8512007, "lon": 4.3499391, "tags": {"amenity": "cafe", "contact:phone": "+32 2 229 00 09", "contact:website": "http://www.grimbergencafe.be/", "cuisine": "regional", "internet_access": "wlan", "internet_access:fee": "no", "name": "Grimbergen Caf\u00e9", "opening_hours:signed": "no"}}, {"type": "node", "id": 3328728103, "lat": 50.8466302, "lon": 4.3540301, "tags": {"amenity": "cafe", "name": "Cafe Affligem"}}, {"type": "node", "id": 3506621359, "lat": 50.8480214, "lon": 4.3569402, "tags": {"amenity": "cafe", "check_date": "2026-01-08", "indoor_seating": "yes", "name": "Croix100", "outdoor_seating": "no"}}, {"type": "node", "id": 3506782243, "lat": 50.8507916, "lon": 4.3602583, "tags": {"addr:housenumber": "39", "addr:street": "Rue des Sables - Zandstraat", "entrance": "yes", "ref:UrbIS": "8207267"}}, {"type": "node", "id": 3506782690, "lat": 50.8507076, "lon": 4.3602171}, {"type": "node", "id": 3506782696, "lat": 50.8507175, "lon": 4.3601934}, {"type": "node", "id": 3506782709, "lat": 50.8507519, "lon": 4.3601348}, {"type": "node", "id": 3506782720, "lat": 50.8507702, "lon": 4.3602858}, {"type": "node", "id": 3506782723, "lat": 50.8507805, "lon": 4.3602627}, {"type": "node", "id": 3506782731, "lat": 50.8508155, "lon": 4.3602119}, {"type": "node", "id": 3574500900, "lat": 50.8470358, "lon": 4.3519105, "tags": {"amenity": "cafe", "brand": "Starbucks", "brand:wikidata": "Q37158", "brand:wikipedia": "en:Starbucks", "contact:website": "https://www.starbucks.be/nl/store-locator?types=starbucks&zoom=15&latLng=50.84556%2C4.356939999999998&place=Brussel&store=15272-158067&storeDetail=15272-158067", "cuisine": "coffee_shop", "indoor_seating": "yes", "internet_access": "yes", "internet_access:fee": "no", "name": "Starbucks", "official_name": "Starbucks Coffee", "opening_hours": "Mo-Th,Su 09:00-20:00; Fr-Sa 09:00-21:00", "operator": "Autogrill Belux", "operator:wikidata": "Q22131845", "outdoor_seating": "yes", "ref": "152", "smoking": "no", "takeaway": "yes", "toilets": "yes", "wheelchair": "no", "wifi": "free"}}, {"type": "node", "id": 3682490784, "lat": 50.8400663, "lon": 4.3554008, "tags": {"amenity": "cafe", "brand": "Le Pain Quotidien", "brand:wikidata": "Q2046903", "brand:wikipedia": "en:Le Pain Quotidien", "contact:website": "https://www.lepainquotidien.com/be/en/locations/Sablon/Rue-des-Sablons-11", "cuisine": "coffee_shop", "diet:vegan": "yes", "diet:vegetarian": "yes", "name": "Le Pain Quotidien", "opening_hours": "Mo-Sa 07:30-18:00; Su 08:00-18:00", "takeaway": "yes"}}, {"type": "node", "id": 3835688357, "lat": 50.8405436, "lon": 4.3599386, "tags": {"air_conditioning": "yes", "amenity": "cafe", "diet:vegetarian": "yes", "indoor_seating": "yes", "internet_access": "wlan", "name": "JAT'", "opening_hours": "Mo-Fr 08:00-18:00; Sa,Su 09:00-18:00", "outdoor_seating": "no", "smoking": "no"}}, {"type": "node", "id": 3863696752, "lat": 50.851941, "lon": 4.3652648, "tags": {"amenity": "cafe", "cuisine": "sandwich", "name": "D\u00e9lice Royal", "note": "Slight confusion about the official name: there is a large display with \"D\u00e9lice Royal\" on top, while the name \"D\u00e9lice Royale\" is painted on the shop window.", "wheelchair": "no"}}, {"type": "node", "id": 3863699458, "lat": 50.8519878, "lon": 4.3652892, "tags": {"amenity": "cafe", "cuisine": "sandwich", "name": "Le Pain de l\u2019Abbaye"}}, {"type": "node", "id": 3863737380, "lat": 50.8480467, "lon": 4.3640546, "tags": {"amenity": "cafe", "name": "D\u00e9lice du Parc", "wheelchair": "no"}}, {"type": "node", "id": 3863737381, "lat": 50.8480851, "lon": 4.3642549, "tags": {"amenity": "cafe", "cuisine": "sandwich", "name": "Ethnic Foods", "website": "https://ethnicfoods.be/", "wheelchair": "no"}}, {"type": "node", "id": 3873618400, "lat": 50.8504302, "lon": 4.3678344, "tags": {"amenity": "cafe", "cuisine": "sandwich", "name": "Greedy Lunch", "source": "survey"}}, {"type": "node", "id": 3975317423, "lat": 50.8411214, "lon": 4.3424093, "tags": {"amenity": "cafe", "name": "Miel & Olives"}}, {"type": "node", "id": 4119669190, "lat": 50.8431637, "lon": 4.3453789, "tags": {"amenity": "cafe", "contact:facebook": "https://www.facebook.com/KaffaBar-1416656981918416", "contact:instagram": "https://instagram.com/kaffabar", "contact:website": "https://kaffabar.be/", "cuisine": "coffee_shop", "indoor_seating": "yes", "internet_access": "wlan", "internet_access:fee": "customers", "name": "kaffabar", "opening_hours": "Tu-Fr 08:00-18:00; Sa 09:00-18:00; Su-Mo off", "operator": "Marc Dani\u00ebls", "outdoor_seating": "yes", "wheelchair": "no"}}, {"type": "node", "id": 4171634783, "lat": 50.8519555, "lon": 4.3555118, "tags": {"amenity": "cafe", "cuisine": "turkish;kebab;pizza", "diet:halal": "yes", "name": "Snack Delice", "outdoor_seating": "yes"}}, {"type": "node", "id": 4233528891, "lat": 50.8401916, "lon": 4.3568003, "tags": {"amenity": "cafe", "indoor_seating": "yes", "name": "Caf\u00e9 du Sablon", "opening_hours": "Mo-Su 07:30-20:00", "outdoor_seating": "yes"}}, {"type": "node", "id": 4262247209, "lat": 50.8394284, "lon": 4.3720591, "tags": {"amenity": "cafe", "check_date:opening_hours": "2023-11-13", "contact:email": "info@toutbon.be", "contact:phone": "+32 2 230 42 44", "contact:website": "https://www.toutbon.be/", "entrance:kerb:height": "0.6", "entrance:step_count": "5", "entrance:width": "0.88", "indoor_seating": "yes", "internet_access": "wlan", "name": "Tout Bon", "opening_hours": "Mo-Fr 07:00-18:00; Sa 08:00-17:00; PH 08:00-17:00", "outdoor_seating": "yes"}}, {"type": "node", "id": 4284192891, "lat": 50.8472973, "lon": 4.352745, "tags": {"alt_name": "The Sisters caf\u00e9", "amenity": "cafe", "changing_table": "no", "contact:email": "thesister.cafe@gmail.com", "contact:phone": "+32 2 513 22 26", "contact:website": "https://www.thesistercafe-brussels.com", "cuisine": "sandwich", "diet:gluten_free": "only", "diet:vegan": "only", "diet:vegetarian": "only", "email": "thesister.cafe@gmail.com", "entrance:kerb:height": "0.1", "entrance:ramp": "no", "entrance:step_count": "1", "entrance:width": "0.8", "indoor_seating": "yes", "internet_access": "wlan", "internet_access:fee": "no", "internet_access:ssid": "THE SISTER", "name": "The Sister", "opening_hours": "Mo-Fr 10:00-23:00; Sa 09:00-24:00; Su 09:00-23:00", "organic": "only", "outdoor_seating": "pedestrian_zone", "service:electricity": "limited", "toilets:access": "customers", "toilets:wheelchair": "no", "wheelchair": "limited", "wheelchair:turning_circle": "no"}}, {"type": "node", "id": 4313439055, "lat": 50.8525235, "lon": 4.3561613, "tags": {"amenity": "cafe", "name": "Le temps danse", "toilets:wheelchair": "no", "wheelchair": "no"}}, {"type": "node", "id": 4318584322, "lat": 50.840714, "lon": 4.3792027, "tags": {"amenity": "cafe", "contact:website": "https://utamu.be/", "cuisine": "coffee_shop", "diet:kosher": "no", "level": "0", "name": "Utamu Collective", "opening_hours": "Mo-Fr 08:00-16:00; Sa-Su 09:00-17:00", "wheelchair": "yes"}}, {"type": "node", "id": 4319696120, "lat": 50.8460987, "lon": 4.3579854, "tags": {"amenity": "cafe", "branch": "Central", "contact:website": "https://cafedelapresse.be/", "internet_access": "wlan", "name": "Caf\u00e9 de la Presse", "opening_hours": "Mo-Fr 07:30-20:00; Sa,Su 08:30-20:00"}}, {"type": "node", "id": 4323046261, "lat": 50.848492, "lon": 4.3510886, "tags": {"amenity": "cafe", "check_date": "2026-01-05", "check_date:opening_hours": "2026-01-05", "cuisine": "coffee_shop", "internet_access": "yes", "name": "Corica", "opening_hours": "Mo-Sa 08:00-18:00", "opening_hours:signed": "no", "outdoor_seating": "yes", "payment:cash": "yes", "payment:credit_cards": "yes", "payment:debit_cards": "yes", "shop": "coffee", "wheelchair": "limited"}}, {"type": "node", "id": 4341462839, "lat": 50.8511383, "lon": 4.3504007, "tags": {"amenity": "cafe", "contact:phone": "+32 2 223 33 46", "cuisine": "sandwich", "name": "El Bocadillo", "opening_hours": "Mo-Sa 08:00-15:00; Su off", "payment:cash": "yes", "payment:credit_cards": "no", "payment:maestro": "yes", "takeaway": "yes"}}, {"type": "node", "id": 4352415601, "lat": 50.8478237, "lon": 4.3519088, "tags": {"alt_name": "St.Nicolaascaf\u00e9;Sint-Nicolaas;Sint-Nicolaascaf\u00e9", "amenity": "cafe", "name": "St. Nicolaas"}}, {"type": "node", "id": 4361635914, "lat": 50.845936, "lon": 4.348288, "tags": {"amenity": "cafe", "check_date": "2025-08-18", "name": "Le Saint-Jacques"}}, {"type": "node", "id": 4361643031, "lat": 50.8454829, "lon": 4.3478969, "tags": {"amenity": "cafe", "contact:website": "https://www.cafecharbon.be/", "cuisine": "tapas", "name": "Caf\u00e9 Charbon", "outdoor_seating": "pedestrian_zone"}}, {"type": "node", "id": 4361643032, "lat": 50.84553, "lon": 4.3479887, "tags": {"amenity": "cafe", "check_date:opening_hours": "2025-09-27", "name": "Llanes", "opening_hours:signed": "no", "wheelchair": "limited"}}, {"type": "node", "id": 4386763890, "lat": 50.840188, "lon": 4.3673827, "tags": {"amenity": "cafe", "contact:email": "contact@lloydcoffee.com", "contact:website": "https://lloydcoffee.com", "entrance:kerb:height": "0.18", "entrance:step_count": "1", "entrance:width": "0.86", "name": "Lloyd Coffee Eatery \u2013 Tr\u00f4ne", "opening_hours": "Mo-Fr 08:00-20:00; Sa-Su 09:00-20:00"}}, {"type": "node", "id": 4413342799, "lat": 50.8476852, "lon": 4.3532546, "tags": {"amenity": "cafe", "check_date": "2024-08-11", "contact:instagram": "https://www.instagram.com/mani.brussels/", "description": "Brazilian Superfood", "internet_access": "wlan", "internet_access:fee": "no", "level": "0", "name": "Mani Cafe & Tapiocaria", "opening_hours": "Mo off; Tu-Su 13:00-20:00", "outdoor_seating": "no", "wheelchair": "no"}}, {"type": "node", "id": 4413385342, "lat": 50.8485379, "lon": 4.3523259, "tags": {"amenity": "cafe", "contact:email": "brussels@8tea5.com", "contact:mobile": "+32 475 83 92 66", "contact:website": "http://www.8tea5.com/locations/brussels/", "name": "8tea5", "opening_hours": "Mo-Sa 10:30-20:00; Su 12:00-18:00"}}, {"type": "node", "id": 4413615489, "lat": 50.8477159, "lon": 4.3634413, "tags": {"air_conditioning": "yes", "amenity": "cafe", "contact:phone": "+32 2 307 65 84", "diet:vegan": "yes", "diet:vegetarian": "yes", "indoor_seating": "yes", "lunch": "yes", "name": "Leopold", "opening_hours:signed": "no", "outdoor_seating": "yes", "payment:credit_cards": "yes", "payment:debit_cards": "yes", "website": "https://leopoldcafepresse.com", "wheelchair": "limited"}}, {"type": "node", "id": 4413690827, "lat": 50.8485004, "lon": 4.3557949, "tags": {"amenity": "cafe", "check_date:opening_hours": "2026-01-08", "entrance:kerb:height": "0.35", "entrance:ramp": "no", "entrance:step_count": "2", "entrance:width": "0.8", "indoor_seating": "yes", "name": "COVE", "opening_hours:signed": "no", "wheelchair": "limited", "wheelchair:turning_circle": "no"}}, {"type": "node", "id": 4413722003, "lat": 50.845652, "lon": 4.3535072, "tags": {"amenity": "cafe", "indoor_seating": "yes", "name": "Chez Charles", "outdoor_seating": "yes"}}, {"type": "node", "id": 4413802968, "lat": 50.8467715, "lon": 4.3537237, "tags": {"amenity": "cafe", "check_date": "2024-01-04", "contact:website": "https://www.bubbletearoom.be/", "cuisine": "bubble_tea", "name": "Bubbletearoom.be", "note": "Formerly La Coquille d'Or chocolate shop - large outdoor display still visible but the shop is closed as of July 2018 during works on the building", "opening_hours": "Mo-Su 11:00-23:00", "wheelchair": "limited"}}, {"type": "node", "id": 4413802974, "lat": 50.8478493, "lon": 4.352351, "tags": {"amenity": "cafe", "check_date:opening_hours": "2023-04-01", "cuisine": "pancake;bagel;waffle", "indoor_seating": "yes", "name": "Eight & Three", "opening_hours:signed": "no", "outdoor_seating": "sidewalk", "wheelchair": "yes"}}, {"type": "node", "id": 4413933717, "lat": 50.8470953, "lon": 4.3507716, "tags": {"amenity": "cafe", "check_date:opening_hours": "2024-04-20", "cuisine": "coffee_shop", "name": "Latt\u00e9 Art", "opening_hours:signed": "no", "wheelchair": "limited"}}, {"type": "node", "id": 4413952485, "lat": 50.8458281, "lon": 4.3514434, "tags": {"amenity": "cafe", "brand": "Xing Fu Tang", "brand:en": "Xing Fu Tang", "brand:wikidata": "Q95720330", "brand:zh": "\u5e78\u798f\u5802", "contact:website": "https://xingfutang.be/", "cuisine": "bubble_tea", "name": "Xing Fu Tang", "name:en": "Xing Fu Tang", "name:zh": "\u5e78\u798f\u5802", "note": "Surveyed in May 2023 with posters announced an imminent opening, probably June/July 2023", "takeaway": "only"}}, {"type": "node", "id": 4417807651, "lat": 50.8453259, "lon": 4.357185, "tags": {"air_conditioning": "yes", "amenity": "cafe", "brand": "Starbucks", "brand:wikidata": "Q37158", "brand:wikipedia": "en:Starbucks", "changing_table": "no", "changing_table:adult": "no", "cuisine": "coffee_shop", "entrance:kerb:height": "0.02", "entrance:step_count": "1", "entrance:width": "1.5", "level": "0", "name": "Starbucks", "official_name": "Starbucks Coffee", "opening_hours": "Mo-Th 05:30-20:30; Fr,Sa 05:30-21:00; Su 06:00-20:00", "outdoor_seating": "no", "ramp:wheelchair": "no", "takeaway": "yes", "wheelchair": "yes", "wheelchair:turning_circle": "no"}}, {"type": "node", "id": 4417825145, "lat": 50.8450127, "lon": 4.3565178, "tags": {"amenity": "cafe", "brand": "Coffee Break", "cuisine": "coffee_shop", "layer": "-1", "level": "-1", "location": "underground", "name": "Coffee Break", "takeaway": "yes"}}, {"type": "node", "id": 4418284328, "lat": 50.8445931, "lon": 4.3479404, "tags": {"amenity": "cafe", "check_date": "2023-11-14", "cuisine": "coffee;bakery", "indoor_seating": "yes", "name": "L'Aca", "outdoor_seating": "yes", "smoking": "no"}}, {"type": "node", "id": 4418284331, "lat": 50.8484185, "lon": 4.3544994, "tags": {"amenity": "cafe", "contact:email": "cupcats@cupcats.be", "contact:mobile": "+32 487 01 91 39", "contact:website": "https://www.cupcats.be/", "cuisine": "coffee_shop", "description": "Cat caf\u00e9: this is a normal caf\u00e9 but there are many cats around the house and customers may interact with cats or pet them", "dog": "no", "drink:coffee": "served", "drink:hot_chocolate": "served", "drink:tea": "served", "name": "Cup Cats", "opening_hours": "Mo-Th 10:00-17:30; Fr,Su 10:00-19:00; Sa 10:00-20:00", "start_date": "2024-11", "theme": "cat"}}, {"type": "node", "id": 4418284343, "lat": 50.8500583, "lon": 4.3549603, "tags": {"amenity": "cafe", "bar": "yes", "cafe": "board_game", "contact:facebook": "https://www.facebook.com/comicsansbrussels/", "contact:instagram": "https://www.instagram.com/comicsansbrussels/", "contact:website": "https://www.comicsansbrussels.be/", "entrance:kerb:height": "0.15", "entrance:step_count": "1", "entrance:width": "0.98", "name": "Comic Sans", "opening_hours": "We-Th 15:00-24:00; Fr-Sa 15:00-02:00; Su 14:00-22:00", "toilets:wheelchair": "no", "wheelchair": "limited"}}, {"type": "node", "id": 4418285648, "lat": 50.8459206, "lon": 4.3474292, "tags": {"amenity": "cafe", "contact:facebook": "https://www.facebook.com/yukaespressobar/", "contact:mobile": "+32 477 35 04 06", "contact:website": "http://yukaespressobar.be/", "cuisine": "coffee_shop", "indoor_seating": "yes", "name": "Yuka", "opening_hours": "Mo-Th 08:00-19:00; Fr off; Sa, Su 10:00-19:00", "outdoor_seating": "yes", "payment:cash": "yes", "payment:coins": "yes", "toilets:wheelchair": "no", "wheelchair": "yes"}}, {"type": "node", "id": 4440441859, "lat": 50.8471934, "lon": 4.35238, "tags": {"amenity": "cafe", "changing_table": "no", "contact:instagram": "https://www.instagram.com/cafe.tiera/", "cuisine": "coffee_shop", "entrance:kerb:height": "0.14", "entrance:ramp": "no", "entrance:step_count": "1", "entrance:width": "0.83", "name": "Caf\u00e9 Tiera", "opening_hours": "Mo-Su 09:00-19:00", "toilets:wheelchair": "no", "wheelchair:turning_circle": "no"}}, {"type": "node", "id": 4461557971, "lat": 50.8494721, "lon": 4.3505116, "tags": {"amenity": "cafe", "check_date:opening_hours": "2026-01-05", "indoor_seating": "yes", "name": "Coffee Star", "opening_hours:signed": "no", "outdoor_seating": "yes", "wheelchair": "yes"}}, {"type": "node", "id": 4471354929, "lat": 50.8497975, "lon": 4.354654, "tags": {"amenity": "cafe", "check_date:opening_hours": "2024-06-01", "indoor_seating": "yes", "name": "L\u2019Intermezzo", "opening_hours:signed": "no", "outdoor_seating": "yes"}}, {"type": "node", "id": 4471494480, "lat": 50.8550977, "lon": 4.3559896, "tags": {"amenity": "cafe", "name": "Caf\u00e9 Latinos"}}, {"type": "node", "id": 4471494486, "lat": 50.8551398, "lon": 4.3559572, "tags": {"amenity": "cafe", "name": "Role'x bar"}}, {"type": "node", "id": 4472224089, "lat": 50.8415361, "lon": 4.3530767, "tags": {"amenity": "cafe", "contact:phone": "+32 2 880 80 98", "indoor_seating": "yes", "name": "Pistolet Original", "name:en": "Original Pistol", "name:fr": "Pistolet Original", "opening_hours": "Tu-Su 10:00-22:00, Mo 10:00-16:00", "outdoor_seating": "yes"}}, {"type": "node", "id": 4487889878, "lat": 50.8496272, "lon": 4.3570846, "tags": {"amenity": "cafe", "check_date:opening_hours": "2025-05-17", "indoor_seating": "yes", "name": "The Unusual", "opening_hours:signed": "no", "outdoor_seating": "no", "start_date": "2025-02-13"}}, {"type": "node", "id": 4553116328, "lat": 50.8449359, "lon": 4.3552114, "tags": {"amenity": "cafe", "changing_table": "no", "changing_table:adult": "no", "check_date:opening_hours": "2022-12-05", "indoor_seating": "yes", "name": "Brasserie de la Madeleine", "opening_hours:signed": "no", "outdoor_seating": "yes", "wheelchair:turning_circle": "no"}}, {"type": "node", "id": 4560049049, "lat": 50.8493435, "lon": 4.3491946, "tags": {"amenity": "cafe", "brand:wikidata": "Q122764967", "check_date": "2025-06-26", "contact:email": "info@santospalace.be", "contact:facebook": "santospalace", "contact:linkedin": "santos-palace", "contact:phone": "+32 2 512 39 53", "contact:website": "http://www.santospalace.be/", "cuisine": "coffee_shop", "name": "Santos Palace", "outdoor_seating": "yes", "shop": "coffee"}}, {"type": "node", "id": 4633409094, "lat": 50.8481453, "lon": 4.3636306, "tags": {"amenity": "cafe", "check_date": "2025-04-14", "contact:facebook": "100091915317646", "contact:instagram": "barkboy.be", "cuisine": "coffee_shop", "description": "Sells various types of coffee", "drink:espresso": "yes", "indoor_seating": "yes", "name": "Barkboy", "opening_hours": "Mo-Fr 08:00-18:00; Sa-Su 08:00-19:00", "outdoor_seating": "yes", "payment:credit_cards": "yes", "payment:debit_cards": "yes", "takeaway": "yes", "wheelchair": "no"}}, {"type": "node", "id": 4757690327, "lat": 50.8493204, "lon": 4.3476079, "tags": {"amenity": "cafe", "contact:website": "https://www.kagetea.be/daybar", "drink": "tea", "name": "Kage"}}, {"type": "node", "id": 4769365969, "lat": 50.8376787, "lon": 4.3491062, "tags": {"amenity": "cafe", "cuisine": "belgian", "name": "L'arr\u00eat 48", "outdoor_seating": "yes"}}, {"type": "node", "id": 4845316946, "lat": 50.8355287, "lon": 4.35537, "tags": {"amenity": "cafe", "brand": "Starbucks", "brand:wikidata": "Q37158", "brand:wikipedia": "en:Starbucks", "cuisine": "coffee_shop", "diet:vegan": "yes", "diet:vegetarian": "yes", "layer": "-1", "level": "-1", "location": "underground", "name": "Starbucks", "official_name": "Starbucks Coffee", "opening_hours": "Mo-Fr 06:30-18:00; Sa 10:30-17:30", "takeaway": "yes"}}, {"type": "node", "id": 4848062805, "lat": 50.8400448, "lon": 4.367568, "tags": {"amenity": "cafe", "description": "Expresso Bar", "name": "Caffelatte", "opening_hours": "Mo-Fr 07:30-18:00"}}, {"type": "node", "id": 4855303748, "lat": 50.8485917, "lon": 4.3561834, "tags": {"amenity": "cafe", "check_date:opening_hours": "2024-05-16", "diet:vegetarian": "yes", "entrance:step_count": "0", "entrance:width": "0.82", "indoor_seating": "yes", "name": "L'Arenberg", "opening_hours:signed": "no", "outdoor_seating": "yes"}}, {"type": "node", "id": 4897680323, "lat": 50.8447746, "lon": 4.3532394, "tags": {"amenity": "cafe", "contact:phone": "+32 2 513 65 13", "entrance:kerb:height": "0.08", "entrance:step_count": "1", "entrance:width": "0.74", "indoor_seating": "yes", "name": "Le Saint-Jean", "outdoor_seating": "yes", "toilets:wheelchair": "no", "wheelchair:turning_circle": "yes"}}, {"type": "node", "id": 4913658926, "lat": 50.8493634, "lon": 4.3857884, "tags": {"amenity": "cafe", "check_date": "2023-04-18", "name": "Caf\u00e9 Le D\u00e9lice"}}, {"type": "node", "id": 4966573527, "lat": 50.8431291, "lon": 4.3586178, "tags": {"amenity": "cafe", "contact:phone": "+32 2 502 06 03", "contact:website": "https://love-ciabatta.be/en", "diet:vegan": "yes", "diet:vegetarian": "yes", "email": "info@love-ciabatta.be", "internet_access": "wlan", "name": "Love Ciabatta", "opening_hours": "Mo off; Tu-Sa 09:30-18:45", "wheelchair": "limited"}}, {"type": "node", "id": 5000450851, "lat": 50.8401918, "lon": 4.3810857, "tags": {"amenity": "cafe", "brand": "Le Pain Quotidien", "brand:wikidata": "Q2046903", "brand:wikipedia": "en:Le Pain Quotidien", "contact:website": "https://www.lepainquotidien.com/be/fr/locations/Belliard/Rue-Belliard-196", "cuisine": "coffee_shop", "name": "Le Pain Quotidien", "opening_hours": "Mo-Sa 07:00-18:00; Su 08:00-18:00", "wheelchair": "limited"}}, {"type": "node", "id": 5091666254, "lat": 50.8515387, "lon": 4.3506213, "tags": {"alt_name": "Caf\u00e9 de la Poste", "amenity": "cafe", "indoor_seating": "yes", "name": "Brasserie de la Poste", "opening_hours:signed": "no", "outdoor_seating": "yes"}}, {"type": "node", "id": 5091666256, "lat": 50.8513881, "lon": 4.350554, "tags": {"amenity": "cafe", "name": "The Why Caf\u00e9"}}, {"type": "node", "id": 5115207019, "lat": 50.8395444, "lon": 4.3610031, "tags": {"amenity": "cafe", "brand": "Joe & The Juice", "brand:wikidata": "Q26221514", "contact:website": "https://www.joejuice.com/", "cuisine": "coffee_shop", "diet:gluten_free": "yes", "name": "Joe & The Juice", "opening_hours": "Mo-Su 08:00-19:00", "takeaway": "yes"}}, {"type": "node", "id": 5254367030, "lat": 50.8492017, "lon": 4.347357, "tags": {"amenity": "cafe", "brand": "Le Pain Quotidien", "brand:wikidata": "Q2046903", "contact:phone": "+32 2 502 23 61", "contact:website": "http://www.lepainquotidien.be/be/store/le-pain-quotidien-dansaert-nl/", "cuisine": "coffee_shop", "diet:vegan": "yes", "diet:vegetarian": "yes", "name": "Le Pain Quotidien", "opening_hours": "Mo-Su,PH 07:00-19:00", "shop": "bakery", "takeaway": "yes"}}, {"type": "node", "id": 5266156156, "lat": 50.8269231, "lon": 4.3626179, "tags": {"amenity": "cafe", "cuisine": "coffee_shop", "name": "Akko Caf\u00e9", "opening_hours": "We-Mo 09:00-17:00", "opening_hours:kitchen": "We-Mo 11:00-14:00"}}, {"type": "node", "id": 5295929122, "lat": 50.8418832, "lon": 4.3732653, "tags": {"amenity": "cafe", "contact:email": "info@theoffice.brussels", "contact:facebook": "https://www.facebook.com/The-Office-creative-coffee-salad-238890549903511/", "contact:mobile": "+32 478 21 66 45", "food": "yes", "internet_access": "wlan", "name": "The Office", "opening_hours": "Mo-Fr 08:00-18:00", "takeaway": "yes", "wheelchair": "yes"}}, {"type": "node", "id": 5383083864, "lat": 50.8551672, "lon": 4.358927, "tags": {"amenity": "cafe", "indoor": "yes", "layer": "-2", "level": "-2", "location": "underground", "name": "Illy Square Expressbar"}}, {"type": "node", "id": 5389787926, "lat": 50.8405618, "lon": 4.3595897, "tags": {"amenity": "cafe", "contact:phone": "+32 2 503 83 30", "cuisine": "tea;cake;coffee_shop", "diet:vegan": "yes", "indoor_seating": "yes", "internet_access": "wlan", "name": "TICH", "opening_hours": "Mo-Fr 09:00-18:30; Sa-Su 10:00-19:00", "outdoor_seating": "yes"}}, {"type": "node", "id": 5404313121, "lat": 50.8263992, "lon": 4.3619753, "tags": {"amenity": "cafe", "contact:email": "contact@cup-28.be", "contact:facebook": "https://www.facebook.com/Cup28.bx/", "contact:instagram": "https://www.instagram.com/cup28.bx/", "contact:phone": "+32 2 831 96 93", "cuisine": "waffle;cafe;coffee_shop", "name": "Cup28\u00b0", "opening_hours": "Tu-Fr 08:00-18:30; Sa-Mo 11:00-18:00", "outdoor_seating": "yes", "website": "https://cup28.be"}}, {"type": "node", "id": 5553118684, "lat": 50.8530468, "lon": 4.3513205, "tags": {"amenity": "cafe", "cuisine": "belgian", "name": "Le Foyer"}}, {"type": "node", "id": 5787074314, "lat": 50.8419049, "lon": 4.3532558, "tags": {"amenity": "cafe", "contact:email": "contact@cremebrussels.be", "contact:facebook": "https://www.facebook.com/cremebrussels/", "contact:instagram": "https://www.instagram.com/cremebrussels/", "contact:phone": "+32 2 648 27 51", "contact:website": "https://cremebrussels.be/", "cuisine": "coffee_shop;sandwich;salad;pancake", "delivery": "yes", "name": "Cr\u00e8me Brussels", "opening_hours": "Mo-Fr 09:00-18:00; Sa 09:30-18:00; Su 09:30-18:00", "outdoor_seating": "yes", "payment:cash": "no"}}, {"type": "node", "id": 5787074316, "lat": 50.8420716, "lon": 4.352933, "tags": {"amenity": "cafe", "name": "Caf\u00e9 Pastel"}}, {"type": "node", "id": 5962684962, "lat": 50.8461351, "lon": 4.3749157, "tags": {"amenity": "cafe", "entrance:kerb:height": "0.2", "entrance:step_count": "1", "entrance:width": "0.7", "name": "Chez bogna", "opening_hours": "Mo-Fr 09:00-15:30"}}, {"type": "node", "id": 6109780718, "lat": 50.8416075, "lon": 4.359635, "tags": {"amenity": "cafe", "contact:instagram": "https://www.instagram.com/bouche.coffee/", "cuisine": "coffee_shop", "diet:vegetarian": "yes", "name": "Bouche", "opening_hours": "Tu-Fr 08:00-17:00; Sa,Su 09:00-18:00", "panoramax": "a22f1767-8638-4aee-9e9e-d5c3db8a06cb"}}, {"type": "node", "id": 6192474052, "lat": 50.8478193, "lon": 4.3638219, "tags": {"amenity": "cafe", "check_date:opening_hours": "2024-06-21", "contact:facebook": "https://www.facebook.com/SoniaLaRoseNoire/", "contact:mobile": "+32 479 44 51 41", "name": "La Rose Noire", "opening_hours:signed": "no", "wheelchair": "no"}}, {"type": "node", "id": 6245049286, "lat": 50.8271056, "lon": 4.3629159, "tags": {"amenity": "cafe", "contact:website": "https://www.belgacoffee.com", "name": "Belga & Co", "opening_hours": "Mo-Fr 07:30-18:30; Sa-Su 08:30-18:30", "outdoor_seating": "yes", "wheelchair": "no"}}, {"type": "node", "id": 6259353400, "lat": 50.8441539, "lon": 4.3552907, "tags": {"amenity": "cafe", "check_date:opening_hours": "2024-08-13", "level": "0", "name": "... by Lefty", "opening_hours:signed": "no"}}, {"type": "node", "id": 6292976254, "lat": 50.8475515, "lon": 4.3619627, "tags": {"amenity": "cafe", "name": "Eat & Drink", "wheelchair": "limited"}}, {"type": "node", "id": 6462645653, "lat": 50.8350675, "lon": 4.3468167, "tags": {"amenity": "cafe", "email": "lepianocktail.bruxelles@gmail.com", "name": "Pianocktail", "outdoor_seating": "no"}}, {"type": "node", "id": 6520732354, "lat": 50.8472976, "lon": 4.3925346, "tags": {"amenity": "cafe", "name": "Gotha"}}, {"type": "node", "id": 6732525042, "lat": 50.8031679, "lon": 4.3815056, "tags": {"amenity": "cafe", "email": "hello@lekiosque.eu", "indoor_seating": "no", "name": "Le Kiosque", "opening_hours": "Mo-Fr 09:00-18:00; Sa-Su 09:00-19:00 \"closed in case of bad weather\"", "organic": "yes", "outdoor_seating": "yes", "survey:date": "2025-03-09", "toilets": "yes", "wheelchair": "yes"}}, {"type": "node", "id": 6737276686, "lat": 50.852946, "lon": 4.3533018, "tags": {"amenity": "cafe", "check_date:opening_hours": "2025-11-24", "name": "Le Boulevard", "opening_hours:signed": "no", "outdoor_seating": "yes"}}, {"type": "node", "id": 6801360550, "lat": 50.8516121, "lon": 4.3487074, "tags": {"amenity": "cafe", "check_date": "2024-08-24", "contact:instagram": "https://www.instagram.com/drache.bxl", "cuisine": "coffee_shop;pastry", "indoor_seating": "yes", "internet_access": "wlan", "internet_access:fee": "no", "name": "DRACHE Specialty Coffee Bar", "opening_hours": "Mo-Fr 11:00-18:00; Sa 10:30-18:00; Su 11:00-18:00", "outdoor_seating": "yes", "payment:american_express": "yes", "payment:cards": "yes", "payment:coins": "yes", "payment:contactless": "yes", "payment:credit_cards": "yes", "payment:debit_cards": "yes", "payment:maestro": "yes", "payment:mastercard": "yes", "payment:notes": "yes", "payment:visa": "yes", "payment:visa_debit": "yes"}}, {"type": "node", "id": 6964926436, "lat": 50.8441451, "lon": 4.3710981, "tags": {"amenity": "cafe", "comment": "geen toegang tot toilet", "description": "Pastry cafe deli and bakery", "entrance:kerb:height": "0.06", "entrance:step_count": "1", "entrance:width": "1.6", "name": "to Meli delicatessen"}}, {"type": "node", "id": 6966406043, "lat": 50.8428811, "lon": 4.3544778, "tags": {"amenity": "cafe", "name": "Subspace"}}, {"type": "node", "id": 6969934185, "lat": 50.8231311, "lon": 4.3671823, "tags": {"amenity": "cafe", "contact:facebook": "https://www.facebook.com/kafeibxl/", "contact:phone": "+32 2 808 25 20", "contact:website": "https://www.kafei-bruxelles.be/", "cuisine": "asian;coffee_shop;brunch;pancakes", "name": "Kafei", "opening_hours": "Tu-Th 11:00-18:00; Fr-Su 11:00-17:00; Mo off", "outdoor_seating": "terrace", "reservation": "yes"}}, {"type": "node", "id": 7211188266, "lat": 50.8362517, "lon": 4.3450788, "tags": {"amenity": "cafe", "cuisine": "teahouse", "name": "Salon de Th\u00e8 Jasmin"}}, {"type": "node", "id": 7231290685, "lat": 50.8522187, "lon": 4.3473679, "tags": {"amenity": "cafe", "contact:website": "https://cecilebrussels.be", "cuisine": "coffee_shop", "description": "Het allround food & event concept 'C\u00e9cile' uit Brussel ontstond in 2016 vanuit de zin in ontbijt op bed. Vandaag kan je bij 'C\u00e9cile' terecht voor catering maar ook ter plaatse in onze comptoir voor ontbijt, brunch, lunch en patisserie.", "name": "C\u00e9cile", "opening_hours": "Sa 10:00-15:00; Su 10:00-15:00", "outdoor_seating": "sidewalk", "shop": "pastry", "start_date": "2016"}}, {"type": "node", "id": 7266145824, "lat": 50.806789, "lon": 4.3789352, "tags": {"amenity": "cafe", "changing_table": "no", "check_date": "2024-09-24", "check_date:diet:vegan": "2024-09-24", "check_date:diet:vegetarian": "2024-09-24", "contact:housenumber": "1", "contact:street": "Carrefour des Attelages - Gespanhoek", "diet:vegan": "no", "diet:vegetarian": "yes", "entrance:kerb:height": "0", "entrance:ramp": "no", "entrance:width": "2", "internet_access": "no", "name": "Woodpecker", "outdoor_seating": "yes", "toilets:wheelchair": "no", "wheelchair:turning_circle": "no"}}, {"type": "node", "id": 7287577732, "lat": 50.8635292, "lon": 4.3482639, "tags": {"amenity": "cafe", "brand": "Le Pain Quotidien", "brand:wikidata": "Q2046903", "brand:wikipedia": "en:Le Pain Quotidien", "contact:phone": "+32 2 344 47 52", "contact:website": "https://www.lepainquotidien.com/be/fr/locations/tour-taxis/Avenue-du-Port-86C", "cuisine": "coffee_shop", "delivery": "yes", "name": "Le Pain Quotidien", "opening_hours": "Mo-Fr 08:00-15:00", "takeaway": "yes", "wheelchair": "yes"}}, {"type": "node", "id": 7878395940, "lat": 50.8523278, "lon": 4.3529537, "tags": {"amenity": "cafe", "name": "La Zone"}}, {"type": "node", "id": 7976089830, "lat": 50.8487835, "lon": 4.3487673, "tags": {"amenity": "cafe", "brand": "IzyCoffee", "brand:wikidata": "Q124358963", "contact:facebook": "https://www.facebook.com/IzyCoffee", "contact:website": "https://www.izycoffee.be", "cuisine": "coffee_shop", "indoor_seating": "yes", "internet_access": "wlan", "internet_access:fee": "customers", "name": "Izy Coffee", "old_name": "OR Espressobar / Ana Attento", "opening_hours": "07:00-22:00", "outdoor_seating": "yes", "payment:cash": "yes", "payment:contactless": "yes", "takeaway": "yes", "website:menu": "https://www.izycoffee.be/koffiekaart", "wheelchair": "limited"}}, {"type": "node", "id": 7984205984, "lat": 50.8395579, "lon": 4.3509229, "tags": {"air_conditioning": "no", "amenity": "cafe", "check_date": "2025-06-24", "contact:email": "luciferlivescoffee@gmail.com", "contact:facebook": "luciferlivescoffee", "contact:instagram": "luciferlivescoffee", "cuisine": "coffee_shop", "description": "100% plant based coffehouse.", "diet:vegan": "only", "indoor_seating": "yes", "name": "Lucifer Lives", "opening_hours": "Tu-Su 10:00-17:00", "outdoor_seating": "yes", "pets_allowed": "yes", "smoking": "outside", "wheelchair": "no"}}, {"type": "node", "id": 7984220345, "lat": 50.8480352, "lon": 4.3649096, "tags": {"amenity": "cafe", "check_date": "2025-04-12", "contact:email": "contact@mylittlecupcoffee.com", "contact:facebook": "https://www.facebook.com/mylittlecupcoffeecorner", "contact:instagram": "https://www.instagram.com/mylittlecupbrussels/", "contact:website": "https://www.mylittlecup.be/", "cuisine": "coffee_shop", "diet:vegan": "yes", "diet:vegetarian": "yes", "indoor_seating": "yes", "internet_access": "wlan", "internet_access:fee": "no", "name": "My Little Cup", "opening_hours": "Mo-Fr 07:30-17:00; Sa-Su 09:00-17:00", "outdoor_seating": "sidewalk", "payment:credit_cards": "yes", "payment:debit_cards": "yes", "ref:vatin": "BE0541993735", "smoking": "no", "takeaway": "yes", "wheelchair": "no"}}, {"type": "node", "id": 8004729317, "lat": 50.8464563, "lon": 4.3377777, "tags": {"amenity": "cafe", "name": "Melody", "outdoor_seating": "terrace"}}, {"type": "node", "id": 8447162877, "lat": 50.8461395, "lon": 4.3499491, "tags": {"amenity": "cafe", "indoor_seating": "no", "name": "Be Coffee", "payment:cash": "yes", "takeaway": "only"}}, {"type": "node", "id": 9035590751, "lat": 50.8504632, "lon": 4.380999, "tags": {"amenity": "cafe", "name": "Maison Louis", "outdoor_seating": "yes"}}, {"type": "node", "id": 9166948797, "lat": 50.8706622, "lon": 4.3482841, "tags": {"amenity": "cafe", "contact:email": "koffieentreami.e.s@gmail.com", "contact:facebook": "https://www.facebook.com/KoffieEntreAmies", "cuisine": "coffee_shop", "description": "Koffie Entre Ami.e.s est un bar \u00e0 caf\u00e9 coop\u00e9rative \u00e0 BeHere, Brussels. Een ontmoetingsplek met goede koffie, thee, kombucha, jus, cakes et des lunch-to-go. Come meet us for your daily fix!", "name": "Koffie Entre Ami.e.s"}}, {"type": "node", "id": 9188136910, "lat": 50.8471277, "lon": 4.3538526, "tags": {"air_conditioning": "yes", "amenity": "cafe", "contact:website": "https://lloydcoffee.com/", "indoor_seating": "yes", "internet_access": "wlan", "internet_access:fee": "no", "level": "0", "name": "Lloyd Coffee Eatery", "opening_hours": "Mo-Th,Su 07:00-20:00; Fr-Sa 07:00-22:00", "outdoor_seating": "yes", "toilets": "yes", "wheelchair": "no"}}, {"type": "node", "id": 9252535197, "lat": 50.8371556, "lon": 4.3453117, "tags": {"amenity": "cafe", "cuisine": "coffee_shop", "name": "Le Paon d'Or", "outdoor_seating": "yes", "toilets": "yes", "toilets:access": "public", "toilets:description": "Le r\u00e9seau des toilettes accueillantes - Netwerk gastvrije toiletten", "toilets:fee": "no"}}, {"type": "node", "id": 9561105838, "lat": 50.8590998, "lon": 4.3527003, "tags": {"amenity": "cafe", "contact:facebook": "https://www.facebook.com/Caf%C3%A9-aux-flammes-295362760917262/", "contact:mobile": "+32 473 41 30 02", "cuisine": "belgian", "name": "Aux Flammes", "opening_hours": "Mo-Fr 09:00-19:00", "outdoor_seating": "no"}}, {"type": "node", "id": 9609986476, "lat": 50.8472616, "lon": 4.3609251, "tags": {"amenity": "cafe", "changing_table": "no", "changing_table:adult": "no", "check_date:opening_hours": "2023-07-10", "contact:facebook": "houseoftribescafe", "diet:vegetarian": "yes", "entrance:kerb:height": "0.04", "entrance:ramp": "no", "entrance:step_count": "1", "entrance:width": "1.49", "name": "Green Kitchen@House of Tribes", "opening_hours": "Mo-Fr 08:00-16:00; Sa, Su off; PH off", "short_name": "House of Tribes", "wheelchair:turning_circle": "no"}}, {"type": "node", "id": 9623252404, "lat": 50.8713106, "lon": 4.3605091, "tags": {"amenity": "cafe", "description": "Coffee, breakfast, tea-room, fresh juices, smoothies, cookies", "name": "Fuego", "outdoor_seating": "yes", "panoramax": "1f98906f-730c-47ca-ab92-b26dd6224189", "panoramax:0": "1eaa0b87-8e12-4a3a-bb8f-d40c6b3db7bf", "panoramax:1": "85d07cfe-863d-4d38-bd1e-cb87075d5371", "toilets": "yes", "toilets:access": "public", "toilets:description": "Le r\u00e9seau des toilettes accueillantes - Netwerk gastvrije toiletten", "toilets:fee": "no"}}, {"type": "node", "id": 9631084537, "lat": 50.8447434, "lon": 4.3950283, "tags": {"amenity": "cafe", "check_date:opening_hours": "2025-10-30", "contact:mobile": "+32 494 15 12 47", "name": "Cafe Leopold", "opening_hours": "Mo-Fr 08:00-20:00; Sa,Su 09:00-20:00", "outdoor_seating": "sidewalk"}}, {"type": "node", "id": 9646133346, "lat": 50.8156169, "lon": 4.3711196, "tags": {"amenity": "cafe", "contact:email": "hello@stellacoffeebar.be", "contact:instagram": "stellacoffeebar", "contact:mobile": "+32 465 91 09 35", "contact:website": "https://linktr.ee/stellacoffeebar/", "name": "Stella Legrand", "opening_hours": "Mo-Fr 07:30-18:00; Sa-Su 09:00-18:00", "outdoor_seating": "yes"}}, {"type": "node", "id": 9676547964, "lat": 50.8861158, "lon": 4.3423005, "tags": {"amenity": "cafe", "name": "Caf\u00e9 des Boulevards"}}, {"type": "node", "id": 9704907477, "lat": 50.8378355, "lon": 4.3453245, "tags": {"amenity": "cafe", "cuisine": "coffee_shop", "name": "Elixir Coffee", "opening_hours": "Mo-Fr 14:00-20:00; Sa 12:00-20:00; Su 11:00-19:00", "outdoor_seating": "yes"}}, {"type": "node", "id": 9901834198, "lat": 50.866417, "lon": 4.3503932}, {"type": "node", "id": 9916335299, "lat": 50.8663879, "lon": 4.3504842}, {"type": "node", "id": 9916335300, "lat": 50.8664473, "lon": 4.3505318}, {"type": "node", "id": 9916335301, "lat": 50.8664764, "lon": 4.3504408}, {"type": "node", "id": 9937699132, "lat": 50.8787925, "lon": 4.3481502, "tags": {"amenity": "cafe", "name": "Caf\u00e9 Paris"}}, {"type": "node", "id": 9942527762, "lat": 50.8811778, "lon": 4.3478159, "tags": {"amenity": "cafe", "name": "Yoha", "outdoor_seating": "yes"}}, {"type": "node", "id": 9981424310, "lat": 50.8455964, "lon": 4.3391009, "tags": {"amenity": "cafe", "entrance:kerb:height": "0", "entrance:step_count": "0", "entrance:width": "0.7", "name": "Venezia", "outdoor_seating": "sidewalk", "wheelchair:turning_circle": "yes"}}, {"type": "node", "id": 10079840715, "lat": 50.8370123, "lon": 4.3487929, "tags": {"amenity": "cafe", "check_date": "2025-04-27", "contact:instagram": "https://www.instagram.com/taylorscafebrussels/", "contact:website": "https://www.taylorscafebrussels.be", "diet:vegan": "only", "name": "Taylor's", "opening_hours": "Mo,We,Th,Fr 09:00-16:00; Sa,Su 10:00-18:00"}}, {"type": "node", "id": 10101802298, "lat": 50.8497472, "lon": 4.3470437, "tags": {"amenity": "cafe", "contact:website": "https://kafeidansaert.eatbu.com/", "cuisine": "coffee_shop", "name": "Kafei Dansaert", "opening_hours": "Mo off; Tu-Fr 08:30-16:00; Sa,Su 10:00-17:00"}}, {"type": "node", "id": 10102908150, "lat": 50.8501378, "lon": 4.3526304, "tags": {"amenity": "cafe", "layer": "-1", "level": "-1", "location": "underground", "name": "Gong cha"}}, {"type": "node", "id": 10313603394, "lat": 50.8166049, "lon": 4.3711661, "tags": {"amenity": "cafe", "check_date": "2023-01-06", "cuisine": "coffee_shop", "internet_access": "wlan", "internet_access:fee": "customers", "name": "Caf\u00e9 de la Presse", "opening_hours": "Mo-Fr 07:30-20:00; Sa,Su 08:30-20:00", "outdoor_seating": "yes"}}, {"type": "node", "id": 10608364554, "lat": 50.850898, "lon": 4.368772}, {"type": "node", "id": 10608364555, "lat": 50.8508981, "lon": 4.3687436}, {"type": "node", "id": 10608364556, "lat": 50.8508573, "lon": 4.3687434}, {"type": "node", "id": 10608364557, "lat": 50.8508572, "lon": 4.3687718}, {"type": "node", "id": 10610776042, "lat": 50.8414473, "lon": 4.3840573, "tags": {"amenity": "cafe", "cuisine": "brunch", "level": "0", "name": "Woodpecker", "outdoor_seating": "yes"}}, {"type": "node", "id": 10697229512, "lat": 50.8507577, "lon": 4.3602721, "tags": {"entrance": "yes"}}, {"type": "node", "id": 10697395233, "lat": 50.8760216, "lon": 4.3524528, "tags": {"amenity": "cafe", "name": "Mosaic"}}, {"type": "node", "id": 10743588801, "lat": 50.840364, "lon": 4.3596917, "tags": {"amenity": "cafe", "check_date": "2023-12-30", "contact:website": "https://www.goldenbean.lu/", "internet_access": "wlan", "internet_access:fee": "customers", "name": "Golden Bean", "opening_hours": "Mo-Fr 08:00-18:30; Sa,Su 09:00-18:00", "outdoor_seating": "no", "payment:mastercard": "yes", "payment:visa": "yes", "wheelchair": "no"}}, {"type": "node", "id": 10811278679, "lat": 50.8488994, "lon": 4.3572325, "tags": {"amenity": "cafe", "check_date:opening_hours": "2024-06-02", "indoor_seating": "yes", "name": "Het Clubke", "opening_hours:signed": "no", "outdoor_seating": "no"}}, {"type": "node", "id": 10832140531, "lat": 50.854621, "lon": 4.3547933, "tags": {"amenity": "cafe", "name": "Caf\u00e9 National"}}, {"type": "node", "id": 10839632912, "lat": 50.849484, "lon": 4.3486962, "tags": {"amenity": "cafe", "name": "Wide Awake Coffe St. Cat"}}, {"type": "node", "id": 10845333238, "lat": 50.8487016, "lon": 4.3683111, "tags": {"amenity": "cafe", "contact:email": "papierbeurre@gmail.com", "contact:facebook": "Papier-Beurre/100089980377323/", "contact:instagram": "papierbeurre", "cuisine": "sandwich;coffee_shop", "diet:vegan": "no", "diet:vegetarian": "yes", "name": "Papier Beurre", "opening_hours": "Mo-Th 07:30-15:30; Fr 08:30-15:00", "wheelchair": "no"}}, {"type": "node", "id": 10863722739, "lat": 50.8556849, "lon": 4.3541249, "tags": {"amenity": "cafe", "contact:email": "damngoodcafe.bx@gmail.com", "contact:facebook": "https://www.facebook.com/damngoodcafebrussels/", "contact:instagram": "https://www.instagram.com/damngoodcafe/", "cuisine": "sandwich;coffee_shop", "name": "Damn Good Caf\u00e9", "opening_hours": "Mo-Fr 07:30-17:00; Sa 10:00-17:00", "outdoor_seating": "yes", "panoramax": "cde43d65-91ff-4d43-bf97-0bdb134d702b"}}, {"type": "node", "id": 10886115141, "lat": 50.8479676, "lon": 4.3489635, "tags": {"amenity": "cafe", "check_date": "2025-03-28", "indoor_seating": "yes", "name": "Mon Ch\u00e9ri", "opening_hours": "09:00-23:00", "outdoor_seating": "yes", "payment:cash": "yes", "payment:credit_cards": "yes", "payment:debit_cards": "yes", "start_date": "2023-05"}}, {"type": "node", "id": 10899984374, "lat": 50.8404595, "lon": 4.3671217, "tags": {"amenity": "cafe", "comment": "Wheelchair toilet in other building ag real estafette 14A", "entrance:kerb:height": "0.01", "entrance:step_count": "1", "entrance:width": "0.95", "indoor_seating": "yes", "name": "Le Dauphin", "opening_hours": "Mo-Fr 07:00-14:30", "outdoor_seating": "sidewalk", "toilets:access": "customers", "toilets:wheelchair": "yes", "toilets:wheelchair:accessible_via": "ground_floor", "wheelchair": "yes"}}, {"type": "node", "id": 10911058544, "lat": 50.8490256, "lon": 4.3457393, "tags": {"amenity": "cafe", "contact:instagram": "addis_stories", "cuisine": "ethiopian", "name": "Addis Stories"}}, {"type": "node", "id": 10951776702, "lat": 50.8400652, "lon": 4.3509467, "tags": {"amenity": "cafe", "cuisine": "coffee_shop", "name": "Original Cheesecake"}}, {"type": "node", "id": 11138953593, "lat": 50.8479916, "lon": 4.357304, "tags": {"amenity": "cafe", "check_date:opening_hours": "2025-02-05", "name": "Lloyds Coffee Eatery", "opening_hours": "Mo-Fr 08:00-20:00; Sa,Su 09:00-20:00"}}, {"type": "node", "id": 11186621361, "lat": 50.8903654, "lon": 4.3442484, "tags": {"amenity": "cafe", "contact:facebook": "https://www.facebook.com/cafepalto", "cuisine": "coffee_shop", "image": "https://i.imgur.com/3gWLrjq.jpg", "name": "Palto", "opening_hours": "Mo,Tu off; We,Th 08:30-23:00; Fr 08:30-02:00; Sa 11:00-02:00; Su 11:00-20:00"}}, {"type": "node", "id": 11234770039, "lat": 50.8246503, "lon": 4.3656345, "tags": {"amenity": "cafe", "contact:website": "https://www.pauseandplay.be/infos", "name": "Pause and Play", "opening_hours": "We-Su 09:00-19:00"}}, {"type": "node", "id": 11263157150, "lat": 50.8774651, "lon": 4.3467906, "tags": {"amenity": "cafe", "name": "Relax"}}, {"type": "node", "id": 11295402933, "lat": 50.8481063, "lon": 4.350362, "tags": {"amenity": "cafe", "level": "1"}}, {"type": "node", "id": 11378574332, "lat": 50.837608, "lon": 4.3565474, "tags": {"amenity": "cafe", "contact:email": "lafabriqueenville@gmail.com", "contact:phone": "+32 2 513 99 48", "contact:website": "http://www.lafabriqueresto.be/la-fabrique-en-ville/", "indoor_seating": "yes", "internet_access": "yes", "name": "La Fabrique en Ville", "opening_hours": "Mo-Fr 09:00-15:00; Sa,Su 10:00-15:30", "operator": "La Fabrique", "outdoor_seating": "yes", "source:geometry:ref": "Urbis/6050034", "source:geometry:version": "6", "wheelchair": "yes"}}, {"type": "node", "id": 11389803742, "lat": 50.8481272, "lon": 4.3485513, "tags": {"amenity": "cafe", "name": "Bubble", "panoramax": "3bda7608-cef5-44ac-af7c-585ffe58b510"}}, {"type": "node", "id": 11391886969, "lat": 50.8489087, "lon": 4.3467408, "tags": {"amenity": "cafe", "contact:instagram": "https://www.instagram.com/cafe_encre/", "cuisine": "coffee_shop", "name": "Encr\u00e9. Caf\u00e9", "opening_hours": "Tu-Sa 10:00-19:00; Mo,Su off"}}, {"type": "node", "id": 11436035420, "lat": 50.8478006, "lon": 4.3487905, "tags": {"amenity": "cafe", "indoor_seating": "yes", "name": "Affligem", "opening_hours": "Mo-Sa 11:00-24:00+; Su 12:00-24:00+", "outdoor_seating": "yes"}}, {"type": "node", "id": 11453501562, "lat": 50.8716187, "lon": 4.3724583, "tags": {"amenity": "cafe", "name": "L'Andalou"}}, {"type": "node", "id": 11578205527, "lat": 50.841195, "lon": 4.3554083, "tags": {"amenity": "cafe", "name": "La Casa Sablon"}}, {"type": "node", "id": 11581463584, "lat": 50.848154, "lon": 4.3646144, "tags": {"amenity": "cafe", "check_date:opening_hours": "2024-07-21", "name": "The First", "opening_hours:signed": "no", "wheelchair": "no"}}, {"type": "node", "id": 11584066634, "lat": 50.8765966, "lon": 4.3399255, "tags": {"amenity": "cafe", "name": "Cervantes"}}, {"type": "node", "id": 11598862631, "lat": 50.8519736, "lon": 4.343669, "tags": {"amenity": "cafe", "cuisine": "portuguese", "diet:vegan": "no", "diet:vegetarian": "yes", "name": "Forcado", "opening_hours": "Tu-Su 10:00-18:00", "website": "https://www.forcado.be/"}}, {"type": "node", "id": 11637378110, "lat": 50.8804772, "lon": 4.425927, "tags": {"amenity": "cafe", "brand": "Starbucks", "brand:wikidata": "Q37158", "cuisine": "coffee_shop", "name": "Starbucks", "official_name": "Starbucks Coffee", "opening_hours": "Mo-Th 07:30-16:30; Fr 07:30-15:30", "outdoor_seating": "no", "takeaway": "yes"}}, {"type": "node", "id": 11899067367, "lat": 50.8560071, "lon": 4.3530818, "tags": {"amenity": "cafe", "contact:instagram": "https://www.instagram.com/fernand.brussels", "cuisine": "ice_cream", "name": "Chez Fernand", "panoramax": "e56da175-adf2-4f07-89c9-fcc6edeaefaa", "panoramax:0": "6e25089c-b8cb-4825-af80-5742983a64a6", "start_date": "2024-05"}}, {"type": "node", "id": 11923788002, "lat": 50.8411855, "lon": 4.3789311, "tags": {"amenity": "cafe", "contact:phone": "+32 2 380 66 80", "contact:website": "https://caffeinebxl.com/", "cuisine": "coffee_shop", "name": "Caffeine", "opening_hours": "Mo-Su 08:00-19:00"}}, {"type": "node", "id": 11964931043, "lat": 50.8399757, "lon": 4.3466117, "tags": {"amenity": "cafe", "contact:mobile": "+32 471 64 64 24", "contact:website": "https://biobowls.be/", "diet:vegan": "yes", "diet:vegetarian": "yes", "indoor_seating": "yes", "level": "0", "name": "Bio Bowls", "opening_hours": "Mo-Fr 09:00-18:00; Su 10:00-16:00", "organic": "only", "outdoor_seating": "limited", "payment:cash": "yes", "payment:credit_cards": "yes", "toilets": "yes"}}, {"type": "node", "id": 11967448169, "lat": 50.8618509, "lon": 4.3499657, "tags": {"amenity": "cafe", "contact:email": "hello@kosto.cafe", "contact:website": "https://www.kosto.cafe", "name": "Kosto", "opening_hours": "Mo-Fr 08:00-18:00; Sa,Su 09:00-18:00"}}, {"type": "node", "id": 11989782161, "lat": 50.847773, "lon": 4.3402209, "tags": {"amenity": "cafe", "contact:website": "https://www.lasenne-brussels.be", "name": "La Senne"}}, {"type": "node", "id": 12033878981, "lat": 50.8426118, "lon": 4.3779547, "tags": {"amenity": "cafe", "check_date": "2024-07-04", "name": "Abricot's Boulangerie & Sandwicherie", "note": "opening hours specifically displayed for July/August, may change later", "opening_hours": "Mo-Fr 07:00-16:00"}}, {"type": "node", "id": 12092390397, "lat": 50.8468634, "lon": 4.3547415, "tags": {"amenity": "cafe", "check_date": "2024-08-04", "cuisine": "burger;breakfast", "name": "Cliff", "outdoor_seating": "yes"}}, {"type": "node", "id": 12119817301, "lat": 50.8496405, "lon": 4.3513687, "tags": {"amenity": "cafe", "check_date:opening_hours": "2025-10-27", "contact:website": "https://viage.be/en/wine-and-dine/viage-chill", "cuisine": "coffee_shop;tea", "level": "0", "name": "Viage Chill", "opening_hours": "Mo-Su 09:00-23:00"}}, {"type": "node", "id": 12202464491, "lat": 50.8314274, "lon": 4.3601085, "tags": {"amenity": "cafe", "name": "Leopold Cafe Presse", "website": "https://leopoldcafepresse.com"}}, {"type": "node", "id": 12205646397, "lat": 50.8314274, "lon": 4.3601085, "tags": {"amenity": "cafe", "website": "https://leopoldcafepresse.com/"}}, {"type": "node", "id": 12224044705, "lat": 50.8497628, "lon": 4.3466262, "tags": {"amenity": "cafe", "check_date:opening_hours": "2024-10-05", "name": "Voort x Velvet", "opening_hours:signed": "no", "website": "https://voortstudio.com/Voort-x-Velvet"}}, {"type": "node", "id": 12313004144, "lat": 50.8521841, "lon": 4.3509132, "tags": {"amenity": "cafe", "name": "Street Art Coffee"}}, {"type": "node", "id": 12313124070, "lat": 50.852253, "lon": 4.3529099, "tags": {"amenity": "cafe", "name": "Seasons"}}, {"type": "node", "id": 12330985167, "lat": 50.8428599, "lon": 4.3507134, "tags": {"amenity": "cafe"}}, {"type": "node", "id": 12335442556, "lat": 50.8386939, "lon": 4.3416099, "tags": {"amenity": "cafe", "check_date": "2024-04-05", "name": "Cobra Jaune"}}, {"type": "node", "id": 12335442557, "lat": 50.838627, "lon": 4.3416247, "tags": {"amenity": "cafe", "check_date": "2024-04-05", "name": "Iberia"}}, {"type": "node", "id": 12538057779, "lat": 50.8442141, "lon": 4.3694721, "tags": {"amenity": "cafe", "name": "Capital"}}, {"type": "node", "id": 12643811253, "lat": 50.8477159, "lon": 4.3456939, "tags": {"amenity": "cafe", "cuisine": "cake;coffee_shop", "name": "Jon's Cafe", "opening_hours": "Mo-Su 11:00-04:00"}}, {"type": "node", "id": 12754332818, "lat": 50.8376218, "lon": 4.3458336, "tags": {"amenity": "cafe", "bar": "yes", "check_date": "2025-04-14", "diet:vegetarian": "yes", "indoor_seating": "yes", "name": "Muche Bistrot", "outdoor_seating": "sidewalk", "payment:credit_cards": "yes", "payment:debit_cards": "yes"}}, {"type": "node", "id": 12757205057, "lat": 50.8406699, "lon": 4.3694237, "tags": {"amenity": "cafe", "check_date": "2025-04-15", "level": "0", "name": "Bambino"}}, {"type": "node", "id": 12762961501, "lat": 50.8459962, "lon": 4.3560884, "tags": {"amenity": "cafe", "diet:vegan": "yes", "name": "June", "payment:cash": "no", "surveillance": "yes", "surveillance:zone": "indoor"}}, {"type": "node", "id": 12762971802, "lat": 50.820131, "lon": 4.3682371, "tags": {"amenity": "cafe", "contact:email": "info@thewaynecafe.com", "contact:facebook": "61572520707221", "contact:instagram": "wayne.brussels", "contact:phone": "+32 2 241 86 68", "contact:website": "https://thewaynecafe.com/", "cuisine": "coffee_shop;sandwich", "name": "The Wayne Caf\u00e9", "opening_hours": "Mo-We, Sa 08:00-18:00; Th-Fr 08:00-22:00; Su 10:00-16:00"}}, {"type": "node", "id": 12768361817, "lat": 50.8412782, "lon": 4.3527072, "tags": {"amenity": "cafe", "check_date": "2025-04-19", "cuisine": "pancake", "indoor_seating": "yes", "name": "Poz\"", "outdoor_seating": "yes", "wheelchair": "no"}}, {"type": "node", "id": 12824135905, "lat": 50.8416342, "lon": 4.3548811, "tags": {"amenity": "cafe", "bar": "yes", "contact:instagram": "cafecostermans", "name": "Caf\u00e9 Costermans", "opening_hours": "Tu-Su 09:00-18:30; We,Th 09:00-23:00", "outdoor_seating": "yes", "start_date": "2025", "wikidata": "Q134475454"}}, {"type": "node", "id": 12843798656, "lat": 50.8507981, "lon": 4.3510359, "tags": {"amenity": "cafe", "description": "Coffee, breakfast, lunch, salad, pasta, sandwich", "name": "Mint & Basil"}}, {"type": "node", "id": 12877016997, "lat": 50.8557807, "lon": 4.3459214, "tags": {"amenity": "cafe", "name": "O' Chicago Brunch", "operator": "La Chocolatine"}}, {"type": "node", "id": 12919260703, "lat": 50.8465637, "lon": 4.3535159, "tags": {"amenity": "cafe", "name": "Bigg Cake"}}, {"type": "node", "id": 12989125901, "lat": 50.8444989, "lon": 4.3836544, "tags": {"amenity": "cafe", "contact:mobile": "+32 470 50 08 72", "contact:website": "https://caffeitaliano.eatbu.com/", "cuisine": "italian", "name": "Caff\u00e8 Italiano", "opening_hours": "Mo-Fr 08:00-16:00"}}, {"type": "node", "id": 12999098388, "lat": 50.8468993, "lon": 4.3471761, "tags": {"amenity": "cafe", "contact:instagram": "https://www.instagram.com/rarebrusselscafe", "drinking_water:refill": "yes", "drinking_water:refill:network": "BXL Plan climat - Klimaatplan", "name": "RAE"}}, {"type": "node", "id": 13007376925, "lat": 50.8346806, "lon": 4.3458107, "tags": {"air_conditioning": "no", "amenity": "cafe", "bar": "yes", "changing_table": "no", "check_date": "2025-07-17", "check_date:diet:gluten_free": "2025-07-17", "check_date:diet:vegetarian": "2025-07-17", "cuisine": "pasta;bistro;local", "delivery": "no", "diet:gluten_free": "no", "diet:omnivore": "yes", "diet:vegetarian": "no", "drive_through": "no", "highchair": "no", "internet_access": "no", "name": "Le Ketje", "organic": "no", "outdoor_seating": "yes", "payment:cash": "yes", "payment:credit_cards": "yes", "payment:debit_cards": "yes", "smoking": "no", "takeaway": "no", "toilets": "yes", "toilets:menstrual_products": "no", "toilets:wheelchair": "yes", "wheelchair": "limited"}}, {"type": "node", "id": 13009169441, "lat": 50.840983, "lon": 4.3422749, "tags": {"amenity": "cafe", "name": "Brugel's"}}, {"type": "node", "id": 13041912401, "lat": 50.8306529, "lon": 4.3608979, "tags": {"amenity": "cafe", "brand": "Le Pain Quotidien", "brand:wikidata": "Q2046903", "cuisine": "coffee_shop", "name": "Le Pain Quotidien", "outdoor_seating": "no", "takeaway": "yes"}}, {"type": "node", "id": 13110477322, "lat": 50.8446506, "lon": 4.3548554, "tags": {"amenity": "cafe", "name": "Le caf\u00e9 litt\u00e9raire"}}, {"type": "node", "id": 13176509150, "lat": 50.8701491, "lon": 4.3616692, "tags": {"amenity": "cafe", "check_date": "2025-09-22", "mapillary": "4287022941530883", "name": "Chez Bilo"}}, {"type": "node", "id": 13509250113, "lat": 50.8416782, "lon": 4.353829, "tags": {"amenity": "cafe", "contact:city": "Bruxelles - Brussel", "contact:housenumber": "49", "contact:mobile": "+32 491 26 69 47", "contact:postcode": "1000", "contact:street": "Place du Grand Sablon - Grote Zavel", "contact:website": "https://www.terresdecafe.com/", "cuisine": "coffee_shop", "level": "0", "name": "Terres de Caf\u00e9", "opening_hours": "Mo-Fr 08:00-19:00; Sa-Su 09:30-19:00", "outdoor_seating": "yes"}}, {"type": "way", "id": 1081996999, "nodes": [9901834198, 9916335301, 9916335300, 9916335299, 9901834198], "tags": {"amenity": "cafe", "indoor": "room", "level": "0", "name": "Koffiebar", "panoramax": "0023f657-96ba-4787-b7f1-49c38f56dac7", "payment:cards": "yes", "payment:cash": "yes", "wheelchair": "yes"}}, {"type": "way", "id": 1138070436, "nodes": [10608364554, 10608364555, 10608364556, 10608364557, 10608364554], "tags": {"amenity": "cafe", "building": "kiosk", "description": "Coffee van each day at this same location", "outdoor_seating": "yes", "takeaway": "only"}}, {"type": "way", "id": 1149904103, "nodes": [3506782731, 3506782709, 3506782696, 3506782690, 10697229512, 3506782720, 3506782723, 3506782243, 1607139668, 3506782731], "tags": {"amenity": "cafe", "check_date:opening_hours": "2023-02-21", "indoor_seating": "yes", "name": "Meyboom", "opening_hours:signed": "no", "outdoor_seating": "yes"}}]}