{"version": 0.6, "generator": "Overpass API 0.7.62.10 2d4cfc48", "osm3s": {"timestamp_osm_base": "2026-02-02T19:03:45Z", "copyright": "The data included in this document is from www.openstreetmap.org. The data is made available under ODbL."}, "elements": [{"type": "node", "id": 2545323185, "lat": 50.8277433, "lon": 4.3372885, "tags": {"amenity": "cafe", "contact:website": "https://www.crixcafe.be/", "live_music": "yes", "name": "Crix"}}, {"type": "node", "id": 6499579497, "lat": 50.8282373, "lon": 4.3326815, "tags": {"amenity": "cafe", "contact:website": "https://honestbrussels.com/", "indoor_seating": "yes", "name": "Honest", "outdoor_seating": "yes"}}, {"type": "node", "id": 6649175959, "lat": 50.8202277, "lon": 4.3254436, "tags": {"amenity": "cafe", "indoor_seating": "yes", "name": "Rocket's", "opening_hours": "Mo-Fr 08:00-20:00; Sa,Su 09:00-20:00", "outdoor_seating": "yes"}}, {"type": "node", "id": 6699391699, "lat": 50.8238595, "lon": 4.3236787, "tags": {"amenity": "cafe", "indoor_seating": "yes", "name": "Cafe Araguaia", "outdoor_seating": "yes"}}, {"type": "node", "id": 10748552604, "lat": 50.8255115, "lon": 4.3371343, "tags": {"amenity": "cafe", "contact:instagram": "https://www.instagram.com/marinabautier/", "contact:website": "https://bautier.com/blogs/news/cafe-bautier", "name": "Caf\u00e9 Bautier"}}, {"type": "node", "id": 11361423538, "lat": 50.8281569, "lon": 4.3318045, "tags": {"amenity": "cafe", "cuisine": "coffee_shop", "indoor_seating": "yes", "name": "Les d\u00e9jeuners de l'orient", "outdoor_seating": "yes"}}, {"type": "node", "id": 11361470647, "lat": 50.8261605, "lon": 4.3295148, "tags": {"amenity": "cafe", "cuisine": "coffee_shop", "name": "Capitano"}}, {"type": "node", "id": 11687482068, "lat": 50.8244153, "lon": 4.3258917, "tags": {"amenity": "cafe", "contact:website": "https://www.wiels.org/fr/wielscafe", "level": "1", "name": "WIELS' Caf\u00e9", "opening_hours": "Tu-Su 11:00-18:00"}}]}