{"version": 0.6, "generator": "Overpass API 0.7.62.10 2d4cfc48", "osm3s": {"timestamp_osm_base": "2026-02-02T15:47:30Z", "copyright": "The data included in this document is from www.openstreetmap.org. The data is made available under ODbL."}, "elements": [{"type": "node", "id": 16474172, "lat": 50.900508, "lon": 4.3480693, "tags": {"name": "Esplanade", "public_transport": "stop_position", "railway": "tram_stop", "tram": "yes"}}, {"type": "node", "id": 144233079, "lat": 50.8329629, "lon": 4.3577955, "tags": {"name": "St\u00e9phanie - Stefania", "name:fr": "St\u00e9phanie", "name:nl": "Stefania", "public_transport": "stop_position", "railway": "tram_stop", "tram": "yes"}}, {"type": "node", "id": 144233115, "lat": 50.8294134, "lon": 4.3614891, "tags": {"name": "Defacqz", "public_transport": "stop_position", "railway": "tram_stop", "tram": "yes", "wikidata": "Q47433037"}}, {"type": "node", "id": 145016857, "lat": 50.8400936, "lon": 4.3410468, "tags": {"layer": "-2", "level": "-2", "location": "underground", "name": "Lemonnier", "public_transport": "stop_position", "railway": "tram_stop", "tram": "yes"}}, {"type": "node", "id": 150547431, "lat": 50.8577575, "lon": 4.3487809, "tags": {"name": "Yser - IJzer", "name:fr": "Yser", "name:nl": "IJzer", "public_transport": "stop_position", "railway": "tram_stop", "tram": "yes"}}, {"type": "node", "id": 150547442, "lat": 50.8575176, "lon": 4.3486639, "tags": {"name": "Yser - IJzer", "name:fr": "Yser", "name:nl": "IJzer", "public_transport": "stop_position", "railway": "tram_stop", "tram": "yes"}}, {"type": "node", "id": 206138851, "lat": 50.8356399, "lon": 4.3552204, "tags": {"name": "Louise - Louiza", "name:fr": "Louise", "name:nl": "Louiza", "public_transport": "stop_position", "railway": "tram_stop", "tram": "yes"}}, {"type": "node", "id": 488628710, "lat": 50.8285909, "lon": 4.3622867, "tags": {"name": "Defacqz", "public_transport": "stop_position", "railway": "tram_stop", "tram": "yes", "wikidata": "Q47433037"}}, {"type": "node", "id": 1333789353, "lat": 50.8934793, "lon": 4.33212, "tags": {"name": "Stade - Stadion", "name:fr": "Stade", "name:nl": "Stadion", "public_transport": "stop_position", "railway": "tram_stop", "tram": "yes"}}, {"type": "node", "id": 1751217770, "lat": 50.8964589, "lon": 4.3381502, "tags": {"name": "Heysel - Heizel", "name:fr": "Heysel", "name:nl": "Heizel", "public_transport": "stop_position", "railway": "tram_stop", "tram": "yes"}}, {"type": "node", "id": 1751224479, "lat": 50.8906394, "lon": 4.3300516, "tags": {"name": "Sti\u00e9non", "public_transport": "stop_position", "railway": "tram_stop", "tram": "yes"}}, {"type": "node", "id": 1809416162, "lat": 50.8938178, "lon": 4.3318309, "tags": {"name": "Stade - Stadion", "name:fr": "Stade", "name:nl": "Stadion", "public_transport": "stop_position", "railway": "tram_stop", "tram": "yes"}}, {"type": "node", "id": 1809416177, "lat": 50.8890417, "lon": 4.334657, "tags": {"name": "Polyclinique Brugmann - Polikliniek Brugmann", "name:fr": "Polyclinique Brugmann", "name:nl": "Polikliniek Brugmann", "public_transport": "stop_position", "railway": "tram_stop", "tram": "yes"}}, {"type": "node", "id": 1811910216, "lat": 50.8860441, "lon": 4.3335669, "tags": {"name": "H\u00f4pital Brugmann - Brugmann-ziekenhuis", "name:fr": "H\u00f4pital Brugmann", "name:nl": "Brugmann-ziekenhuis", "public_transport": "stop_position", "railway": "tram_stop", "tram": "yes"}}, {"type": "node", "id": 1814305822, "lat": 50.8775579, "lon": 4.3477985, "tags": {"name": "Bockstael", "public_transport": "stop_position", "railway": "tram_stop", "tram": "yes"}}, {"type": "node", "id": 1814861910, "lat": 50.8737495, "lon": 4.3594456, "tags": {"name": "Marie-Christine - Maria-Christina", "name:fr": "Marie-Christine", "name:nl": "Maria-Christina", "public_transport": "stop_position", "railway": "tram_stop", "tram": "yes"}}, {"type": "node", "id": 1815001594, "lat": 50.8701049, "lon": 4.3619158, "tags": {"name": "Masui", "public_transport": "stop_position", "railway": "tram_stop", "tram": "yes"}}, {"type": "node", "id": 1815001596, "lat": 50.8698794, "lon": 4.3620348, "tags": {"name": "Masui", "public_transport": "stop_position", "railway": "tram_stop", "tram": "yes"}}, {"type": "node", "id": 2613006894, "lat": 50.8864982, "lon": 4.3426645, "tags": {"name": "Stuyvenbergh", "public_transport": "stop_position", "railway": "tram_stop", "tram": "yes"}}, {"type": "node", "id": 2613007007, "lat": 50.8908462, "lon": 4.3444737, "tags": {"name": "Saint-Lambert - Sint-Lambertus", "name:fr": "Saint-Lambert", "name:nl": "Sint-Lambertus", "public_transport": "stop_position", "railway": "tram_stop", "tram": "yes"}}, {"type": "node", "id": 2883218775, "lat": 50.8781147, "lon": 4.4099536, "tags": {"name": "Bordet Station", "public_transport": "stop_position", "railway": "tram_stop", "tram": "yes"}}, {"type": "node", "id": 2883218778, "lat": 50.8784264, "lon": 4.4098027, "tags": {"name": "Bordet Station", "public_transport": "stop_position", "railway": "tram_stop", "tram": "yes"}}, {"type": "node", "id": 2883240121, "lat": 50.8771444, "lon": 4.4161002, "tags": {"name": "Da Vinci", "public_transport": "stop_position", "railway": "tram_stop", "tram": "yes"}}, {"type": "node", "id": 3115601138, "lat": 50.8335797, "lon": 4.3571815, "tags": {"name": "St\u00e9phanie - Stefania", "name:fr": "St\u00e9phanie", "name:nl": "Stefania", "public_transport": "stop_position", "railway": "tram_stop", "tram": "yes"}}, {"type": "node", "id": 3115601189, "lat": 50.83591, "lon": 4.3549947, "tags": {"name": "Louise - Louiza", "name:fr": "Louise", "name:nl": "Louiza", "public_transport": "stop_position", "railway": "tram_stop", "tram": "yes"}}, {"type": "node", "id": 3124859480, "lat": 50.8268419, "lon": 4.3640894, "tags": {"name": "Bailli - Baljuw", "name:fr": "Bailli", "name:nl": "Baljuw", "public_transport": "stop_position", "railway": "tram_stop", "tram": "yes"}}, {"type": "node", "id": 3124859560, "lat": 50.8276286, "lon": 4.3633255, "tags": {"name": "Bailli - Baljuw", "name:fr": "Bailli", "name:nl": "Baljuw", "public_transport": "stop_position", "railway": "tram_stop", "tram": "yes"}}, {"type": "node", "id": 3126953052, "lat": 50.850447, "lon": 4.3642583, "tags": {"name": "Congr\u00e8s - Congres", "name:fr": "Congr\u00e8s", "name:nl": "Congres", "public_transport": "stop_position", "railway": "tram_stop", "tram": "yes"}}, {"type": "node", "id": 3126953055, "lat": 50.850693, "lon": 4.3644254, "tags": {"name": "Congr\u00e8s - Congres", "name:fr": "Congr\u00e8s", "name:nl": "Congres", "public_transport": "stop_position", "railway": "tram_stop", "tram": "yes"}}, {"type": "node", "id": 3127755210, "lat": 50.8369609, "lon": 4.3534715, "tags": {"name": "Poelaert", "public_transport": "stop_position", "railway": "tram_stop", "tram": "yes", "wikidata": "Q111821440"}}, {"type": "node", "id": 3127755529, "lat": 50.8372862, "lon": 4.3531235, "tags": {"name": "Poelaert", "public_transport": "stop_position", "railway": "tram_stop", "tram": "yes", "wikidata": "Q111821440"}}, {"type": "node", "id": 3127755610, "lat": 50.8401112, "lon": 4.3564099, "tags": {"name": "Petit Sablon - Kleine Zavel", "name:fr": "Petit Sablon", "name:nl": "Kleine Zavel", "public_transport": "stop_position", "railway": "tram_stop", "tram": "yes"}}, {"type": "node", "id": 3127755630, "lat": 50.8414938, "lon": 4.3583956, "tags": {"name": "Royale - Koning", "name:fr": "Royale", "name:nl": "Koning", "public_transport": "stop_position", "railway": "tram_stop", "tram": "yes"}}, {"type": "node", "id": 3127886357, "lat": 50.8892036, "lon": 4.3340843, "tags": {"name": "Polyclinique Brugmann - Polikliniek Brugmann", "name:fr": "Polyclinique Brugmann", "name:nl": "Polikliniek Brugmann", "public_transport": "stop_position", "railway": "tram_stop", "tram": "yes"}}, {"type": "node", "id": 3127886378, "lat": 50.8908866, "lon": 4.3303129, "tags": {"name": "Sti\u00e9non", "public_transport": "stop_position", "railway": "tram_stop", "tram": "yes"}}, {"type": "node", "id": 3132141468, "lat": 50.815466, "lon": 4.3709211, "tags": {"name": "Legrand", "public_transport": "stop_position", "railway": "tram_stop", "tram": "yes"}}, {"type": "node", "id": 3132141473, "lat": 50.815565, "lon": 4.3717381, "tags": {"name": "Legrand", "public_transport": "stop_position", "railway": "tram_stop", "tram": "yes", "wikidata": "Q30312617"}}, {"type": "node", "id": 3132141646, "lat": 50.8159288, "lon": 4.3719198, "tags": {"name": "Legrand", "public_transport": "stop_position", "railway": "tram_stop", "tram": "yes", "wikidata": "Q30312617"}}, {"type": "node", "id": 3132141664, "lat": 50.816263, "lon": 4.3718399, "tags": {"name": "Legrand", "public_transport": "stop_position", "railway": "tram_stop", "tram": "yes", "wikidata": "Q30312617"}}, {"type": "node", "id": 3132141682, "lat": 50.8163538, "lon": 4.3763066, "tags": {"name": "Cambre-\u00c9toile - Ter Kameren-Ster", "name:fr": "Cambre-\u00c9toile", "name:nl": "Ter Kameren-Ster", "public_transport": "stop_position", "railway": "tram_stop", "tram": "yes"}}, {"type": "node", "id": 3132142852, "lat": 50.8229779, "lon": 4.3680695, "tags": {"name": "Vleurgat", "public_transport": "stop_position", "railway": "tram_stop", "tram": "yes"}}, {"type": "node", "id": 3132143374, "lat": 50.8331806, "lon": 4.357624, "tags": {"name": "St\u00e9phanie - Stefania", "name:fr": "St\u00e9phanie", "name:nl": "Stefania", "public_transport": "stop_position", "railway": "tram_stop", "tram": "yes"}}, {"type": "node", "id": 3136263309, "lat": 50.7967015, "lon": 4.3989308, "tags": {"name": "Hippodrome de Boitsfort - Renbaan van Bosvoorde", "name:fr": "Hippodrome de Boitsfort", "name:nl": "Renbaan van Bosvoorde", "public_transport": "stop_position", "railway": "tram_stop", "tram": "yes"}}, {"type": "node", "id": 3136263316, "lat": 50.7967993, "lon": 4.3984487, "tags": {"name": "Hippodrome de Boitsfort - Renbaan van Bosvoorde", "name:fr": "Hippodrome de Boitsfort", "name:nl": "Renbaan van Bosvoorde", "public_transport": "stop_position", "railway": "tram_stop", "tram": "yes"}}, {"type": "node", "id": 3136264556, "lat": 50.874008, "lon": 4.3593009, "tags": {"name": "Marie-Christine - Maria-Christina", "name:fr": "Marie-Christine", "name:nl": "Maria-Christina", "public_transport": "stop_position", "railway": "tram_stop", "tram": "yes"}}, {"type": "node", "id": 3136264557, "lat": 50.877014, "lon": 4.3545714, "tags": {"name": "Princesse Cl\u00e9mentine - Prinses Clementina", "name:fr": "Princesse Cl\u00e9mentine", "name:nl": "Prinses Clementina", "public_transport": "stop_position", "railway": "tram_stop", "tram": "yes"}}, {"type": "node", "id": 3136264558, "lat": 50.8771354, "lon": 4.3538261, "tags": {"name": "Princesse Cl\u00e9mentine - Prinses Clementina", "name:fr": "Princesse Cl\u00e9mentine", "name:nl": "Prinses Clementina", "public_transport": "stop_position", "railway": "tram_stop", "tram": "yes"}}, {"type": "node", "id": 3136264560, "lat": 50.8775117, "lon": 4.3503093, "tags": {"name": "Moorslede", "public_transport": "stop_position", "railway": "tram_stop", "tram": "yes"}}, {"type": "node", "id": 3136264563, "lat": 50.8775843, "lon": 4.351097, "tags": {"name": "Moorslede", "public_transport": "stop_position", "railway": "tram_stop", "tram": "yes"}}, {"type": "node", "id": 3136264565, "lat": 50.8775432, "lon": 4.347169, "tags": {"name": "Bockstael", "public_transport": "stop_position", "railway": "tram_stop", "tram": "yes"}}, {"type": "node", "id": 3136264581, "lat": 50.8788972, "lon": 4.3424526, "tags": {"name": "Jacobs Fontaine", "public_transport": "stop_position", "railway": "tram_stop", "tram": "yes"}}, {"type": "node", "id": 3136264582, "lat": 50.8789129, "lon": 4.3429327, "tags": {"name": "Jacobs Fontaine", "public_transport": "stop_position", "railway": "tram_stop", "tram": "yes"}}, {"type": "node", "id": 3136264599, "lat": 50.8934138, "lon": 4.3321868, "tags": {"name": "Stade - Stadion", "name:fr": "Stade", "name:nl": "Stadion", "public_transport": "stop_position", "railway": "tram_stop", "tram": "yes"}}, {"type": "node", "id": 3136264600, "lat": 50.8938082, "lon": 4.3319426, "tags": {"name": "Stade - Stadion", "name:fr": "Stade", "name:nl": "Stadion", "public_transport": "stop_position", "railway": "tram_stop", "tram": "yes"}}, {"type": "node", "id": 3137854334, "lat": 50.8791788, "lon": 4.3748299, "tags": {"name": "Docks Bruxsel", "public_transport": "stop_position", "railway": "tram_stop", "tram": "yes"}}, {"type": "node", "id": 3137854573, "lat": 50.8870083, "lon": 4.3766818, "tags": {"name": "Heembeek", "public_transport": "stop_position", "railway": "tram_stop", "tram": "yes"}}, {"type": "node", "id": 3137854598, "lat": 50.8873428, "lon": 4.3764382, "tags": {"name": "Heembeek", "public_transport": "stop_position", "railway": "tram_stop", "tram": "yes"}}, {"type": "node", "id": 3137854649, "lat": 50.8915281, "lon": 4.3683345, "tags": {"name": "Buissonnets - Braambosjes", "name:fr": "Buissonnets", "name:nl": "Braambosjes", "public_transport": "stop_position", "railway": "tram_stop", "tram": "yes"}}, {"type": "node", "id": 3137854717, "lat": 50.8936747, "lon": 4.36257, "tags": {"name": "Araucaria", "public_transport": "stop_position", "railway": "tram_stop", "tram": "yes"}}, {"type": "node", "id": 3139106095, "lat": 50.8444451, "lon": 4.3456914, "tags": {"layer": "-2", "level": "-2", "location": "underground", "name": "Anneessens", "public_transport": "stop_position", "railway": "tram_stop", "tram": "yes"}}, {"type": "node", "id": 3139106096, "lat": 50.8441574, "lon": 4.3452186, "tags": {"layer": "-2", "level": "-2", "location": "underground", "name": "Anneessens", "public_transport": "stop_position", "railway": "tram_stop", "tram": "yes"}}, {"type": "node", "id": 3139106098, "lat": 50.8480338, "lon": 4.3494166, "tags": {"location": "underground", "name": "Bourse - Beurs", "name:fr": "Bourse", "name:nl": "Beurs", "public_transport": "stop_position", "railway": "tram_stop", "tram": "yes"}}, {"type": "node", "id": 3139106099, "lat": 50.8477438, "lon": 4.3489498, "tags": {"location": "underground", "name": "Bourse - Beurs", "name:fr": "Bourse", "name:nl": "Beurs", "public_transport": "stop_position", "railway": "tram_stop", "tram": "yes"}}, {"type": "node", "id": 3139106101, "lat": 50.8516935, "lon": 4.35337, "tags": {"location": "underground", "name": "De Brouck\u00e8re", "public_transport": "stop_position", "railway": "tram_stop", "tram": "yes"}}, {"type": "node", "id": 3139106102, "lat": 50.8514153, "lon": 4.3529001, "tags": {"location": "underground", "name": "De Brouck\u00e8re", "public_transport": "stop_position", "railway": "tram_stop", "tram": "yes"}}, {"type": "node", "id": 3139106524, "lat": 50.9001586, "lon": 4.3481221, "tags": {"name": "Esplanade", "public_transport": "stop_position", "railway": "tram_stop", "tram": "yes"}}, {"type": "node", "id": 3148929322, "lat": 50.8442905, "lon": 4.339208, "tags": {"name": "Porte d'Anderlecht - Anderlechtsepoort", "name:fr": "Porte d'Anderlecht", "name:nl": "Anderlechtsepoort", "public_transport": "stop_position", "railway": "tram_stop", "tram": "yes"}}, {"type": "node", "id": 3148929324, "lat": 50.8453688, "lon": 4.33886, "tags": {"name": "Porte d'Anderlecht - Anderlechtsepoort", "name:fr": "Porte d'Anderlecht", "name:nl": "Anderlechtsepoort", "public_transport": "stop_position", "railway": "tram_stop", "tram": "yes"}}, {"type": "node", "id": 3148929340, "lat": 50.8479948, "lon": 4.3377628, "tags": {"name": "Arts et M\u00e9tiers", "public_transport": "stop_position", "railway": "tram_stop", "tram": "yes"}}, {"type": "node", "id": 3148930381, "lat": 50.8536768, "lon": 4.3418282, "tags": {"name": "Porte de Flandre - Vlaamsepoort", "name:fr": "Porte de Flandre", "name:nl": "Vlaamsepoort", "public_transport": "stop_position", "railway": "tram_stop", "tram": "yes"}}, {"type": "node", "id": 3148930391, "lat": 50.853993, "lon": 4.3421867, "tags": {"name": "Porte de Flandre - Vlaamsepoort", "name:fr": "Porte de Flandre", "name:nl": "Vlaamsepoort", "public_transport": "stop_position", "railway": "tram_stop", "tram": "yes"}}, {"type": "node", "id": 3148930543, "lat": 50.8554941, "lon": 4.3466284, "tags": {"name": "Marguerite Duras", "public_transport": "stop_position", "railway": "tram_stop", "tram": "yes"}}, {"type": "node", "id": 3148930583, "lat": 50.8556305, "lon": 4.3460818, "tags": {"name": "Marguerite Duras", "public_transport": "stop_position", "railway": "tram_stop", "tram": "yes"}}, {"type": "node", "id": 3202279589, "lat": 50.8952625, "lon": 4.3551053, "tags": {"name": "De Wand", "public_transport": "stop_position", "railway": "tram_stop", "tram": "yes"}}, {"type": "node", "id": 4278204278, "lat": 50.8415659, "lon": 4.3584427, "tags": {"name": "Royale - Koning", "name:fr": "Royale", "name:nl": "Koning", "public_transport": "stop_position", "railway": "tram_stop", "tram": "yes"}}, {"type": "node", "id": 4396616832, "lat": 50.8749188, "lon": 4.3630851, "tags": {"name": "Mabru", "public_transport": "stop_position", "railway": "tram_stop", "tram": "yes"}}, {"type": "node", "id": 4396616833, "lat": 50.8763237, "lon": 4.3645334, "tags": {"name": "Mabru", "public_transport": "stop_position", "railway": "tram_stop", "tram": "yes"}}, {"type": "node", "id": 4440783784, "lat": 50.8795042, "lon": 4.4339266, "tags": {"name": "Eurocontrol", "public_transport": "stop_position", "railway": "tram_stop", "tram": "yes"}}, {"type": "node", "id": 4440783785, "lat": 50.8796523, "lon": 4.4345061, "tags": {"name": "Eurocontrol", "public_transport": "stop_position", "railway": "tram_stop", "tram": "yes"}}, {"type": "node", "id": 4440825030, "lat": 50.8782572, "lon": 4.430314, "tags": {"name": "Bourget", "public_transport": "stop_position", "railway": "tram_stop", "tram": "yes"}}, {"type": "node", "id": 4440825031, "lat": 50.8784085, "lon": 4.4311392, "tags": {"name": "Bourget", "public_transport": "stop_position", "railway": "tram_stop", "tram": "yes"}}, {"type": "node", "id": 4443023361, "lat": 50.8437061, "lon": 4.3607546, "tags": {"name": "Palais - Paleizen", "name:fr": "Palais", "name:nl": "Paleizen", "public_transport": "stop_position", "railway": "tram_stop", "tram": "yes"}}, {"type": "node", "id": 4443023362, "lat": 50.8466911, "lon": 4.3623477, "tags": {"name": "Parc - Park", "name:fr": "Parc", "name:nl": "Park", "public_transport": "stop_position", "railway": "tram_stop", "tram": "yes", "wheelchair": "no"}}, {"type": "node", "id": 4443023363, "lat": 50.8471177, "lon": 4.3625292, "tags": {"name": "Parc - Park", "name:fr": "Parc", "name:nl": "Park", "public_transport": "stop_position", "railway": "tram_stop", "tram": "yes", "wheelchair": "limited"}}, {"type": "node", "id": 4443049658, "lat": 50.896432, "lon": 4.3381302, "tags": {"name": "Heysel - Heizel", "name:fr": "Heysel", "name:nl": "Heizel", "public_transport": "stop_position", "railway": "tram_stop", "tram": "yes"}}, {"type": "node", "id": 4443049659, "lat": 50.8967727, "lon": 4.337376, "tags": {"name": "Heysel - Heizel", "name:fr": "Heysel", "name:nl": "Heizel", "public_transport": "stop_position", "railway": "tram_stop", "tram": "yes"}}, {"type": "node", "id": 4445497253, "lat": 50.8773755, "lon": 4.4195546, "tags": {"name": "Fus\u00e9e - Raket", "name:fr": "Fus\u00e9e", "name:nl": "Raket", "public_transport": "stop_position", "railway": "tram_stop", "tram": "yes"}}, {"type": "node", "id": 4445497254, "lat": 50.8774441, "lon": 4.4212944, "tags": {"name": "Fus\u00e9e - Raket", "name:fr": "Fus\u00e9e", "name:nl": "Raket", "public_transport": "stop_position", "railway": "tram_stop", "tram": "yes"}}, {"type": "node", "id": 4456274007, "lat": 50.8793859, "lon": 4.3706911, "tags": {"name": "Docks Bruxsel", "public_transport": "stop_position", "railway": "tram_stop", "tram": "yes"}}, {"type": "node", "id": 4456274010, "lat": 50.8795925, "lon": 4.3712658, "tags": {"name": "Docks Bruxsel", "public_transport": "stop_position", "railway": "tram_stop", "tram": "yes"}}, {"type": "node", "id": 4466490968, "lat": 50.8796021, "lon": 4.3747921, "tags": {"name": "Docks Bruxsel", "public_transport": "stop_position", "railway": "tram_stop", "tram": "yes"}}, {"type": "node", "id": 4698860769, "lat": 50.895296, "lon": 4.355496, "tags": {"name": "De Wand", "public_transport": "stop_position", "railway": "tram_stop", "tram": "yes"}}, {"type": "node", "id": 4699196253, "lat": 50.8953421, "lon": 4.3570869, "tags": {"name": "De Wand", "public_transport": "stop_position", "railway": "tram_stop", "tram": "yes"}}, {"type": "node", "id": 4699196283, "lat": 50.8950593, "lon": 4.3575178, "tags": {"name": "De Wand", "public_transport": "stop_position", "railway": "tram_stop", "tram": "yes"}}, {"type": "node", "id": 4774876898, "lat": 50.8929013, "lon": 4.3639516, "tags": {"name": "Araucaria", "public_transport": "stop_position", "railway": "tram_stop", "tram": "yes"}}, {"type": "node", "id": 4774923754, "lat": 50.8913062, "lon": 4.3688454, "tags": {"name": "Buissonnets - Braambosjes", "name:fr": "Buissonnets", "name:nl": "Braambosjes", "public_transport": "stop_position", "railway": "tram_stop", "tram": "yes"}}, {"type": "node", "id": 4776894595, "lat": 50.8963818, "lon": 4.3380857, "tags": {"name": "Heysel - Heizel", "name:fr": "Heysel", "name:nl": "Heizel", "public_transport": "stop_position", "railway": "tram_stop", "tram": "yes"}}, {"type": "node", "id": 4806127047, "lat": 50.8008065, "lon": 4.3940443, "tags": {"name": "Boondael Gare - Boondaal Station", "name:fr": "Boondael Gare", "name:nl": "Boondaal Station", "public_transport": "stop_position", "railway": "tram_stop", "tram": "yes"}}, {"type": "node", "id": 4899271821, "lat": 50.8899176, "lon": 4.3450362, "tags": {"name": "Saint-Lambert - Sint-Lambertus", "name:fr": "Saint-Lambert", "name:nl": "Sint-Lambertus", "public_transport": "stop_position", "railway": "tram_stop", "tram": "yes"}}, {"type": "node", "id": 4899271831, "lat": 50.8908693, "lon": 4.3460613, "tags": {"name": "Saint-Lambert - Sint-Lambertus", "name:fr": "Saint-Lambert", "name:nl": "Sint-Lambertus", "public_transport": "stop_position", "railway": "tram_stop", "tram": "yes"}}, {"type": "node", "id": 4902700340, "lat": 50.843993, "lon": 4.3609422, "tags": {"name": "Palais - Paleizen", "name:fr": "Palais", "name:nl": "Paleizen", "public_transport": "stop_position", "railway": "tram_stop", "tram": "yes"}}, {"type": "node", "id": 4902731317, "lat": 50.8395947, "lon": 4.355735, "tags": {"name": "Petit Sablon - Kleine Zavel", "name:fr": "Petit Sablon", "name:nl": "Kleine Zavel", "public_transport": "stop_position", "railway": "tram_stop", "tram": "yes"}}, {"type": "node", "id": 4909622572, "lat": 50.8240903, "lon": 4.3669752, "tags": {"name": "Vleurgat", "public_transport": "stop_position", "railway": "tram_stop", "tram": "yes"}}, {"type": "node", "id": 4909651557, "lat": 50.8189075, "lon": 4.3707643, "tags": {"name": "Abbaye - Abdij", "name:fr": "Abbaye", "name:nl": "Abdij", "public_transport": "stop_position", "railway": "tram_stop", "tram": "yes"}}, {"type": "node", "id": 4909651562, "lat": 50.8198835, "lon": 4.3704708, "tags": {"name": "Abbaye - Abdij", "name:fr": "Abbaye", "name:nl": "Abdij", "public_transport": "stop_position", "railway": "tram_stop", "tram": "yes"}}, {"type": "node", "id": 4926333172, "lat": 50.8166896, "lon": 4.3716787, "tags": {"name": "Legrand", "public_transport": "stop_position", "railway": "tram_stop", "tram": "yes", "wikidata": "Q30312617"}}, {"type": "node", "id": 5174967130, "lat": 50.8862759, "lon": 4.3421107, "tags": {"name": "Stuyvenbergh", "public_transport": "stop_position", "railway": "tram_stop", "tram": "yes"}}, {"type": "node", "id": 5174984147, "lat": 50.884726, "lon": 4.338981, "tags": {"name": "Ernest Salu", "public_transport": "stop_position", "railway": "tram_stop", "tram": "yes"}}, {"type": "node", "id": 5190475801, "lat": 50.8476096, "lon": 4.3379318, "tags": {"name": "Arts et M\u00e9tiers", "public_transport": "stop_position", "railway": "tram_stop", "tram": "yes"}}, {"type": "node", "id": 5243082638, "lat": 50.827159, "lon": 4.3634534, "tags": {"name": "Bailli - Baljuw", "name:fr": "Bailli", "name:nl": "Baljuw", "public_transport": "stop_position", "railway": "tram_stop", "tram": "yes"}}, {"type": "node", "id": 5243082640, "lat": 50.8268087, "lon": 4.3625317, "tags": {"name": "Bailli - Baljuw", "name:fr": "Bailli", "name:nl": "Baljuw", "public_transport": "stop_position", "railway": "tram_stop", "tram": "yes"}}, {"type": "node", "id": 5337476983, "lat": 50.8404114, "lon": 4.3414214, "tags": {"layer": "-2", "level": "-2", "location": "underground", "name": "Lemonnier", "public_transport": "stop_position", "railway": "tram_stop", "tram": "yes"}}, {"type": "node", "id": 5380565326, "lat": 50.8399209, "lon": 4.3407322, "tags": {"layer": "-2", "level": "-2", "location": "underground", "name": "Lemonnier", "public_transport": "stop_position", "railway": "tram_stop", "tram": "yes"}}, {"type": "node", "id": 5380684196, "lat": 50.8403074, "lon": 4.3406347, "tags": {"level": "-1", "name": "Lemonnier", "public_transport": "stop_position", "railway": "tram_stop", "tram": "yes"}}, {"type": "node", "id": 5940182513, "lat": 50.8503447, "lon": 4.3385411, "tags": {"name": "Porte de Ninove - Ninoofsepoort", "name:fr": "Porte de Ninove", "name:nl": "Ninoofsepoort", "public_transport": "stop_position", "railway": "tram_stop", "tram": "yes"}}, {"type": "node", "id": 5940182523, "lat": 50.8506498, "lon": 4.3389869, "tags": {"name": "Porte de Ninove - Ninoofsepoort", "name:fr": "Porte de Ninove", "name:nl": "Ninoofsepoort", "public_transport": "stop_position", "railway": "tram_stop", "tram": "yes"}}, {"type": "node", "id": 9319122766, "lat": 50.8959526, "lon": 4.3298778, "tags": {"name": "Roi Baudouin - Koning Boudewijn", "name:fr": "Roi Baudouin", "name:nl": "Koning Boudewijn", "public_transport": "stop_position", "railway": "tram_stop", "tram": "yes"}}, {"type": "node", "id": 9319122767, "lat": 50.8962027, "lon": 4.329621, "tags": {"name": "Roi Baudouin - Koning Boudewijn", "name:fr": "Roi Baudouin", "name:nl": "Koning Boudewijn", "public_transport": "stop_position", "railway": "tram_stop", "tram": "yes"}}, {"type": "node", "id": 9319122768, "lat": 50.8938708, "lon": 4.3311624, "tags": {"name": "Stade - Stadion", "name:fr": "Stade", "name:nl": "Stadion", "public_transport": "stop_position", "railway": "tram_stop", "tram": "yes"}}, {"type": "node", "id": 9319122769, "lat": 50.8941477, "lon": 4.3315126, "tags": {"name": "Stade - Stadion", "name:fr": "Stade", "name:nl": "Stadion", "public_transport": "stop_position", "railway": "tram_stop", "tram": "yes"}}, {"type": "node", "id": 9319122770, "lat": 50.8940019, "lon": 4.3255965, "tags": {"name": "Palfijn", "public_transport": "stop_position", "railway": "tram_stop", "tram": "yes"}}, {"type": "node", "id": 9319122771, "lat": 50.894087, "lon": 4.3249789, "tags": {"name": "Palfijn", "public_transport": "stop_position", "railway": "tram_stop", "tram": "yes"}}, {"type": "node", "id": 10599181940, "lat": 50.9084871, "lon": 4.3949099, "tags": {"name": "Mercator", "public_transport": "stop_position", "railway": "tram_stop", "tram": "yes"}}, {"type": "node", "id": 10599181952, "lat": 50.9084513, "lon": 4.3954495, "tags": {"name": "Mercator", "public_transport": "stop_position", "railway": "tram_stop", "tram": "yes"}}, {"type": "node", "id": 10606640119, "lat": 50.8901421, "lon": 4.3774516, "tags": {"name": "Ancre - Anker", "name:fr": "Ancre", "name:nl": "Anker", "public_transport": "stop_position", "railway": "tram_stop", "tram": "yes"}}, {"type": "node", "id": 10606770063, "lat": 50.8964516, "lon": 4.3935318, "tags": {"name": "Chemin Vert - Groenweg", "name:fr": "Chemin Vert", "name:nl": "Groenweg", "public_transport": "stop_position", "railway": "tram_stop", "tram": "yes"}}, {"type": "node", "id": 12020561992, "lat": 50.8869765, "lon": 4.3765843, "tags": {"name": "Heembeek", "public_transport": "stop_position", "railway": "tram_stop", "tram": "yes"}}, {"type": "node", "id": 12099111664, "lat": 50.9082764, "lon": 4.3897857, "tags": {"name": "H\u00f4pital Militaire - Militair Hospitaal", "name:fr": "H\u00f4pital Militaire", "name:nl": "Militair Hospitaal", "public_transport": "stop_position", "railway": "tram_stop", "tram": "yes"}}, {"type": "node", "id": 12099111665, "lat": 50.9079665, "lon": 4.3894034, "tags": {"name": "H\u00f4pital Militaire - Militair Hospitaal", "name:fr": "H\u00f4pital Militaire", "name:nl": "Militair Hospitaal", "public_transport": "stop_position", "railway": "tram_stop", "tram": "yes"}}, {"type": "node", "id": 12122666995, "lat": 50.8903428, "lon": 4.377723, "tags": {"name": "Ancre - Anker", "name:fr": "Ancre", "name:nl": "Anker", "public_transport": "stop_position", "railway": "tram_stop", "tram": "yes"}}, {"type": "node", "id": 12161927117, "lat": 50.8966505, "lon": 4.3940471, "tags": {"name": "Chemin Vert - Groenweg", "name:fr": "Chemin Vert", "name:nl": "Groenweg", "public_transport": "stop_position", "railway": "tram_stop", "tram": "yes"}}, {"type": "node", "id": 12164891677, "lat": 50.8988598, "lon": 4.3975595, "tags": {"name": "Nelson Mandela", "public_transport": "stop_position", "railway": "tram_stop", "tram": "yes"}}, {"type": "node", "id": 12164891678, "lat": 50.899074, "lon": 4.3980796, "tags": {"name": "Nelson Mandela", "public_transport": "stop_position", "railway": "tram_stop", "tram": "yes"}}, {"type": "node", "id": 12164891679, "lat": 50.9030417, "lon": 4.398204, "tags": {"name": "Marguerite Yourcenar", "public_transport": "stop_position", "railway": "tram_stop", "tram": "yes"}}, {"type": "node", "id": 12164891680, "lat": 50.9026987, "lon": 4.3978888, "tags": {"name": "Marguerite Yourcenar", "public_transport": "stop_position", "railway": "tram_stop", "tram": "yes"}}, {"type": "node", "id": 12164891681, "lat": 50.9051584, "lon": 4.4017123, "tags": {"name": "Simone Veil", "public_transport": "stop_position", "railway": "tram_stop", "tram": "yes"}}, {"type": "node", "id": 12164891682, "lat": 50.9049896, "lon": 4.4011647, "tags": {"name": "Simone Veil", "public_transport": "stop_position", "railway": "tram_stop", "tram": "yes"}}, {"type": "node", "id": 12192560283, "lat": 50.8943324, "lon": 4.3828637, "tags": {"name": "Zavelput", "public_transport": "stop_position", "railway": "tram_stop", "tram": "yes"}}, {"type": "node", "id": 12192560284, "lat": 50.8939425, "lon": 4.3828539, "tags": {"name": "Zavelput", "public_transport": "stop_position", "railway": "tram_stop", "tram": "yes"}}, {"type": "node", "id": 12192560285, "lat": 50.8955234, "lon": 4.3891387, "tags": {"name": "Peter Benoit", "public_transport": "stop_position", "railway": "tram_stop", "tram": "yes"}}, {"type": "node", "id": 12192560286, "lat": 50.8951002, "lon": 4.3872505, "tags": {"name": "Peter Benoit", "public_transport": "stop_position", "railway": "tram_stop", "tram": "yes"}}]}