{"version": 0.6, "generator": "Overpass API 0.7.62.10 2d4cfc48", "osm3s": {"timestamp_osm_base": "2026-02-02T15:52:33Z", "copyright": "The data included in this document is from www.openstreetmap.org. The data is made available under ODbL."}, "elements": [{"type": "node", "id": 2630761909, "lat": 50.7980808, "lon": 4.3230509, "tags": {"amenity": "childcare", "name": "Kraakje", "website": "http://www.kdvkraakje.be/"}}, {"type": "node", "id": 11505541674, "lat": 50.7785698, "lon": 4.3413284, "tags": {"amenity": "kindergarten"}}, {"type": "node", "id": 11986366910, "lat": 50.7832318, "lon": 4.3271486, "tags": {"amenity": "kindergarten"}}, {"type": "node", "id": 12554123927, "lat": 50.7739964, "lon": 4.3808799}, {"type": "node", "id": 12554123928, "lat": 50.7737776, "lon": 4.3809498}, {"type": "node", "id": 12554123929, "lat": 50.7739455, "lon": 4.3822647}, {"type": "node", "id": 12554123930, "lat": 50.7741643, "lon": 4.3821948}, {"type": "node", "id": 13186052438, "lat": 50.8044039, "lon": 4.3331768, "tags": {"amenity": "childcare", "contact:email": "crechestvincentdepaul@hotmail.com", "contact:phone": "+32 2 347 56 09", "contact:website": "https://www.institut-saint-vincent-de-paul.be/", "name": "Cr\u00e8che Saint-Vincent de Paul"}}, {"type": "way", "id": 1356434749, "nodes": [12554123927, 12554123928, 12554123929, 12554123930, 12554123927], "tags": {"amenity": "kindergarten", "email": "eglantiers.secretariat@uccle.edu.brussels", "name": "Ecole communale des Ecureuils", "phone": "+32 2 6052150", "website": "https://www.eglantiers1180.be/"}}]}