{"version": 0.6, "generator": "Overpass API 0.7.62.10 2d4cfc48", "osm3s": {"timestamp_osm_base": "2026-02-03T12:00:14Z", "copyright": "The data included in this document is from www.openstreetmap.org. The data is made available under ODbL."}, "elements": [{"type": "node", "id": 867006854, "lat": 50.8717133, "lon": 4.3256707, "tags": {"amenity": "restaurant", "cuisine": "thai", "name": "Krob Kun", "opening_hours": "Tu-Su 19:00-22:30, Tu-Fr,Su 12:00-14:00", "wheelchair": "no"}}, {"type": "node", "id": 1221352577, "lat": 50.8691124, "lon": 4.3283387, "tags": {"amenity": "restaurant", "contact:facebook": "https://www.facebook.com/people/Acropolis-Grill-Bar-Jette/100089565793297/", "cuisine": "greek", "name": "Acropolis"}}, {"type": "node", "id": 4515079790, "lat": 50.8723253, "lon": 4.3241377, "tags": {"amenity": "restaurant", "contact:email": "info@wineinthecity.be", "contact:phone": "+32 2 420 09 20", "contact:website": "https://www.wineinthecity.be/", "name": "Wine in the City", "stars": "1", "wikidata": "Q86680204"}}, {"type": "node", "id": 4515087691, "lat": 50.8674968, "lon": 4.3266007, "tags": {"amenity": "restaurant", "name": "Chez Soje", "name:fr": "Chez Soje", "toilets:wheelchair": "no", "wheelchair": "limited"}}, {"type": "node", "id": 6702768752, "lat": 50.8679084, "lon": 4.3291906, "tags": {"amenity": "restaurant", "name": "Prestige", "outdoor_seating": "yes"}}, {"type": "node", "id": 9646081199, "lat": 50.8723852, "lon": 4.3243649, "tags": {"amenity": "restaurant", "contact:mobile": "+32 468 47 77 81", "name": "O'Tweat", "opening_hours": "Mo-Th 08:30-21:30; Fr 15:00-22:30; Sa 09:00-22:30; Su 09:00-21:00", "website:menu": "https://drive.google.com/file/d/1TDKPj8C0VoJHt9MDsuxwglQohxU0pahe/view"}}, {"type": "node", "id": 9889410313, "lat": 50.8721624, "lon": 4.3239783, "tags": {"amenity": "restaurant", "contact:email": "contact@happytherapy.vip", "contact:facebook": "https://www.facebook.com/happily.brussels/", "contact:mobile": "+32 497 79 58 08", "contact:website": "https://happily.brussels/", "diet:vegetarian": "only", "name": "Happily", "opening_hours": "Tu-Su 08:30-14:30"}}, {"type": "node", "id": 11711143162, "lat": 50.8720619, "lon": 4.3240459, "tags": {"amenity": "restaurant", "contact:email": "info@ozashi.be", "contact:facebook": "https://www.facebook.com/people/Ozashibe/61551844501273/", "contact:mobile": "+32 470 80 05 71", "contact:website": "https://ozashi.be/", "name": "Ozashi Sushi Bar", "opening_hours": "Tu-Su 11:30-22:30; Fr,Sa 11:30-23:00"}}, {"type": "node", "id": 12828289216, "lat": 50.8674571, "lon": 4.3208949, "tags": {"amenity": "restaurant", "name": "La brochette du Chalet", "opening_hours": "Tu-Su 11:00-15:00, 17:30-23:00", "phone": "+32 2 223 66 95"}}, {"type": "node", "id": 13346204270, "lat": 50.8664349, "lon": 4.3278736, "tags": {"amenity": "restaurant", "cuisine": "pizza", "name": "Pizzeria Elia"}}, {"type": "node", "id": 13517203435, "lat": 50.871846, "lon": 4.3245088, "tags": {"amenity": "restaurant", "cuisine": "indian", "name": "Jalebi"}}]}