{"version": 0.6, "generator": "Overpass API 0.7.62.10 2d4cfc48", "osm3s": {"timestamp_osm_base": "2026-02-03T09:21:36Z", "copyright": "The data included in this document is from www.openstreetmap.org. The data is made available under ODbL."}, "elements": [{"type": "node", "id": 2357318252, "lat": 50.8526543, "lon": 4.3951171, "tags": {"amenity": "cafe", "cuisine": "french;omelette;soup", "internet_access": "wlan", "internet_access:fee": "no", "internet_access:ssid": "telnet-77D215C", "name": "Le Cadre Noir", "outdoor_seating": "yes"}}, {"type": "node", "id": 2365489706, "lat": 50.850778, "lon": 4.39715, "tags": {"amenity": "cafe", "contact:website": "https://leopoldcafepresse.com/", "cuisine": "sandwich", "internet_access": "yes", "internet_access:ssid": "Leopold Cafe Presse", "name": "Leopold Caf\u00e9 Presse", "opening_hours": "Mo-Fr 08:30-18:00; Sa-Su 9:30-18:00", "toilets:wheelchair": "no", "wheelchair:turning_circle": "yes"}}, {"type": "node", "id": 10875386837, "lat": 50.8473343, "lon": 4.3960524, "tags": {"amenity": "cafe", "contact:instagram": "https://www.instagram.com/kapacafe.be/", "contact:mobile": "+32 493 14 71 99", "diet:vegan": "yes", "diet:vegetarian": "yes", "name": "Kapa Caf\u00e9 Brussels", "opening_hours": "Mo-Su 07:00-19:00", "outdoor_seating": "no", "smoking": "no"}}]}