{"version": 0.6, "generator": "Overpass API 0.7.62.10 2d4cfc48", "osm3s": {"timestamp_osm_base": "2026-02-02T17:26:26Z", "copyright": "The data included in this document is from www.openstreetmap.org. The data is made available under ODbL."}, "elements": [{"type": "node", "id": 613352975, "lat": 50.8177713, "lon": 4.3927708, "tags": {"amenity": "restaurant", "changing_table": "no", "cuisine": "french", "entrance:kerb:height": "0.14", "entrance:ramp": "no", "entrance:step_count": "1", "entrance:width": "0.86", "indoor_seating": "yes", "name": "Wolf Street Cafe", "outdoor_seating": "no", "toilets:wheelchair": "no", "wheelchair:turning_circle": "no"}}, {"type": "node", "id": 712913905, "lat": 50.8223662, "lon": 4.3886139, "tags": {"amenity": "restaurant", "check_date": "2025-02-01", "name": "Le Quartier Latin"}}, {"type": "node", "id": 2360129722, "lat": 50.8183613, "lon": 4.3846897, "tags": {"amenity": "restaurant", "contact:mobile": "+32 487 32 75 02", "contact:phone": "+32 2 646 12 83", "cuisine": "vietnamese", "name": "Chao", "opening_hours": "We-Su,PH 12:00-14:30,18:00-23:00; Mo,Tu off"}}, {"type": "node", "id": 2463358678, "lat": 50.818401, "lon": 4.3842393, "tags": {"amenity": "restaurant", "cuisine": "japanese;vietnamese", "diet:vegetarian": "yes", "name": "Yakitori", "opening_hours": "We-Mo 17:30-23:00, Mo,Th-Sa 11:00-14:00", "wheelchair": "limited"}}, {"type": "node", "id": 2463358679, "lat": 50.8183553, "lon": 4.3842656, "tags": {"amenity": "restaurant", "contact:mobile": "+32 467 66 45 53", "contact:phone": "+32 2 648 51 17", "contact:website": "https://www.sumo-sushi.be", "cuisine": "sushi", "delivery": "yes", "name": "Sumo Sushi", "opening_hours": "Mo-Su 11:00-14:00; Tu off, Mo,Th-Sa 17:30-23:00", "outdoor_seating": "yes", "smoking": "no", "takeaway": "yes"}}, {"type": "node", "id": 2463358776, "lat": 50.8173437, "lon": 4.3883273, "tags": {"amenity": "restaurant", "contact:website": "https://yumyum.world/restaurant/sumsum/", "cuisine": "chinese", "delivery": "yes", "diet:gluten_free": "yes", "diet:vegan": "yes", "diet:vegetarian": "yes", "level": "0", "name": "SumSum", "opening_hours": "Tu 18:00-22:00; We-Su 12:00-14:30,18:00-22:00", "payment:cash": "no", "reservation": "yes", "takeaway": "yes"}}, {"type": "node", "id": 2468798099, "lat": 50.8187212, "lon": 4.3872804, "tags": {"amenity": "restaurant", "contact:phone": "+32 2 850 12 33", "cuisine": "asian", "name": "Issan"}}, {"type": "node", "id": 2468879166, "lat": 50.815884, "lon": 4.3895707, "tags": {"amenity": "restaurant", "check_date": "2026-01-31", "contact:website": "https://www.thai.cafe", "cuisine": "thai", "drive_through": "yes", "name": "Thai Cafe", "outdoor_seating": "yes", "payment:apple_pay": "yes", "payment:cash": "yes", "payment:contactless": "yes", "payment:credit_cards": "yes", "payment:debit_cards": "yes", "payment:google_pay": "yes", "wheelchair": "limited"}}, {"type": "node", "id": 2471016204, "lat": 50.8171241, "lon": 4.3815077, "tags": {"amenity": "restaurant", "check_date:opening_hours": "2024-05-23", "indoor_seating": "yes", "name": "Snack\u00f4p\u00e2tes", "opening_hours:signed": "no", "outdoor_seating": "no"}}, {"type": "node", "id": 3347874354, "lat": 50.8186309, "lon": 4.3838984, "tags": {"amenity": "restaurant", "contact:phone": "+32 2 646 64 04", "contact:website": "https://tomyam.be", "cuisine": "thai", "delivery": "yes", "diet:vegetarian": "yes", "name": "Tom Yam", "opening_hours": "Mo-Fr 12:00-14:00,18:30-22:30; Sa-Su 18:30-22:30", "reservation": "yes", "takeaway": "yes", "wheelchair": "limited"}}, {"type": "node", "id": 3898965584, "lat": 50.8165525, "lon": 4.3861344, "tags": {"amenity": "restaurant", "cuisine": "pizza", "delivery": "no", "name": "Pizzeria Vorrei", "opening_hours": "Mo,We 18:30-22:00, Th 18:30-22:30, Fr,Sa 12:30-22:30, Su 18:30-22:00, We,Th 12:00-14:30", "outdoor_seating": "yes", "takeaway": "yes"}}, {"type": "node", "id": 4415110893, "lat": 50.8203651, "lon": 4.3850711, "tags": {"amenity": "restaurant", "brand": "Pizza Hut", "brand:wikidata": "Q191615", "brand:wikipedia": "en:Pizza Hut", "check_date": "2023-12-20", "cuisine": "pizza", "diet:vegetarian": "yes", "drive_through": "no", "name": "Pizza Hut Delivery", "opening_hours": "Mo-Th 11:30-22:00; Fr-Su 11:30-22:30", "wheelchair": "no"}}, {"type": "node", "id": 4415251355, "lat": 50.8208029, "lon": 4.386697, "tags": {"amenity": "restaurant", "contact:website": "https://restaurant-limprobable.be/", "cuisine": "international", "level": "0", "name": "L'Improbable", "opening_hours": "Tu-Fr 12:00-14:30,18:00-23:00; Sa 18:00-23:00", "payment:bancontact": "yes", "payment:cash": "yes", "payment:mastercard": "yes", "payment:payconiq": "yes", "payment:visa": "yes"}}, {"type": "node", "id": 4417780625, "lat": 50.820918, "lon": 4.3865685, "tags": {"amenity": "restaurant", "check_date": "2023-12-18", "cuisine": "pizza", "diet:vegetarian": "yes", "level": "0", "name": "Chez Valerio", "opening_hours": "Mo-Fr 12:00-15:00,18:00-23:00; Sa,Su 18:00-23:00", "wheelchair": "limited"}}, {"type": "node", "id": 4961202821, "lat": 50.8177058, "lon": 4.3881782, "tags": {"amenity": "restaurant", "check_date": "2023-12-12", "contact:phone": "+32 2 648 73 70", "cuisine": "japanese", "name": "Menma \u2013 Restaurant de ramen", "name:fr": "Menma - Restaurant de ramen", "opening_hours": "Mo-Fr 11:30-14:00, 18:00-21:30; Sa-Su 11:30-21:30"}}, {"type": "node", "id": 5094716870, "lat": 50.8179102, "lon": 4.3930076, "tags": {"amenity": "restaurant", "name": "Nem Nem C\u00e0ph\u00ea"}}, {"type": "node", "id": 5338706956, "lat": 50.8170274, "lon": 4.3921686, "tags": {"amenity": "restaurant", "cuisine": "italian", "name": "Parma in Tavola"}}, {"type": "node", "id": 5338731366, "lat": 50.8216884, "lon": 4.3888034, "tags": {"amenity": "restaurant", "contact:phone": "+32 2 648 81 00", "cuisine": "pizza", "name": "Pavarotti", "opening_hours": "Mo-Su 17:30-23:00"}}, {"type": "node", "id": 5338749726, "lat": 50.8212855, "lon": 4.3892499, "tags": {"amenity": "restaurant", "cuisine": "portuguese", "name": "Chapeau", "opening_hours": "Tu-Sa 11:00-15:00,18:30-22:30; Su 11:30-15:00"}}, {"type": "node", "id": 5338752282, "lat": 50.8162522, "lon": 4.3828087, "tags": {"amenity": "restaurant", "contact:website": "https://atabaoburger.be/", "cuisine": "burger", "delivery": "yes", "indoor_seating": "yes", "internet_access": "no", "name": "ATA Bao & Burger", "opening_hours": "Mo-Fr 12:00-15:00,18:00-22:00, Sa-Su 12:00-22:00", "outdoor_seating": "no", "payment:cash": "yes", "payment:visa": "yes", "takeaway": "yes", "toilets:access": "customers"}}, {"type": "node", "id": 5383729219, "lat": 50.8170603, "lon": 4.3890205, "tags": {"amenity": "restaurant", "contact:email": "asia2000@skynet.be", "contact:phone": "+32 2 547 56 21", "cuisine": "vietnamese", "delivery": "yes", "level": "0;1", "name": "L'orchid\u00e9e blanche", "opening_hours": "Mo-Su 12:00-14:30,19:00-23:00; Sa 19:00-23:00", "outdoor_seating": "yes"}}, {"type": "node", "id": 5737276640, "lat": 50.8183114, "lon": 4.3848053, "tags": {"amenity": "restaurant", "contact:website": "https://www.ninarestobar.be/", "cuisine": "italian", "indoor_seating": "yes", "name": "Nina", "opening_hours": "Tu-Th 18:00-22:00+; Fr,Sa 18:00-22:30+", "outdoor_seating": "yes", "was:name": "La Pagode d'Or"}}, {"type": "node", "id": 5749755356, "lat": 50.8181073, "lon": 4.3857075, "tags": {"amenity": "restaurant", "name": "Mili Asian Kitchen"}}, {"type": "node", "id": 6070797860, "lat": 50.81603, "lon": 4.3898193, "tags": {"amenity": "restaurant", "contact:email": "info@makisu.be", "contact:website": "https://makisu.be", "cuisine": "japanese", "name": "Makisu", "opening_hours": "Mo-Sa 12:00-22:00", "takeaway": "yes"}}, {"type": "node", "id": 6070797861, "lat": 50.8168273, "lon": 4.3888879, "tags": {"amenity": "restaurant", "contact:fax": "+32 2 640 71 58", "contact:phone": "+32 2 640 71 58", "contact:website": "https://poussieresdetoiles.be", "cuisine": "asian", "name": "Poussi\u00e8res d'Etoiles", "opening_hours": "Tu-Su 12:00-14:00, 19:00-22:30", "wheelchair": "no"}}, {"type": "node", "id": 6070797864, "lat": 50.8177052, "lon": 4.3923452, "tags": {"amenity": "restaurant", "contact:email": "resto@laverveine.be", "contact:phone": "+32 2 644 44 80", "contact:website": "http://restolaverveine.com/", "cuisine": "french", "name": "La verveine", "opening_hours": "Mo-Fr 12:00-14:30, 18:45-22:30; Sa 18:30-23:00", "wheelchair": "yes"}}, {"type": "node", "id": 6167058859, "lat": 50.8179449, "lon": 4.386486, "tags": {"amenity": "restaurant", "contact:website": "https://tapasymas.be/", "cuisine": "spanish", "indoor_seating": "yes", "name": "Tapas Y Mas", "opening_hours": "Tu-Th 18:30-23:00; Fr,Sa 18:30-24:00", "outdoor_seating": "yes"}}, {"type": "node", "id": 6167058860, "lat": 50.8179807, "lon": 4.3863397, "tags": {"amenity": "restaurant", "contact:facebook": "https://www.facebook.com/KATITiBxl/", "cuisine": "greek", "name": "KATITi", "outdoor_seating": "yes"}}, {"type": "node", "id": 6167058862, "lat": 50.8196282, "lon": 4.3824081, "tags": {"amenity": "restaurant", "check_date": "2023-12-16", "contact:phone": "+32 2 640 52 59", "contact:website": "https://www.pacifiquerestaurant.com/", "cuisine": "vietnamese", "diet:vegetarian": "yes", "name": "Pacifique", "opening_hours": "Th-Mo 12:00-14:30,18:00-22:30; We 18:00-22:30", "wheelchair": "no"}}, {"type": "node", "id": 6170414348, "lat": 50.8166962, "lon": 4.3918935, "tags": {"amenity": "restaurant", "cuisine": "pizza", "name": "Bros"}}, {"type": "node", "id": 6256217438, "lat": 50.8206596, "lon": 4.3872464, "tags": {"amenity": "restaurant", "name": "Les Caves d'Alex", "outdoor_seating": "yes"}}, {"type": "node", "id": 6284575332, "lat": 50.8195426, "lon": 4.3829155, "tags": {"amenity": "restaurant", "changing_table": "no", "check_date": "2025-02-02", "contact:phone": "+32 2 437 95 31", "cuisine": "chinese", "diet:vegan": "yes", "diet:vegetarian": "yes", "level": "0", "name": "Huimian", "opening_hours": "Mo,We off; Tu,Th-Su 12:00-14:30,18:00-21:30", "outdoor_seating": "no", "toilets": "yes", "toilets:menstrual_products": "no", "toilets:wheelchair": "no", "wheelchair": "no"}}, {"type": "node", "id": 6284575333, "lat": 50.8191275, "lon": 4.3831592, "tags": {"amenity": "restaurant", "contact:phone": "+32 2 425 34 47", "cuisine": "vietnamese", "diet:vegan": "yes", "diet:vegetarian": "yes", "name": "Pho Diem Xuan", "opening_hours": "Mo-Su 11:00-15:00,18:00-22:00", "opening_hours:kitchen": "Fr-Su 11:00-22:00 \"non stop\"", "payment:cash": "yes", "takeaway": "yes", "toilets": "yes", "toilets:access": "customers", "toilets:disposal": "flush", "toilets:fee": "no", "toilets:handwashing": "yes", "toilets:num_chambers": "2", "toilets:number": "2", "toilets:paper_supplied": "yes", "toilets:position": "seated", "toilets:wheelchair": "no", "wheelchair": "limited"}}, {"type": "node", "id": 6284575334, "lat": 50.8185651, "lon": 4.3843245, "tags": {"amenity": "restaurant", "contact:email": "guiming.brussels@gmail.com", "contact:phone": "+32 2 476 05 62", "contact:website": "https://www.chezmonsieuryang.com/", "cuisine": "asian;sichuan", "diet:vegetarian": "yes", "name": "Chez Monsieur Yang", "opening_hours": "Mo,We-Su 11:30-14:00,18:30-22:00", "wheelchair": "limited"}}, {"type": "node", "id": 6405140427, "lat": 50.8167856, "lon": 4.3889169, "tags": {"amenity": "restaurant", "contact:phone": "+32 2 649 06 62", "cuisine": "thai", "name": "Naly", "opening_hours": "Mo-Sa 12:00-15:00, 18:00-23:30", "wheelchair": "limited"}}, {"type": "node", "id": 6917868743, "lat": 50.8214269, "lon": 4.3950863, "tags": {"amenity": "restaurant", "cuisine": "bread;sandwich;pasta", "level": "1", "name": "Opinio broodjes", "opening_hours": "closed", "takeaway": "only"}}, {"type": "node", "id": 7071765164, "lat": 50.8181555, "lon": 4.3845396, "tags": {"amenity": "restaurant", "cuisine": "thai", "diet:vegan": "yes", "name": "Issan"}}, {"type": "node", "id": 7254803699, "lat": 50.818666, "lon": 4.3838297, "tags": {"amenity": "restaurant", "diet:vegetarian": "yes", "name": "Le grenier d'Elvire", "opening_hours": "Tu-Fr 12:00-14:30, Tu-Su 19:00-24:00", "wheelchair": "limited"}}, {"type": "node", "id": 7254813151, "lat": 50.818528, "lon": 4.3840395, "tags": {"amenity": "restaurant", "contact:phone": "+32 2 647 07 18", "cuisine": "vietnamese", "diet:vegan": "yes", "diet:vegetarian": "yes", "name": "Apocalypse", "opening_hours:signed": "no", "wheelchair": "limited"}}, {"type": "node", "id": 7358367405, "lat": 50.8185249, "lon": 4.384366, "tags": {"amenity": "restaurant", "contact:mobile": "+32 472 77 59 11", "cuisine": "lebanese", "description": "snack, traiteur, petit resto sp\u00e9cialit\u00e9s libanaises", "diet:vegetarian": "yes", "name": "Le Liban", "opening_hours": "Mo-Fr 12:00-22:30; Sa 13:00-22:30", "outdoor_seating": "yes", "smoking": "outside", "takeaway": "yes", "wheelchair": "limited"}}, {"type": "node", "id": 10809018894, "lat": 50.8160662, "lon": 4.3903287, "tags": {"air_conditioning": "yes", "amenity": "restaurant", "changing_table": "no", "contact:mobile": "+32 488 16 54 77", "contact:website": "https://logroup.be/mylene", "diet:vegan": "no", "diet:vegetarian": "yes", "indoor_seating": "yes", "name": "Myl\u00e8ne", "opening_hours": "12:00-23:00", "outdoor_seating": "yes", "toilets": "yes", "toilets:wheelchair": "no", "wheelchair": "limited"}}, {"type": "node", "id": 11081106361, "lat": 50.8159469, "lon": 4.3900203, "tags": {"amenity": "restaurant", "check_date": "2026-01-31", "contact:email": "ciao@grandepiazza.com", "contact:instagram": "grande_piazza", "contact:phone": "+32 2 777 70 85", "contact:website": "https://www.grandepiazza.com/", "cuisine": "italian", "diet:vegan": "no", "diet:vegetarian": "yes", "name": "Grande Piazza", "opening_hours": "Mo-Su 11:30-24:00", "opening_hours:kitchen": "Mo-We,Su 12:00-14:30,18:30-22:30; Th-Sa 12:00-14:30,18:30-23:00", "reservation": "yes", "start_date": "2025-04-11"}}, {"type": "node", "id": 11298155729, "lat": 50.8172877, "lon": 4.380657, "tags": {"amenity": "restaurant", "contact:phone": "+32 2 649 21 49", "contact:website": "https://nonbedaigaku.be", "cuisine": "japanese", "indoor_seating": "yes", "name": "Nonbe Daigaku", "opening_hours": "Tu-Sa 12:00-14:00,19:00-22:00", "outdoor_seating": "no", "wheelchair": "no"}}, {"type": "node", "id": 11298203496, "lat": 50.8175761, "lon": 4.380216, "tags": {"amenity": "restaurant", "check_date:opening_hours": "2024-04-17", "cuisine": "indian", "name": "Punjab", "opening_hours:signed": "no"}}, {"type": "node", "id": 11298203502, "lat": 50.8177331, "lon": 4.3804999, "tags": {"amenity": "restaurant", "check_date:opening_hours": "2024-05-23", "name": "Pho 799", "opening_hours:signed": "no"}}, {"type": "node", "id": 11406505571, "lat": 50.8184652, "lon": 4.3844954, "tags": {"amenity": "restaurant", "contact:fax": "+32 2 644 16 00", "contact:phone": "+32 2 640 04 69", "contact:website": "https://www.chezfleur.be", "cuisine": "vietnamese;thai", "delivery": "Mo-Su 18:00-22:30", "diet:vegetarian": "yes", "name": "Chez Fleur", "opening_hours": "Mo-Fr 12:00-14:00,18:00-23:30; Sa-Su 18:00-23:30", "takeaway": "yes", "wheelchair": "limited"}}, {"type": "node", "id": 11736437026, "lat": 50.8159758, "lon": 4.3827626, "tags": {"amenity": "restaurant", "name": "Le Pickwick", "opening_hours": "Mo-Fr 10:00-24:00,10:30-23:30"}}, {"type": "node", "id": 11736437027, "lat": 50.8160166, "lon": 4.3826973, "tags": {"amenity": "restaurant", "check_date:opening_hours": "2024-03-15", "name": "La Braisi\u00e8re", "opening_hours:signed": "no"}}, {"type": "node", "id": 11906881510, "lat": 50.8157404, "lon": 4.3895001, "tags": {"amenity": "restaurant", "cuisine": "regional", "name": "La Bastoche", "opening_hours": "12:00-03:00", "outdoor_seating": "yes", "wheelchair": "no"}}, {"type": "node", "id": 11964649361, "lat": 50.8174293, "lon": 4.3927114, "tags": {"amenity": "restaurant", "indoor_seating": "yes", "name": "Ricardo's", "outdoor_seating": "no"}}, {"type": "node", "id": 12168695097, "lat": 50.8217284, "lon": 4.3958518, "tags": {"air_conditioning": "yes", "alt_name": "Resto", "amenity": "restaurant", "contact:email": "vubrestaurant@vub.be", "contact:phone": "+32 2 629 33 53", "contact:website": "https://www.vub.be/nl/dienstverlening-op-de-vub-campus-etterbeek-en-jette/lekker-eten-op-de-vub-campus/vub-resto-op-campus-etterbeek", "delivery": "no", "diet:vegan": "yes", "diet:vegetarian": "yes", "indoor_seating": "yes", "name": "VUB-restaurant", "opening_hours": "Mo-Fr 07:30-15:45", "opening_hours:kitchen": "Mo-Fr 11:30-13:45", "outdoor_seating": "no", "payment:bancontact": "yes", "payment:coins": "yes", "payment:maestro": "yes", "payment:mastercard": "yes", "payment:meal_voucher": "yes", "payment:monizze": "yes", "payment:notes": "yes", "payment:payconiq": "yes", "payment:pluxee": "yes", "payment:visa": "yes", "reservation": "no", "reusable_packaging:accept": "yes", "smoking": "no", "takeaway": "yes"}}, {"type": "node", "id": 13018949598, "lat": 50.8202805, "lon": 4.3856279, "tags": {"amenity": "restaurant", "name": "Umi no Sachi"}}]}