{"version": 0.6, "generator": "Overpass API 0.7.62.10 2d4cfc48", "osm3s": {"timestamp_osm_base": "2026-02-02T16:12:54Z", "copyright": "The data included in this document is from www.openstreetmap.org. The data is made available under ODbL."}, "elements": [{"type": "node", "id": 1257844054, "lat": 50.8585966, "lon": 4.343778, "tags": {"amenity": "cafe", "name": "Central Perk"}}, {"type": "node", "id": 1257844060, "lat": 50.8589511, "lon": 4.3382224, "tags": {"amenity": "cafe", "name": "Le Sympa"}}, {"type": "node", "id": 1268711489, "lat": 50.8578808, "lon": 4.3059984, "tags": {"amenity": "cafe", "name": "Le Marilyn"}}, {"type": "node", "id": 1276843844, "lat": 50.8675949, "lon": 4.3404238, "tags": {"amenity": "cafe", "name": "Le Jubile"}}, {"type": "node", "id": 1648363577, "lat": 50.8531414, "lon": 4.3406082, "tags": {"amenity": "cafe", "name": "Time out"}}, {"type": "node", "id": 4147438316, "lat": 50.8537057, "lon": 4.316601, "tags": {"amenity": "cafe", "cuisine": "regional", "name": "Beroea", "opening_hours": "Tu-Su 10:00-15:00,18:00-22:00"}}, {"type": "node", "id": 4147438317, "lat": 50.8543919, "lon": 4.3157531, "tags": {"amenity": "cafe", "name": "Le central parc"}}, {"type": "node", "id": 4147506921, "lat": 50.8487862, "lon": 4.3198371, "tags": {"amenity": "cafe", "name": "Darling Ka.f\u00e9e", "outdoor_seating": "yes"}}, {"type": "node", "id": 5303253846, "lat": 50.8515811, "lon": 4.3291066, "tags": {"amenity": "cafe", "name": "Royal Salon de th\u00e9"}}, {"type": "node", "id": 5650395665, "lat": 50.8540744, "lon": 4.3386262, "tags": {"amenity": "cafe", "name": "Brass'Art Digitaal Caf\u00e9"}}, {"type": "node", "id": 6156453085, "lat": 50.8493145, "lon": 4.3285885, "tags": {"amenity": "cafe", "name": "Milano"}}, {"type": "node", "id": 6209863470, "lat": 50.8562201, "lon": 4.3397029, "tags": {"amenity": "cafe", "name": "La Tour"}}, {"type": "node", "id": 8830368193, "lat": 50.8603637, "lon": 4.3419187, "tags": {"amenity": "cafe", "check_date:opening_hours": "2022-06-22", "contact:instagram": "https://www.instagram.com/brolcoffeehouse/", "contact:mobile": "+32 470 01 29 61", "cuisine": "coffee_shop;juice;pastry;mediterranean", "name": "BROL", "opening_hours:signed": "no", "outdoor_seating": "garden"}}, {"type": "node", "id": 9236179265, "lat": 50.8670396, "lon": 4.3420711, "tags": {"amenity": "cafe", "contact:phone": "+32 2 303 85 74", "contact:website": "https://www.replicabookshop.be", "cuisine": "coffee_shop", "name": "Replica Bookshop", "opening_hours": "We-Su 10:00-18:00", "operator": "Malu Baert", "shop": "books", "start_date": "2021-11-03"}}, {"type": "node", "id": 9727142127, "lat": 50.8489453, "lon": 4.3198197, "tags": {"amenity": "cafe", "cuisine": "arab", "description": "breakfast, pain au chocolat, croissant, capuccino, mint infusion", "name": "Salon du Th\u00e9 Manal"}}, {"type": "node", "id": 10743218161, "lat": 50.8455277, "lon": 4.2845371, "tags": {"amenity": "cafe", "name": "La tourelle"}}, {"type": "node", "id": 11148942651, "lat": 50.8528419, "lon": 4.3354143, "tags": {"amenity": "cafe", "brewery": "brussels_beer_project", "email": "contact@lacantinezot.be", "indoor_seating": "yes", "level": "0", "name": "ZOT", "opening_hours": "Tu-Su 09:00-17:00", "operator": "La Fonderie", "operator:wikidata": "Q20706201", "outdoor_seating": "yes", "panoramax": "a6ff6aff-e298-4aee-aa71-60f021ad75b3", "panoramax:0": "50837814-75f1-4dcf-ab60-99e7ae0aff1b", "panoramax:1": "926a4c61-5344-417c-a017-ff95bb11739b", "panoramax:2": "abea17b2-8c6c-49e5-bfe0-22d8aeafa511", "start_date": "2023-05-01", "website": "https://lacantinezot.be"}}, {"type": "node", "id": 12269424895, "lat": 50.8528601, "lon": 4.3403371, "tags": {"amenity": "cafe", "contact:instagram": "https://www.instagram.com/koul.brussels", "cuisine": "coffee_shop", "full_name": "KOUL Specialty Coffee & Eatery", "name": "KOUL", "opening_hours": "Mo-Fr 09:00-18:00; Sa-Su 09:30-19:00"}}, {"type": "node", "id": 12348262902, "lat": 50.848882, "lon": 4.3198371, "tags": {"amenity": "cafe", "name": "La brasserie du Parc", "toilets:wheelchair": "no", "wheelchair": "limited"}}]}