{"version": 0.6, "generator": "Overpass API 0.7.62.10 2d4cfc48", "osm3s": {"timestamp_osm_base": "2026-02-10T15:42:10Z", "copyright": "The data included in this document is from www.openstreetmap.org. The data is made available under ODbL."}, "elements": [{"type": "node", "id": 331953377, "lat": 50.8415512, "lon": 4.3525901, "tags": {"amenity": "restaurant", "contact:phone": "+32 2 502 25 12", "contact:website": "https://www.skievelatsablon.be/", "cuisine": "regional", "name": "Skievelat", "opening_hours": "12:00-22:30"}}, {"type": "node", "id": 2122303453, "lat": 50.8412094, "lon": 4.3541486, "tags": {"amenity": "restaurant", "check_date:opening_hours": "2024-07-03", "name": "Relais de Paris", "opening_hours:signed": "no"}}, {"type": "node", "id": 2514192403, "lat": 50.8407697, "lon": 4.3567483, "tags": {"amenity": "restaurant", "check_date:opening_hours": "2023-05-22", "contact:email": "reservation@lecaillerdupalaisroyal.be", "contact:phone": "+32 2 512 87 51", "contact:website": "https://www.lecaillerdupalaisroyal.be", "name": "L'\u00c9caillier du Palais Royal", "opening_hours": "Mo-Su 12:00-14:30, 19:00-23:30", "opening_hours:signed": "no"}}, {"type": "node", "id": 2665165909, "lat": 50.8409482, "lon": 4.3514601, "tags": {"amenity": "restaurant", "check_date": "2025-05-01", "cuisine": "burger", "indoor_seating": "yes", "name": "Berlin Fabrik", "outdoor_seating": "yes"}}, {"type": "node", "id": 2665165935, "lat": 50.83828, "lon": 4.3509474, "tags": {"amenity": "restaurant", "check_date:opening_hours": "2025-07-29", "name": "Lazy Bear", "opening_hours:signed": "no"}}, {"type": "node", "id": 2665166019, "lat": 50.8418513, "lon": 4.3530968, "tags": {"amenity": "restaurant", "contact:website": "https://www.wantany.be", "indoor_seating": "yes", "name": "Wantany", "outdoor_seating": "yes", "takeaway": "yes"}}, {"type": "node", "id": 2665166124, "lat": 50.8420491, "lon": 4.3525188, "tags": {"addr:housenumber": "3", "addr:street": "Rue de Rollebeek - Rollebeekstraat", "entrance": "yes", "ref:UrbIS": "8185725"}}, {"type": "node", "id": 2665166157, "lat": 50.8404106, "lon": 4.3599575, "tags": {"amenity": "restaurant", "cuisine": "italian", "name": "Il passatempo vini & cucina", "short_name": "Il passatempo"}}, {"type": "node", "id": 2665166291, "lat": 50.8415191, "lon": 4.3536208, "tags": {"amenity": "restaurant", "indoor_seating": "yes", "name": "Caf\u00e9 Leffe", "outdoor_seating": "yes"}}, {"type": "node", "id": 2665166322, "lat": 50.8395093, "lon": 4.3534273, "tags": {"amenity": "restaurant", "indoor_seating": "yes", "name": "Orphyse Chaussette", "opening_hours": "Tu-Sa 12:00-14:30,19:00-22:30", "outdoor_seating": "yes"}}, {"type": "node", "id": 2665166332, "lat": 50.8420228, "lon": 4.3525933, "tags": {"addr:housenumber": "5", "addr:street": "Rue de Rollebeek - Rollebeekstraat", "entrance": "yes", "ref:UrbIS": "8182235"}}, {"type": "node", "id": 2665166340, "lat": 50.8398064, "lon": 4.3597914, "tags": {"amenity": "restaurant", "contact:phone": "+32 2 512 10 12", "contact:website": "https://lepetitpalais.be/", "cuisine": "belgian", "delivery": "yes", "internet_access": "wlan", "name": "Le Petit Palais", "outdoor_seating": "yes", "smoking": "outside"}}, {"type": "node", "id": 2665166486, "lat": 50.8391589, "lon": 4.3607994, "tags": {"amenity": "restaurant", "name": "\u00e0 l'Ombre de la Ville", "website": "https://alombredelaville.com/"}}, {"type": "node", "id": 2665166597, "lat": 50.8389335, "lon": 4.3608471, "tags": {"amenity": "restaurant", "contact:email": "reservations@restaurant-uma.com", "contact:facebook": "https://www.facebook.com/Umarestaurantbxl", "contact:instagram": "https://www.instagram.com/umarestaurant", "contact:phone": "+32 2 425 51 15", "contact:website": "https://www.uma-restaurant.com", "cuisine": "french;fine_dining", "diet:vegetarian": "yes", "name": "Um\u0101", "opening_hours": "Mo, Su off; Tu-Sa 12:00-14:00,19:00-22:00", "reservation": "yes"}}, {"type": "node", "id": 2665173979, "lat": 50.8419778, "lon": 4.352574}, {"type": "node", "id": 2665173992, "lat": 50.8420022, "lon": 4.352515}, {"type": "node", "id": 2665173999, "lat": 50.8420163, "lon": 4.3526153}, {"type": "node", "id": 2665174011, "lat": 50.8420303, "lon": 4.3524548}, {"type": "node", "id": 2665174013, "lat": 50.8420357, "lon": 4.3525501}, {"type": "node", "id": 2665174026, "lat": 50.8420625, "lon": 4.3524875}, {"type": "node", "id": 3014393249, "lat": 50.8418701, "lon": 4.3530346, "tags": {"amenity": "restaurant", "cuisine": "italian", "indoor_seating": "yes", "name": "Sta senza pensieri", "opening_hours": "Mo-Th 12:00-15:00,18:00-23:00, Fr-Su 12:00-24:00", "outdoor_seating": "yes"}}, {"type": "node", "id": 3682459882, "lat": 50.8410547, "lon": 4.3553079, "tags": {"amenity": "restaurant", "cuisine": "regional", "indoor_seating": "yes", "name": "La Kartchma", "outdoor_seating": "sidewalk"}}, {"type": "node", "id": 4419601178, "lat": 50.8420881, "lon": 4.3523744, "tags": {"alt_name": "Chez Hatem", "amenity": "restaurant", "check_date": "2025-06-24", "indoor_seating": "yes", "name": "Le Strof", "outdoor_seating": "yes", "wheelchair": "limited"}}, {"type": "node", "id": 4420655354, "lat": 50.8393509, "lon": 4.3551192, "tags": {"amenity": "restaurant", "indoor_seating": "yes", "name": "Les Petits Oignons", "opening_hours": "Mo-Th 12:00-14:30, 19:00-22:30;Fr-Sa 12:00-14:00, 19:00-23:00;Su 12:00-14:30, 19:00-22:30", "outdoor_seating": "yes", "website": "https://restaurant-petits-oignons-bruxelles.be/"}}, {"type": "node", "id": 4430436892, "lat": 50.8417833, "lon": 4.3521693, "tags": {"amenity": "restaurant", "check_date": "2025-06-24", "contact:email": "vluxurycercle@gmail.com", "contact:phone": "+32 2 503 83 66", "cuisine": "pizza", "indoor_seating": "yes", "internet_access": "wlan", "name": "La Dolce Mia", "opening_hours": "Tu-Sa 11:30-15:00,18:00-22:00; Su 12:00-18:00", "outdoor_seating": "yes"}}, {"type": "node", "id": 4485215791, "lat": 50.8419664, "lon": 4.3527334, "tags": {"amenity": "restaurant", "indoor_seating": "yes", "name": "Todt's Caf\u00e9", "opening_hours": "Th-Tu 11:30-22:00", "outdoor_seating": "yes", "wheelchair": "no"}}, {"type": "node", "id": 4837010521, "lat": 50.8388755, "lon": 4.3505452, "tags": {"amenity": "restaurant", "name": "Easy Tiempo"}}, {"type": "node", "id": 5111596351, "lat": 50.8396032, "lon": 4.3526652, "tags": {"amenity": "restaurant", "check_date:opening_hours": "2023-02-07", "contact:phone": "+32 2 513 51 95", "name": "Le Corbier", "opening_hours:signed": "no"}}, {"type": "node", "id": 5115252325, "lat": 50.8392408, "lon": 4.3615782, "tags": {"amenity": "restaurant", "check_date": "2024-05-15", "cuisine": "italian", "name": "Ottanta"}}, {"type": "node", "id": 5434656433, "lat": 50.8417988, "lon": 4.3538898, "tags": {"amenity": "restaurant", "contact:phone": "+32 2 512 01 70", "contact:website": "https://lapizzaebella.be/", "cuisine": "italian_pizza", "indoor_seating": "yes", "internet_access": "wlan", "name": "La Pizza \u00e8 Bella", "opening_hours": "Tu-Su 12:00-15:00, 18:30-22:00", "outdoor_seating": "yes"}}, {"type": "node", "id": 5434689021, "lat": 50.8417414, "lon": 4.3532803, "tags": {"amenity": "restaurant", "contact:mobile": "+32 484 67 02 97", "cuisine": "pizza", "diet:vegetarian": "yes", "indoor_seating": "yes", "name": "La Bottega Della Pizza", "opening_hours": "Tu-Su 12:00-23:00", "outdoor_seating": "yes"}}, {"type": "node", "id": 5469271321, "lat": 50.8388459, "lon": 4.3505159, "tags": {"amenity": "restaurant", "contact:email": "brasserie.ploegmans@gmail.com", "contact:phone": "+32 2 503 21 24", "contact:website": "https://ploegmans.wordpress.com/", "cuisine": "local;french", "name": "Brasserie Ploegmans", "opening_hours": "Mo off; Tu-Th 12:00-14:30,19:00-22:00; Fr-Sa 12:00-14:30,19:00-22:30; Su 12:00-14:30"}}, {"type": "node", "id": 5787040151, "lat": 50.8419029, "lon": 4.3525287, "tags": {"amenity": "restaurant", "contact:phone": "+32 2 511 95 17", "contact:website": "https://vertigobrussels.com/", "name": "Vertigo", "outdoor_seating": "terrace"}}, {"type": "node", "id": 5787040853, "lat": 50.8419845, "lon": 4.3525565}, {"type": "node", "id": 6448526516, "lat": 50.8387749, "lon": 4.3603754, "tags": {"amenity": "restaurant", "contact:email": "info@cowfish.be", "contact:phone": "+32 2 503 04 03", "contact:website": "https://cowfish.be/", "cuisine": "burger", "name": "Cowfish"}}, {"type": "node", "id": 6598940702, "lat": 50.8387051, "lon": 4.3504193, "tags": {"amenity": "restaurant", "check_date": "2025-06-24", "check_date:opening_hours": "2023-07-04", "contact:phone": "+32 2 502 17 78", "contact:website": "https://lesvignesduliban.be/", "cuisine": "lebanese", "indoor_seating": "yes", "name": "Les Vignes du Liban", "opening_hours": "Mo-Fr 12:00-14:00,18:00-22:00; Sa,Su 12:00-22:00", "opening_hours:signed": "no", "outdoor_seating": "yes"}}, {"type": "node", "id": 7149864187, "lat": 50.8410295, "lon": 4.3513142, "tags": {"amenity": "restaurant", "contact:email": "info@poischiche.be", "contact:website": "https://www.poischiche.be/", "cuisine": "oriental;lebanese;arab;mediterranean", "diet:vegetarian": "yes", "indoor_seating": "yes", "internet_access": "wlan", "name": "Pois Chiche", "opening_hours": "Mo-We 12:00-21:00; Th-Fr 12:00-22:00; Sa 11:00-22:00; Su 11:00-21:00", "outdoor_seating": "yes"}}, {"type": "node", "id": 7704742943, "lat": 50.8417517, "lon": 4.3518834, "tags": {"amenity": "restaurant", "check_date": "2024-01-02", "contact:mobile": "+32 485 70 31 11", "contact:phone": "+32 2 502 17 07", "cuisine": "lebanese;palestinian", "diet:vegan": "yes", "diet:vegetarian": "yes", "indoor_seating": "yes", "name": "Jaffa", "opening_hours": "Tu-Sa 12:00-23:00; Su 12:00-21:30", "outdoor_seating": "sidewalk", "ref:vatin": "BE0660970074", "wheelchair": "limited"}}, {"type": "node", "id": 9373410722, "lat": 50.8426511, "lon": 4.3532071, "tags": {"amenity": "restaurant", "contact:mobile": "+32 465 20 60 24", "contact:website": "https://eastatwest.be/", "cuisine": "lebanese;syrian", "diet:vegan": "yes", "diet:vegetarian": "yes", "indoor_seating": "yes", "name": "East @ West", "opening_hours": "Mo-Sa 11:30-14:00, 18:00-22:00; Su off", "outdoor_seating": "yes", "panoramax": "1c27d62f-35f3-4846-8aac-60b76d23aab5", "panoramax:0": "51fafc50-e037-434d-b60e-4b168956b91b", "takeaway": "yes", "wheelchair": "no"}}, {"type": "node", "id": 9417618292, "lat": 50.8400757, "lon": 4.3566639, "tags": {"amenity": "restaurant", "contact:phone": "+32 2 223 16 17", "contact:website": "https://www.senzanome.be/", "cuisine": "italian", "name": "senzanome", "opening_hours": "Mo 19:00-21:00; Tu-Fr 12:00-13:30"}}, {"type": "node", "id": 9657947666, "lat": 50.8375376, "lon": 4.3572523, "tags": {"amenity": "restaurant", "check_date:opening_hours": "2025-10-31", "contact:email": "info@theiris.be", "contact:facebook": "https://www.facebook.com/TheIris.Brussels", "contact:instagram": "https://www.instagram.com/theiris.brussels/", "contact:phone": "+32 2 504 13 33", "contact:website": "https://www.theiris.be/", "name": "The Iris", "opening_hours": "Mo-Su 11:00-22:00"}}, {"type": "node", "id": 10106435432, "lat": 50.8393286, "lon": 4.3528639, "tags": {"amenity": "restaurant", "bar": "yes", "brewery": "various", "contact:website": "https://cafedesminimes.com", "cuisine": "regional;french", "indoor_seating": "yes", "name": "Caf\u00e9 des Minimes", "opening_hours": "Tu-Fr 12:00-18:00+; Sa 12:00-18:00+; Su 11:30-16:00", "outdoor_seating": "yes"}}, {"type": "node", "id": 10106887628, "lat": 50.839338, "lon": 4.3532034, "tags": {"amenity": "restaurant", "contact:phone": "+32 2 503 56 32", "contact:website": "https://troisiemeacte.be/", "name": "Le IIIeme Acte", "opening_hours": "Mo-Fr 12:00-14:30,19:00-23:00, Sa 19:00-23:00", "outdoor_seating": "terrace"}}, {"type": "node", "id": 10599836741, "lat": 50.8366737, "lon": 4.3553696, "tags": {"amenity": "restaurant", "cuisine": "asian", "name": "Gallery"}}, {"type": "node", "id": 10601639405, "lat": 50.8367485, "lon": 4.3555909, "tags": {"amenity": "restaurant", "name": "L'Atelier de Jean"}}, {"type": "node", "id": 10601639406, "lat": 50.8366765, "lon": 4.3556553, "tags": {"amenity": "restaurant", "name": "JB", "opening_hours": "Mo off;Tu-Fr 12:00-14:00,18:30-21:30;Sa 18:30-21:30;Su off", "website": "https://www.restaurantjb.com/"}}, {"type": "node", "id": 10827221111, "lat": 50.840899, "lon": 4.3598741, "tags": {"amenity": "restaurant", "cuisine": "italian", "name": "La Burrata"}}, {"type": "node", "id": 11349718184, "lat": 50.8408764, "lon": 4.3544812, "tags": {"amenity": "restaurant", "contact:phone": "+32 2 513 49 17", "contact:website": "https://www.auvieuxsaintmartin.be", "cuisine": "belgian", "indoor_seating": "yes", "name": "Au Vieux Saint-Martin", "outdoor_seating": "yes"}}, {"type": "node", "id": 11577331954, "lat": 50.8415329, "lon": 4.3531776, "tags": {"amenity": "restaurant", "cuisine": "italian", "name": "Genco"}}, {"type": "node", "id": 11578205541, "lat": 50.8408513, "lon": 4.3558831, "tags": {"amenity": "restaurant", "name": "Hispania"}}, {"type": "node", "id": 11584477176, "lat": 50.8420103, "lon": 4.3520746, "tags": {"amenity": "restaurant", "indoor_seating": "yes", "name": "Le Vintage", "outdoor_seating": "yes"}}, {"type": "node", "id": 12512059105, "lat": 50.8375129, "lon": 4.353895, "tags": {"amenity": "restaurant", "cuisine": "italian", "name": "Ciao"}}, {"type": "node", "id": 12603745888, "lat": 50.8406951, "lon": 4.3515922, "tags": {"amenity": "restaurant", "check_date": "2025-02-20", "cuisine": "italian;pizza", "name": "The Manzoni"}}, {"type": "node", "id": 13114855342, "lat": 50.8369934, "lon": 4.3541859, "tags": {"amenity": "restaurant", "contact:instagram": "schmet.bxl", "name": "Schmet"}}, {"type": "node", "id": 13217665601, "lat": 50.8405886, "lon": 4.3548074, "tags": {"amenity": "restaurant", "contact:website": "https://www.lola-restaurant.be/", "name": "Lola", "outdoor_seating": "yes"}}, {"type": "way", "id": 611173434, "nodes": [2665174026, 2665166124, 2665174013, 2665166332, 2665173999, 2665173979, 5787040853, 2665173992, 2665174011, 2665174026], "tags": {"amenity": "restaurant", "contact:website": "https://www.cestboncestbelge.be/", "indoor_seating": "yes", "name": "C'est bon c'est belge", "outdoor_seating": "yes", "takeaway": "yes", "wheelchair": "no"}}]}