{"version": 0.6, "generator": "Overpass API 0.7.62.10 2d4cfc48", "osm3s": {"timestamp_osm_base": "2026-02-02T15:56:43Z", "copyright": "The data included in this document is from www.openstreetmap.org. The data is made available under ODbL."}, "elements": [{"type": "node", "id": 355138103, "lat": 50.8482386, "lon": 4.4282401, "tags": {"amenity": "restaurant", "cuisine": "italian", "name": "Regina", "source": "Estimated"}}, {"type": "node", "id": 402491446, "lat": 50.8476125, "lon": 4.4085478, "tags": {"amenity": "restaurant", "cuisine": "italian", "name": "Il Posticino"}}, {"type": "node", "id": 1048680364, "lat": 50.8624968, "lon": 4.4269193}, {"type": "node", "id": 1048680436, "lat": 50.8623448, "lon": 4.4269438}, {"type": "node", "id": 1048680766, "lat": 50.862352, "lon": 4.4269743, "tags": {"addr:housenumber": "1105", "addr:street": "Chauss\u00e9e de Louvain - Steenweg op Leuven", "ref:UrbIS": "7759424"}}, {"type": "node", "id": 1419323117, "lat": 50.8481697, "lon": 4.4261816, "tags": {"amenity": "restaurant", "cuisine": "french", "name": "Verre y Table", "opening_hours": "Tu-Fr 12:00-14:30,18:30-22:00, Sa 18:30-22:00, Su 12:00-14:30"}}, {"type": "node", "id": 1493177062, "lat": 50.8434965, "lon": 4.4102091, "tags": {"amenity": "restaurant", "cuisine": "vietnamese", "name": "Village du Vietnam"}}, {"type": "node", "id": 2322154587, "lat": 50.8623712, "lon": 4.426856, "tags": {"addr:housenumber": "2", "addr:street": "Avenue du Gibet - Galgelaan", "ref:UrbIS": "7759424"}}, {"type": "node", "id": 2322155126, "lat": 50.8623593, "lon": 4.4270048}, {"type": "node", "id": 2322155142, "lat": 50.862407, "lon": 4.4267369}, {"type": "node", "id": 2322155145, "lat": 50.8624167, "lon": 4.4267431}, {"type": "node", "id": 2322155148, "lat": 50.8624244, "lon": 4.4267159}, {"type": "node", "id": 2322155153, "lat": 50.8624484, "lon": 4.4269493}, {"type": "node", "id": 2322155182, "lat": 50.8625305, "lon": 4.426796}, {"type": "node", "id": 2322155184, "lat": 50.862533, "lon": 4.4267979}, {"type": "node", "id": 2325434012, "lat": 50.8403754, "lon": 4.4118755, "tags": {"amenity": "restaurant", "cuisine": "italian", "name": "Osteria Zerodue"}}, {"type": "node", "id": 2334377817, "lat": 50.842906, "lon": 4.4092194, "tags": {"amenity": "restaurant", "contact:website": "https://cotesushi.be/", "cuisine": "sushi", "delivery": "yes", "name": "C\u00f4t\u00e9 Sushi", "takeaway": "yes"}}, {"type": "node", "id": 2338884060, "lat": 50.8462888, "lon": 4.4151866, "tags": {"amenity": "restaurant", "name": "Brasero"}}, {"type": "node", "id": 2356372527, "lat": 50.8407434, "lon": 4.435169, "tags": {"amenity": "restaurant", "contact:phone": "+32 2 772 88 14", "contact:website": "https://www.cafejoyeux.com/fr/content/30-cafe-joyeux-bruxelles", "disused:amenity": "restaurant", "name": "Joyeux", "opening_hours": "We-Su 09:00-19:00", "panoramax": "a5e83ff4-1654-4470-8e82-d6979fafa6f1", "start_date": "2023-01-12"}}, {"type": "node", "id": 2356372556, "lat": 50.8405288, "lon": 4.435374, "tags": {"amenity": "restaurant", "cuisine": "greek", "name": "Opa", "opening_hours": "Mo-Sa 12:00-15:00,18:00-23:00; Su,PH 12:00-15:00"}}, {"type": "node", "id": 2373367143, "lat": 50.8500735, "lon": 4.4509378, "tags": {"amenity": "restaurant", "check_date:opening_hours": "2025-10-29", "cuisine": "sandwich;pasta;turkish", "name": "Snack Club", "opening_hours": "Mo-Fr 08:00-16:00", "outdoor_seating": "yes", "toilets:wheelchair": "no", "wheelchair": "limited"}}, {"type": "node", "id": 2373367148, "lat": 50.8502187, "lon": 4.4509829, "tags": {"amenity": "restaurant", "cuisine": "italian", "name": "Little Italy", "opening_hours:signed": "no"}}, {"type": "node", "id": 2373516198, "lat": 50.8500511, "lon": 4.4534181, "tags": {"amenity": "restaurant", "contact:phone": "+32 2 770 92 38", "contact:website": "https://www.dicietdailleurs.be/", "level": "1", "name": "D'Ici & d'Ailleurs"}}, {"type": "node", "id": 4231863502, "lat": 50.8479005, "lon": 4.4575432, "tags": {"amenity": "restaurant", "contact:website": "https://fujihouse.be/", "cuisine": "japanese", "name": "Fuji House", "smoking": "no", "takeaway": "yes"}}, {"type": "node", "id": 4386090620, "lat": 50.8442048, "lon": 4.4136461, "tags": {"amenity": "restaurant", "cuisine": "indian", "full_name": "Kantipur Nepali and Indian Restaurant", "name": "Kantipur"}}, {"type": "node", "id": 4394904485, "lat": 50.8417808, "lon": 4.403652, "tags": {"amenity": "restaurant", "contact:mobile": "+32 488 61 69 18", "contact:website": "https://www.facebook.com/Saz%C3%B3n-de-Sof%C3%ADa-Resto-270088044836566/", "cuisine": "peruvian", "diet:vegetarian": "no", "name": "Saz\u00f3n de Sofia", "wheelchair": "no"}}, {"type": "node", "id": 4423224892, "lat": 50.8455851, "lon": 4.4178693, "tags": {"amenity": "restaurant", "cuisine": "italian", "name": "Piccolo Padrino", "name:en": "Piccolo Padrino", "name:fr": "Piccolo Padrino", "opening_hours": "Mo-Th 12:00-15:00,18:30-23:00; Fr-Su 12:00-23:00", "outdoor_seating": "yes"}}, {"type": "node", "id": 4687200929, "lat": 50.8421003, "lon": 4.4090127, "tags": {"amenity": "restaurant", "contact:instagram": "https://www.instagram.com/affable.restaurant", "name": "Affable"}}, {"type": "node", "id": 4688607534, "lat": 50.8438953, "lon": 4.4131453, "tags": {"amenity": "restaurant", "cuisine": "mexican", "indoor_seating": "yes", "name": "The New Diplomat", "outdoor_seating": "yes", "smoking": "outside"}}, {"type": "node", "id": 4699184933, "lat": 50.8400951, "lon": 4.4105348, "tags": {"amenity": "restaurant", "name": "Baronomie 36", "outdoor_seating": "yes"}}, {"type": "node", "id": 4699196658, "lat": 50.8446217, "lon": 4.4162748, "tags": {"amenity": "restaurant", "cuisine": "sushi;japanese", "delivery": "yes", "name": "Yama Sushi", "opening_hours": "Tu-Su 11:30-15:00,17:30-22:30", "outdoor_seating": "no", "takeaway": "yes"}}, {"type": "node", "id": 4953182144, "lat": 50.8432807, "lon": 4.4106124, "tags": {"alt_name": "Delivery Woluw\u00e9", "amenity": "restaurant", "brand": "Pizza Hut", "brand:wikidata": "Q191615", "brand:wikipedia": "en:Pizza Hut", "contact:phone": "+32 2 732 18 50", "contact:website": "https://www.pizzahut.be", "cuisine": "pizza", "name": "Pizza Hut", "operator": "Pizza Hut"}}, {"type": "node", "id": 5679724521, "lat": 50.8448488, "lon": 4.4181642, "tags": {"amenity": "restaurant", "contact:phone": "+32 2 770 77 60", "contact:website": "http://www.altalgiopizzeria.be/", "cuisine": "italian;italian_pizza;pasta", "name": "Al Taglio", "name:de": "Al Taglio Pizzeria", "opening_hours": "Mo-Su 11:30-22:30"}}, {"type": "node", "id": 5844472287, "lat": 50.8504277, "lon": 4.4542815, "tags": {"amenity": "restaurant", "contact:mobile": "+32 478 11 86 73", "cuisine": "asian;sandwich", "delivery": "Mo-Fr 08:00-11:00,14:00-18:00; PH off", "name": "D'Asie Express", "opening_hours": "Mo-Fr 08:00-18:00; PH off", "outdoor_seating": "yes", "takeaway": "yes"}}, {"type": "node", "id": 5923976745, "lat": 50.8505832, "lon": 4.4582859, "tags": {"amenity": "restaurant", "contact:phone": "+32 2 772 47 16", "name": "Le Mounier", "opening_hours": "Mo-Fr 09:30-24:00; Su 11:00-21:00", "opening_hours:kitchen": "Mo-Th 12:00-14:45,19:00-22:00, Fr 12:00-14:45,19:00-22:45", "opening_hours:url": "https://www.mounier.be/infrastructure/restaurant-le-mounier/", "wheelchair": "no"}}, {"type": "node", "id": 7192898331, "lat": 50.8400115, "lon": 4.4102735, "tags": {"amenity": "restaurant", "name": "Le Doux-D\u00e9lire"}}, {"type": "node", "id": 7211132238, "lat": 50.8411655, "lon": 4.434525, "tags": {"amenity": "restaurant", "contact:phone": "+32 2 256 98 78", "cuisine": "japanese", "delivery": "yes", "diet:vegetarian": "no", "name": "Mikuriya", "opening_hours": "Mo-Su 11:30-14:00,17:30-22:00", "wheelchair": "no"}}, {"type": "node", "id": 7211696343, "lat": 50.8412065, "lon": 4.4343675, "tags": {"amenity": "restaurant", "name": "Belgitude"}}, {"type": "node", "id": 7212124349, "lat": 50.8411048, "lon": 4.4357004, "tags": {"amenity": "restaurant", "cuisine": "italian", "name": "Leo Taste of Italy"}}, {"type": "node", "id": 7914346485, "lat": 50.8447686, "lon": 4.4171196, "tags": {"amenity": "restaurant", "cuisine": "asian", "name": "Traiteur Kim", "opening_hours": "Tu-Sa 11:30-15:30,17:30-21:00"}}, {"type": "node", "id": 7920189201, "lat": 50.84116, "lon": 4.4357468, "tags": {"amenity": "restaurant", "check_date": "2024-07-11", "contact:facebook": "https://www.facebook.com/Le-gar%C3%A7on-de-Toto-541007692587263/", "contact:phone": "+32 2 762 24 53", "cuisine": "french;italian", "name": "Le Gar\u00e7on de Toto", "outdoor_seating": "yes"}}, {"type": "node", "id": 7929185294, "lat": 50.8435258, "lon": 4.4230495, "tags": {"amenity": "restaurant", "changing_table": "no", "contact:phone": "+32 2 762 28 92", "cuisine": "chinese", "level": "0", "name": "Shanghai", "name:zh": "\u4e0a\u6d77", "opening_hours": "Mo,We-Su 11:30-14:30,17:30-22:00; PH open", "outdoor_seating": "no", "payment:cash": "only", "takeaway": "yes", "toilets": "no"}}, {"type": "node", "id": 7933930490, "lat": 50.8422869, "lon": 4.4355468, "tags": {"amenity": "restaurant", "check_date": "2024-07-11", "contact:mobile": "+32 497 35 61 11", "name": "Il Ramo d'Oliva", "opening_hours": "\"by appointement\""}}, {"type": "node", "id": 7961043841, "lat": 50.8445181, "lon": 4.4369667, "tags": {"amenity": "restaurant", "cuisine": "thai", "level": "0", "name": "Fleurs de Menthe", "opening_hours": "Mo-Sa 10:00-19:00", "payment:cash": "yes", "payment:credit_cards": "no", "payment:debit_cards": "no"}}, {"type": "node", "id": 7982293179, "lat": 50.8446382, "lon": 4.4364974, "tags": {"amenity": "restaurant", "level": "0", "name": "Frida la Blonde", "opening_hours": "Mo-Sa 10:00-19:00", "takeaway": "yes", "wheelchair": "designated"}}, {"type": "node", "id": 7989780571, "lat": 50.8447668, "lon": 4.4374505, "tags": {"amenity": "restaurant", "cuisine": "sushi", "level": "0", "name": "Ohsho", "opening_hours": "Mo-Sa 10:00-19:00"}}, {"type": "node", "id": 8476208676, "lat": 50.8422647, "lon": 4.4352697, "tags": {"amenity": "restaurant", "cuisine": "asian", "name": "Calamansi"}}, {"type": "node", "id": 8491697639, "lat": 50.8445114, "lon": 4.4156797, "tags": {"amenity": "restaurant", "cuisine": "sushi", "name": "Umino Sushi"}}, {"type": "node", "id": 8497503776, "lat": 50.8448478, "lon": 4.4366391, "tags": {"amenity": "restaurant", "level": "0", "name": "CHITIR Fried Chicken & More", "opening_hours": "Mo-Sa 10:00-19:00"}}, {"type": "node", "id": 8497503778, "lat": 50.8448547, "lon": 4.4372452, "tags": {"amenity": "restaurant", "cuisine": "sushi", "level": "0", "name": "Sushi Mart", "opening_hours": "Mo-Sa 10:00-19:00", "takeaway": "only"}}, {"type": "node", "id": 8617276129, "lat": 50.8508978, "lon": 4.4514631, "tags": {"amenity": "restaurant", "check_date:opening_hours": "2025-10-29", "contact:phone": "+32 2 771 78 17", "name": "Le Panier de Saint-Luc", "opening_hours:signed": "no"}}, {"type": "node", "id": 8628214736, "lat": 50.8499148, "lon": 4.4527022, "tags": {"amenity": "restaurant", "bar": "yes", "brewery": "yes", "contact:phone": "+32 2 779 57 36", "name": "Le Traminot", "outdoor_seating": "yes"}}, {"type": "node", "id": 8638563748, "lat": 50.8447118, "lon": 4.4164799, "tags": {"amenity": "restaurant", "contact:phone": "+32 2 762 88 08", "cuisine": "cambodian;indochinese", "name": "Kampuchea", "opening_hours": "We-Su 12:00-14:30, 18:30-22:30", "opening_hours:covid19": "We-Su 12:00-14:30, 18:00-22:00", "wheelchair": "no"}}, {"type": "node", "id": 8645123603, "lat": 50.8504809, "lon": 4.4529784, "tags": {"amenity": "restaurant", "contact:phone": "+32 10 47 33 86", "contact:website": "https://uclouvain.be/fr/decouvrir/resto-u/le-martin-v-self.html", "name": "Le Martin V", "opening_hours": "Mo-Fr 12:00-14:00", "operator": "UCLouvain", "self_service": "only"}}, {"type": "node", "id": 8645123606, "lat": 50.850332, "lon": 4.4535946, "tags": {"amenity": "restaurant", "level": "0", "name": "Stamene\u00ef"}}, {"type": "node", "id": 8662891108, "lat": 50.8496842, "lon": 4.4522051, "tags": {"amenity": "restaurant", "check_date:opening_hours": "2025-10-29", "contact:phone": "+32 2 309 92 02", "name": "Le Cercle de la Vecqu\u00e9e", "opening_hours:signed": "no"}}, {"type": "node", "id": 8665200636, "lat": 50.8486117, "lon": 4.4504745, "tags": {"amenity": "restaurant", "contact:mobile": "+32 485 26 64 27", "contact:website": "https://www.scottysnzpies.be/", "cuisine": "new_zealand", "name": "Scotty's NZ Pies \u2013 The Kiwi Traiteur"}}, {"type": "node", "id": 8688610001, "lat": 50.8488669, "lon": 4.4335142, "tags": {"amenity": "restaurant", "check_date:opening_hours": "2025-10-24", "cuisine": "vietnamese", "name": "Le N\u00e9nuphar", "opening_hours": "Tu-Sa 12:00-14:00,19:00-22:00; Su,Mo off", "wheelchair": "no"}}, {"type": "node", "id": 8979380993, "lat": 50.8408007, "lon": 4.4351235, "tags": {"amenity": "restaurant", "check_date": "2024-07-11", "contact:facebook": "https://www.facebook.com/Little-Valley-100506755548575/", "cuisine": "thai", "name": "Little Valley", "takeaway": "yes"}}, {"type": "node", "id": 8998951567, "lat": 50.8514893, "lon": 4.4516959, "tags": {"amenity": "restaurant", "check_date:opening_hours": "2025-10-29", "contact:phone": "+32 2 764 37 36", "contact:website": "https://www.saintluc.be/fr/restauration", "level": "0", "name": "Le Lucullus", "opening_hours": "Mo-Su 11:30-14:15"}}, {"type": "node", "id": 8998951568, "lat": 50.8518887, "lon": 4.4519387, "tags": {"amenity": "restaurant", "contact:phone": "+32 2 764 12 45", "contact:website": "https://www.saintluc.be/fr/restauration", "level": "4", "name": "Le Medoc", "opening_hours": "Mo-Sa 11:30-17:30"}}, {"type": "node", "id": 8998951581, "lat": 50.8522081, "lon": 4.4520926, "tags": {"amenity": "restaurant", "check_date:opening_hours": "2025-10-29", "level": "4", "name": "Chou Vert et Vert Chou", "opening_hours": "Mo-Fr 07:00-18:00; Sa-Su 11:00-18:00", "website": "https://www.saintluc.be/fr/restauration"}}, {"type": "node", "id": 9547242217, "lat": 50.8424128, "lon": 4.4110972, "tags": {"amenity": "restaurant", "name": "L\u2019H\u00e9ritier"}}, {"type": "node", "id": 10901496598, "lat": 50.8483754, "lon": 4.4248768, "tags": {"amenity": "restaurant", "cuisine": "chinese", "opening_hours": "Mo-Su 11:30-14:00,17:00-22:30"}}, {"type": "node", "id": 10902212531, "lat": 50.848374, "lon": 4.4250515, "tags": {"amenity": "restaurant", "contact:phone": "+32 2 771 33 98", "contact:website": "https://demauriceaolivier.be/", "cuisine": "french", "name": "De Maurice \u00e0 Olivier", "opening_hours": "Tu-Sa 12:00-14:00,19:00-21:00, Mo 12:00-14:00"}}, {"type": "node", "id": 11225720443, "lat": 50.8384764, "lon": 4.4126551, "tags": {"amenity": "restaurant", "check_date": "2025-10-28", "contact:mobile": "+32 471 04 63 60", "contact:phone": "+32 2 763 46 56", "cuisine": "italian", "level": "0", "name": "Pane Amore & Fantasia"}}, {"type": "node", "id": 11682340321, "lat": 50.84594, "lon": 4.4164972, "tags": {"amenity": "restaurant", "contact:email": "maremonti.resto@hotmail.com", "contact:fax": "+32 2 779 09 81", "contact:phone": "+32 2 772 67 33", "contact:website": "https://sites.resto.com/mareemonti/", "cuisine": "italian", "name": "Mare e Monti"}}, {"type": "node", "id": 11696776520, "lat": 50.8428688, "lon": 4.4088992, "tags": {"amenity": "restaurant", "contact:mobile": "+32 499 89 44 47", "cuisine": "indian", "diet:vegan": "yes", "diet:vegetarian": "yes", "name": "Dastaan", "opening_hours": "Tu-Fr 11:00-14:30,18:00-22:30; Sa-Su 11:30-14:30, 18:00-22:30", "website": "https://www.dastaan.be"}}, {"type": "node", "id": 12079295515, "lat": 50.8469286, "lon": 4.4408979, "tags": {"amenity": "restaurant", "contact:phone": "+32 2 763 33 88", "contact:website": "http://kwakbrasserie.be", "name": "Brasserie Kwak", "opening_hours": "PH,Mo-Su 12:00-23:00", "opening_hours:kitchen": "PH,Mo-Su 12:00-22:30"}}, {"type": "node", "id": 12090173061, "lat": 50.846786, "lon": 4.4176412, "tags": {"amenity": "restaurant", "cuisine": "asian", "name": "TchinTchin", "opening_hours": "Mo-Su 12:00-14:30,18:00-22:30"}}, {"type": "node", "id": 12152274407, "lat": 50.8440685, "lon": 4.4206956, "tags": {"amenity": "restaurant", "cuisine": "lebanese", "diet:vegetarian": "yes", "name": "Mawal", "opening_hours": "Tu-Su 12:00-15:00,18:00-22:00"}}, {"type": "node", "id": 12152274408, "lat": 50.8440935, "lon": 4.420627, "tags": {"amenity": "restaurant", "check_date:opening_hours": "2021-08-29", "cuisine": "greek", "name": "Delphes", "opening_hours": "Tu-Su 12:00-14:30,18:30-23:00"}}, {"type": "node", "id": 12152274409, "lat": 50.8441647, "lon": 4.4204074, "tags": {"amenity": "restaurant", "contact:email": "pro@latrinacria.be", "contact:phone": "+32 2 265 62 76", "contact:website": "https://latrinacria.be", "cuisine": "italian", "delivery": "yes", "name": "La Trinacria", "note": "you can only eat on spot if you reserve in advance / between 10 & 40 people", "opening_hours": "\"by appointment\"", "outdoor_seating": "yes", "takeaway": "only"}}, {"type": "node", "id": 12152274410, "lat": 50.8441888, "lon": 4.4203043, "tags": {"amenity": "restaurant", "name": "Le coq en p\u00e2te", "opening_hours": "Tu-Su 12:00-14:00,19:00-22:00", "outdoor_seating": "yes"}}, {"type": "node", "id": 12152274411, "lat": 50.8433109, "lon": 4.4237353, "tags": {"amenity": "restaurant", "cuisine": "japanese;thai", "name": "Le Camelia", "opening_hours": "We-Mo 12:00-14:30,18:30-22:30"}}, {"type": "node", "id": 12152274414, "lat": 50.8432622, "lon": 4.4239275, "tags": {"amenity": "restaurant", "contact:website": "https://restaurantremember.be", "cuisine": "french;regional", "name": "Remember", "opening_hours": "Th-Sa 11:30-15:30,18:30-22:30; Su 11:30-15:30", "takeaway": "yes"}}, {"type": "node", "id": 12152274429, "lat": 50.8439079, "lon": 4.4218567, "tags": {"amenity": "restaurant", "check_date:opening_hours": "2021-09-11", "contact:phone": "+32 2 762 43 59", "diet:vegan": "yes", "diet:vegetarian": "yes", "name": "Saveurs d'Asie", "opening_hours": "Tu-Su 11:30-14:30,17:30-22:00", "outdoor_seating": "no", "payment:cash": "yes", "payment:credit_cards": "no", "payment:maestro": "yes", "roof:shape": "gabled", "takeaway": "yes", "wheelchair": "no"}}, {"type": "node", "id": 12201204151, "lat": 50.8484089, "lon": 4.4246045, "tags": {"amenity": "restaurant", "cuisine": "spanish", "name": "Serdat"}}, {"type": "node", "id": 12206584397, "lat": 50.8472201, "lon": 4.4497392, "tags": {"amenity": "restaurant", "cuisine": "greek", "name": "Mykonos"}}, {"type": "node", "id": 12230103533, "lat": 50.840936, "lon": 4.4349726, "tags": {"amenity": "restaurant", "check_date": "2024-07-11", "cuisine": "international", "diet:vegetarian": "yes", "name": "Buls", "opening_hours": "Mo-Fr 12:00-14:30"}}, {"type": "node", "id": 12230103535, "lat": 50.8410527, "lon": 4.4347621, "tags": {"amenity": "restaurant", "check_date": "2024-07-11", "contact:phone": "+32 2 770 05 55", "contact:website": "https://alpiccolo.net", "cuisine": "italian", "name": "Al Piccolo", "opening_hours": "Tu-Fr 12:00-13:30,18:30-21:30; Sa 18:30-21:30; PH off"}}, {"type": "node", "id": 12593140280, "lat": 50.8586031, "lon": 4.4312318, "tags": {"amenity": "restaurant", "contact:website": "https://hanoistation.be", "cuisine": "vietnamese", "name": "Hanoi Station", "takeaway": "yes"}}, {"type": "node", "id": 12925894762, "lat": 50.8622153, "lon": 4.4275558, "tags": {"amenity": "restaurant", "contact:mobile": "+32 470 68 84 41", "contact:url": "https://restaurantdelopera.be/", "cuisine": "romanian", "name": "Restaurant de l'Op\u00e9ra", "opening_hours": "Mo 16:00-22:00; Tu-Fr,Su 11:30-22:00; Sa 11:30-24:00"}}, {"type": "node", "id": 13006986076, "lat": 50.8430827, "lon": 4.410434, "tags": {"amenity": "restaurant", "contact:phone": "+32 2 736 40 42", "contact:website": "https://www.restaurant-pintong.be/", "cuisine": "thai", "name": "Pintong", "opening_hours": "Mo,Tu,Th-Sa 11:30-14:30,17:30-22:00", "outdoor_seating": "parklet", "payment:cash": "yes", "payment:maestro": "yes", "takeaway": "yes"}}, {"type": "node", "id": 13121622725, "lat": 50.8424571, "lon": 4.4071924, "tags": {"amenity": "restaurant", "check_date": "2025-09-05", "contact:mobile": "+32 492 99 39 49", "contact:website": "https://www.sanbiagio.be/", "cuisine": "pizza", "name": "San Biagio", "opening_hours": "Mo off; Tu-Su 12:00-14:00,18:00-22:00", "payment:cash": "yes", "payment:credit_cards": "yes", "payment:debit_cards": "yes", "takeaway": "only"}}, {"type": "node", "id": 13173702729, "lat": 50.8423231, "lon": 4.406809, "tags": {"amenity": "restaurant", "name": "Le Martin P\u00eacheur", "wheelchair": "yes"}}, {"type": "node", "id": 13448460301, "lat": 50.8437492, "lon": 4.4125821, "tags": {"amenity": "restaurant", "contact:phone": "+32 2 733 20 82", "contact:website": "https://www.nem-saigon.be/", "cuisine": "vietnamese", "name": "Nem Saigon", "opening_hours": "Tu-Su 10:00-15:00, 17:30-21:00"}}, {"type": "way", "id": 174847459, "nodes": [2322155148, 2322155182, 2322155184, 1048680364, 2322155153, 2322155126, 1048680766, 1048680436, 2322154587, 2322155142, 2322155145, 2322155148], "tags": {"amenity": "restaurant", "building": "yes", "name": "Twins", "ref:UrbIS": "7759424"}}]}