{"version": 0.6, "generator": "Overpass API 0.7.62.10 2d4cfc48", "osm3s": {"timestamp_osm_base": "2026-02-03T08:39:30Z", "copyright": "The data included in this document is from www.openstreetmap.org. The data is made available under ODbL."}, "elements": [{"type": "node", "id": 503862736, "lat": 50.8643144, "lon": 4.2965897, "tags": {"name": "Schweitzer", "public_transport": "stop_position", "railway": "tram_stop", "tram": "yes"}}, {"type": "node", "id": 504912179, "lat": 50.8618621, "lon": 4.301607, "tags": {"name": "Genot", "public_transport": "stop_position", "railway": "tram_stop", "tram": "yes"}}, {"type": "node", "id": 2621665163, "lat": 50.8644177, "lon": 4.2970903, "tags": {"name": "Schweitzer", "public_transport": "stop_position", "railway": "tram_stop", "tram": "yes"}}, {"type": "node", "id": 2621665200, "lat": 50.8662636, "lon": 4.3032183, "tags": {"name": "Valida", "public_transport": "stop_position", "railway": "tram_stop", "tram": "yes"}}, {"type": "node", "id": 2621665202, "lat": 50.8663001, "lon": 4.3034636, "tags": {"name": "Valida", "public_transport": "stop_position", "railway": "tram_stop", "tram": "yes"}}, {"type": "node", "id": 2621665244, "lat": 50.8668333, "lon": 4.3083167, "tags": {"name": "Goffin", "public_transport": "stop_position", "railway": "tram_stop", "tram": "yes"}}, {"type": "node", "id": 2622780798, "lat": 50.8666645, "lon": 4.2872884, "tags": {"name": "Azur - Azuur", "name:fr": "Azur", "name:nl": "Azuur", "public_transport": "stop_position", "railway": "tram_stop", "tram": "yes"}}, {"type": "node", "id": 2622780826, "lat": 50.8667131, "lon": 4.2868669, "tags": {"name": "Azur - Azuur", "name:fr": "Azur", "name:nl": "Azuur", "public_transport": "stop_position", "railway": "tram_stop", "tram": "yes"}}, {"type": "node", "id": 2622781044, "lat": 50.866963, "lon": 4.281719, "tags": {"name": "Hunderenveld", "public_transport": "stop_position", "railway": "tram_stop", "tram": "yes"}}, {"type": "node", "id": 2622781063, "lat": 50.8670274, "lon": 4.2812933, "tags": {"name": "Hunderenveld", "public_transport": "stop_position", "railway": "tram_stop", "tram": "yes"}}, {"type": "node", "id": 3148931255, "lat": 50.8628069, "lon": 4.2996446, "tags": {"name": "Genot", "public_transport": "stop_position", "railway": "tram_stop", "tram": "yes"}}, {"type": "node", "id": 3148931390, "lat": 50.8676453, "lon": 4.2937164, "tags": {"name": "Alcyons", "public_transport": "stop_position", "railway": "tram_stop", "tram": "yes"}}, {"type": "node", "id": 4119734727, "lat": 50.8726741, "lon": 4.2902259, "tags": {"name": "Gare de Berchem - Station Berchem", "name:fr": "Gare de Berchem", "name:nl": "Station Berchem", "public_transport": "stop_position", "railway": "tram_stop", "tram": "yes"}}, {"type": "node", "id": 4119734728, "lat": 50.8725128, "lon": 4.2898659, "tags": {"name": "Gare de Berchem - Station Berchem", "name:fr": "Gare de Berchem", "name:nl": "Station Berchem", "public_transport": "stop_position", "railway": "tram_stop", "tram": "yes"}}, {"type": "node", "id": 4806111950, "lat": 50.8733084, "lon": 4.2914588, "tags": {"name": "Gare de Berchem - Station Berchem", "name:fr": "Gare de Berchem", "name:nl": "Station Berchem", "public_transport": "stop_position", "railway": "tram_stop", "tram": "yes"}}, {"type": "node", "id": 5160727654, "lat": 50.8652663, "lon": 4.2929078, "tags": {"name": "Vereman", "public_transport": "stop_position", "railway": "tram_stop", "tram": "yes"}}, {"type": "node", "id": 5160727664, "lat": 50.865346, "lon": 4.2925824, "tags": {"name": "Vereman", "public_transport": "stop_position", "railway": "tram_stop", "tram": "yes"}}, {"type": "node", "id": 5161775873, "lat": 50.8645974, "lon": 4.2971593, "tags": {"name": "Schweitzer", "public_transport": "stop_position", "railway": "tram_stop", "tram": "yes"}}, {"type": "node", "id": 5161775883, "lat": 50.8648845, "lon": 4.2968545, "tags": {"name": "Schweitzer", "public_transport": "stop_position", "railway": "tram_stop", "tram": "yes"}}, {"type": "node", "id": 5161948452, "lat": 50.8671229, "lon": 4.3135102, "tags": {"name": "Coll\u00e8ge Sacr\u00e9-C\u0153ur - Heilig Hartcollege", "name:fr": "Coll\u00e8ge Sacr\u00e9-C\u0153ur", "name:nl": "Heilig Hartcollege", "public_transport": "stop_position", "railway": "tram_stop", "tram": "yes"}}, {"type": "node", "id": 5311820581, "lat": 50.8667805, "lon": 4.2945649, "tags": {"name": "Alcyons", "public_transport": "stop_position", "railway": "tram_stop", "tram": "yes"}}, {"type": "node", "id": 5396827419, "lat": 50.8706359, "lon": 4.2911178, "tags": {"name": "Berchem-Shopping", "public_transport": "stop_position", "railway": "tram_stop", "tram": "yes"}}, {"type": "node", "id": 5404149153, "lat": 50.8695792, "lon": 4.2919725, "tags": {"name": "Berchem-Shopping", "public_transport": "stop_position", "railway": "tram_stop", "tram": "yes"}}]}