{"version": 0.6, "generator": "Overpass API 0.7.62.10 2d4cfc48", "osm3s": {"timestamp_osm_base": "2026-02-02T15:51:31Z", "copyright": "The data included in this document is from www.openstreetmap.org. The data is made available under ODbL."}, "elements": [{"type": "node", "id": 4191209238, "lat": 50.7896869, "lon": 4.374618, "tags": {"amenity": "cafe", "check_date:opening_hours": "2025-01-22", "contact:instagram": "calum.brussels", "name": "Calum", "opening_hours": "Mo-Fr 08:30-17:00; Sa 10:00-17:00; PH off", "outdoor_seating": "yes"}}, {"type": "node", "id": 4361777824, "lat": 50.8033496, "lon": 4.3388022, "tags": {"amenity": "cafe", "brand": "Le Pain Quotidien", "brand:wikidata": "Q2046903", "check_date": "2025-02-07", "cuisine": "coffee_shop", "diet:vegan": "yes", "diet:vegetarian": "yes", "name": "Le Pain Quotidien", "opening_hours": "Mo-Sa 07:30-18:00; Su 08:00-18:00", "operator": "Le Pain Quotidien", "outdoor_seating": "yes", "phone": "+32 2 344 04 14", "shop": "bakery", "takeaway": "yes", "website": "https://www.lepainquotidien.com/be/en/locations/Parvis%20St-Pierre/Parvis-Saint-Pierre-16", "wheelchair": "limited"}}, {"type": "node", "id": 4869955189, "lat": 50.8114789, "lon": 4.3428415, "tags": {"amenity": "cafe", "name": "Chat Rabiat"}}, {"type": "node", "id": 6509710099, "lat": 50.7877037, "lon": 4.3315098, "tags": {"amenity": "cafe", "contact:phone": "+32 2 376 21 92", "contact:website": "https://delifrancerestaurants.com/ucclechateauxdor", "name": "D\u00e9lifrance", "opening_hours": "Mo-Fr 07:00-20:00; Sa 08:00-20:00; Su 09:30-18:30"}}, {"type": "node", "id": 9532094923, "lat": 50.8145414, "lon": 4.3670389, "tags": {"amenity": "cafe", "contact:phone": "+32 2 267 11 57", "cuisine": "swedish;coffee_shop", "name": "Kanel Brussels", "opening_hours": "Tu-Sa 08:00-17:00", "takeaway": "only"}}, {"type": "node", "id": 9773423620, "lat": 50.790331, "lon": 4.3750781, "tags": {"amenity": "cafe", "check_date:opening_hours": "2025-02-20", "name": "Alphonse", "opening_hours": "Mo-Fr 08:00-17:00; Sa 10:00-17:00; PH off"}}, {"type": "node", "id": 10778924239, "lat": 50.8138305, "lon": 4.3487966, "tags": {"amenity": "cafe", "contact:email": "dinettecafebxl@gmail.com", "contact:website": "https://dinettecafe.be", "description": "D\u00eenette est un espace accueillant, un caf\u00e9 kid friendly \u00e0 l'atmosph\u00e8re bienveillante et unique,", "name": "D\u00eenette"}}, {"type": "node", "id": 11627665927, "lat": 50.7834139, "lon": 4.3307736, "tags": {"amenity": "cafe", "contact:phone": "+32 2 376 45 69", "contact:website": "https://cafe-lesilence.be", "name": "Caf\u00e9 Le Silence", "opening_hours": "Mo-Sa 08:15-18:15", "payment:cards": "yes", "payment:cash": "yes", "payment:qr_code": "no"}}, {"type": "node", "id": 12198805086, "lat": 50.8137664, "lon": 4.3471637, "tags": {"amenity": "cafe", "check_date": "2024-10-05", "check_date:opening_hours": "2024-10-05", "name": "Le Jump", "opening_hours:signed": "no"}}]}