{"version": 0.6, "generator": "Overpass API 0.7.62.10 2d4cfc48", "osm3s": {"timestamp_osm_base": "2026-02-02T16:12:54Z", "copyright": "The data included in this document is from www.openstreetmap.org. The data is made available under ODbL."}, "elements": [{"type": "node", "id": 1229581632, "lat": 50.8612572, "lon": 4.3424628, "tags": {"amenity": "bar", "name": "Place Mexico"}}, {"type": "node", "id": 2915242606, "lat": 50.8576019, "lon": 4.3192265, "tags": {"amenity": "bar", "name": "Le Saint Charles", "opening_hours": "\"Until ~23:00\"", "smoking": "outside"}}, {"type": "node", "id": 2915242655, "lat": 50.8578629, "lon": 4.3191298, "tags": {"amenity": "bar", "name": "La Aurelia", "note": "Opening hours unknown apart from this: open until 01:00", "smoking": "outside"}}, {"type": "node", "id": 4202993303, "lat": 50.8511032, "lon": 4.3379226, "tags": {"amenity": "bar", "operator": "Meininger"}}, {"type": "node", "id": 4382262618, "lat": 50.8531473, "lon": 4.330077, "tags": {"amenity": "bar", "name": "Event Brewery Brussels", "website": "http://eventbrewery.eu/"}}, {"type": "node", "id": 9727133716, "lat": 50.8486805, "lon": 4.3223711, "tags": {"amenity": "bar", "name": "Cafe de Metro"}}, {"type": "node", "id": 10587447256, "lat": 50.8656075, "lon": 4.339188, "tags": {"amenity": "bar", "name": "New Duc"}}, {"type": "node", "id": 10587447257, "lat": 50.8613364, "lon": 4.3380255, "tags": {"amenity": "bar", "name": "Duc de Brabant"}}, {"type": "node", "id": 12329314869, "lat": 50.8491287, "lon": 4.3349349, "tags": {"amenity": "bar", "contact:instagram": "ecluse.kiosk", "live_music": "yes", "name": "L'\u00c9cluse", "opening_hours": "Mo-Th 16:00-21:00; Fr 15:00-21:00; Sa,Su 11:00-21:00", "outdoor_seating": "yes", "ref:vatin": "BE0798751448", "start_date": "2023-02-22", "wikidata": "Q131139415"}}]}