{"version": 0.6, "generator": "Overpass API 0.7.62.10 2d4cfc48", "osm3s": {"timestamp_osm_base": "2026-02-02T16:12:54Z", "copyright": "The data included in this document is from www.openstreetmap.org. The data is made available under ODbL."}, "elements": [{"type": "node", "id": 2622779361, "lat": 50.8557009, "lon": 4.3575865, "tags": {"name": "Avenue du Boulevard - Bolwerklaan", "name:fr": "Avenue du Boulevard", "name:nl": "Bolwerklaan", "railway": "subway_entrance", "ref": "5", "wheelchair": "no"}}, {"type": "node", "id": 2622779362, "lat": 50.8552468, "lon": 4.3587768, "tags": {"name": "Place Charles Rogier - Karel Rogierplein", "name:fr": "Place Charles Rogier", "name:nl": "Karel Rogierplein", "railway": "subway_entrance", "ref": "8", "wheelchair": "no"}}, {"type": "node", "id": 2780395169, "lat": 50.8488959, "lon": 4.3697191, "tags": {"name": "Place Madou - Madouplein", "name:fr": "Place Madou", "name:nl": "Madouplein", "railway": "subway_entrance", "ref": "1", "wheelchair": "no"}}, {"type": "node", "id": 2783946149, "lat": 50.8498344, "lon": 4.3694424, "tags": {"name": "Place Madou - Madouplein", "name:fr": "Place Madou", "name:nl": "Madouplein", "railway": "subway_entrance", "ref": "4", "wheelchair": "no"}}, {"type": "node", "id": 3202278595, "lat": 50.8505213, "lon": 4.3690657, "tags": {"railway": "subway_entrance", "ref": "3", "wheelchair": "no"}}, {"type": "node", "id": 3994385482, "lat": 50.8535749, "lon": 4.3661774, "tags": {"name": "Rue Royale - Koningsstraat", "name:fr": "Rue Royale", "name:nl": "Koningsstraat", "railway": "subway_entrance", "ref": "1", "wheelchair": "no"}}, {"type": "node", "id": 4746034366, "lat": 50.8537531, "lon": 4.3663097, "tags": {"railway": "subway_entrance", "ref": "1H", "wheelchair": "yes"}}, {"type": "node", "id": 4806159681, "lat": 50.8556607, "lon": 4.3587348, "tags": {"name": "Place Charles Rogier - Karel Rogierplein", "name:fr": "Place Charles Rogier", "name:nl": "Karel Rogierplein", "railway": "subway_entrance", "ref": "7"}}, {"type": "node", "id": 4824887567, "lat": 50.8556519, "lon": 4.3590858, "tags": {"name": "Place Charles Rogier - Karel Rogierplein", "name:fr": "Place Charles Rogier", "name:nl": "Karel Rogierplein", "railway": "subway_entrance", "ref": "7", "wheelchair": "no"}}, {"type": "node", "id": 5308392879, "lat": 50.8558631, "lon": 4.3581182, "tags": {"indoor": "yes", "layer": "-1", "level": "-1", "location": "underground", "name": "Manhattan Center", "railway": "subway_entrance", "ref": "3"}}, {"type": "node", "id": 5383083882, "lat": 50.8555408, "lon": 4.3587982, "tags": {"name": "Place Charles Rogier - Karel Rogierplein", "name:fr": "Place Charles Rogier", "name:nl": "Karel Rogierplein", "railway": "subway_entrance", "ref": "7"}}, {"type": "node", "id": 11669391660, "lat": 50.8554192, "lon": 4.3590232, "tags": {"railway": "subway_entrance", "ref": "6", "wheelchair": "yes"}}]}