{"version": 0.6, "generator": "Overpass API 0.7.62.10 2d4cfc48", "osm3s": {"timestamp_osm_base": "2026-02-03T11:32:45Z", "copyright": "The data included in this document is from www.openstreetmap.org. The data is made available under ODbL."}, "elements": [{"type": "node", "id": 3749377499, "lat": 50.8853773, "lon": 4.3168242, "tags": {"name": "Ancienne Barri\u00e8re - Oude Afspanning", "name:fr": "Ancienne Barri\u00e8re", "name:nl": "Oude Afspanning", "public_transport": "stop_position", "railway": "tram_stop", "tram": "yes"}}, {"type": "node", "id": 4793588097, "lat": 50.8930149, "lon": 4.3150481, "tags": {"name": "Arbre Ballon - Dikke Beuk", "name:fr": "Arbre Ballon", "name:nl": "Dikke Beuk", "public_transport": "stop_position", "railway": "tram_stop", "tram": "yes"}}, {"type": "node", "id": 4793588119, "lat": 50.8900553, "lon": 4.3091862, "tags": {"name": "UZ P\u00e9diatrie - UZ Pediatrie", "name:fr": "UZ P\u00e9diatrie", "name:nl": "UZ Pediatrie", "public_transport": "stop_position", "railway": "tram_stop", "tram": "yes"}}, {"type": "node", "id": 5083583390, "lat": 50.8929238, "lon": 4.3129683, "tags": {"name": "Arbre Ballon - Dikke Beuk", "name:fr": "Arbre Ballon", "name:nl": "Dikke Beuk", "public_transport": "stop_position", "railway": "tram_stop", "tram": "yes"}}, {"type": "node", "id": 5083804724, "lat": 50.8894983, "lon": 4.3094408, "tags": {"name": "UZ P\u00e9diatrie - UZ Pediatrie", "name:fr": "UZ P\u00e9diatrie", "name:nl": "UZ Pediatrie", "public_transport": "stop_position", "railway": "tram_stop", "tram": "yes"}}, {"type": "node", "id": 5418428410, "lat": 50.8863452, "lon": 4.3116287, "tags": {"name": "UZ Brussel", "public_transport": "stop_position", "railway": "tram_stop", "tram": "yes"}}, {"type": "node", "id": 5418428411, "lat": 50.8866489, "lon": 4.3113402, "tags": {"name": "UZ Brussel", "public_transport": "stop_position", "railway": "tram_stop", "tram": "yes"}}, {"type": "node", "id": 5869676575, "lat": 50.8800443, "lon": 4.3159713, "tags": {"name": "Exposition - Tentoonstelling", "name:fr": "Exposition", "name:nl": "Tentoonstelling", "public_transport": "stop_position", "railway": "tram_stop", "tram": "yes"}}, {"type": "node", "id": 5869708349, "lat": 50.8854506, "lon": 4.3162726, "tags": {"name": "Ancienne Barri\u00e8re - Oude Afspanning", "name:fr": "Ancienne Barri\u00e8re", "name:nl": "Oude Afspanning", "public_transport": "stop_position", "railway": "tram_stop", "tram": "yes"}}]}