{"version": 0.6, "generator": "Overpass API 0.7.62.10 2d4cfc48", "osm3s": {"timestamp_osm_base": "2026-02-02T15:47:30Z", "copyright": "The data included in this document is from www.openstreetmap.org. The data is made available under ODbL."}, "elements": [{"type": "node", "id": 142700510, "lat": 50.8428062, "lon": 4.3818382, "tags": {"name": "Schuman", "name:etymology:wikidata": "Q15981", "network": "IBXL", "network:wikidata": "Q114957008", "operator": "STIB/MIVB", "operator:wikidata": "Q1631655", "public_transport": "station", "railway": "station", "ref:STIB_MIVB": "06", "station": "subway", "subway": "yes", "wheelchair": "yes", "wikidata": "Q2176793", "wikipedia": "nl:Schuman (metrostation)"}}, {"type": "node", "id": 142700511, "lat": 50.8455451, "lon": 4.36877, "tags": {"name": "Arts-Loi - Kunst-Wet", "name:fr": "Arts-Loi", "name:nl": "Kunst-Wet", "network": "IBXL", "network:wikidata": "Q114957008", "operator": "STIB/MIVB", "operator:wikidata": "Q1631655", "public_transport": "station", "railway": "station", "ref:STIB_MIVB": "04;40", "station": "subway", "subway": "yes", "wheelchair": "yes", "wikidata": "Q893211", "wikipedia": "fr:Arts-Loi (m\u00e9tro de Bruxelles)"}}, {"type": "node", "id": 142700522, "lat": 50.8465485, "lon": 4.3586397, "tags": {"alt_name:de": "Zentralbahnhof", "alt_name:en": "Central Station", "alt_name:es": "Gran Central Station", "name": "Gare Centrale - Centraal Station", "name:etymology:wikidata": "Q800588", "name:fr": "Gare Centrale", "name:nl": "Centraal Station", "network": "IBXL", "network:wikidata": "Q114957008", "operator": "STIB/MIVB", "operator:wikidata": "Q1631655", "public_transport": "station", "railway": "station", "ref:STIB_MIVB": "02", "station": "subway", "subway": "yes", "wheelchair": "yes", "wikidata": "Q3095502", "wikipedia": "fr:Gare Centrale (m\u00e9tro de Bruxelles)"}}, {"type": "node", "id": 142719362, "lat": 50.8499233, "lon": 4.3523796, "tags": {"name": "De Brouck\u00e8re", "name:etymology:wikidata": "Q1066539", "network": "IBXL", "network:wikidata": "Q114957008", "operator": "STIB/MIVB", "operator:wikidata": "Q1631655", "public_transport": "station", "railway": "station", "ref:STIB_MIVB": "01", "station": "subway", "subway": "yes", "wheelchair": "yes", "wikidata": "Q3020106", "wikipedia": "fr:De Brouck\u00e8re (m\u00e9tro de Bruxelles)"}}, {"type": "node", "id": 142719368, "lat": 50.8521404, "lon": 4.3478425, "tags": {"name": "Sainte-Catherine - Sint-Katelijne", "name:etymology:wikidata": "Q179718", "name:fr": "Sainte-Catherine", "name:nl": "Sint-Katelijne", "network": "IBXL", "network:wikidata": "Q114957008", "operator": "STIB/MIVB", "operator:wikidata": "Q1631655", "public_transport": "station", "railway": "station", "ref:STIB_MIVB": "27", "station": "subway", "subway": "yes", "toilets:wheelchair": "no", "wheelchair": "yes", "wikidata": "Q2744420", "wikipedia": "fr:Sainte-Catherine (m\u00e9tro de Bruxelles)"}}, {"type": "node", "id": 142758829, "lat": 50.833342, "lon": 4.3487828, "tags": {"name": "H\u00f4tel des Monnaies - Munthof", "name:etymology:wikidata": "Q3146233", "name:fr": "H\u00f4tel des Monnaies", "name:nl": "Munthof", "network": "IBXL", "network:wikidata": "Q114957008", "operator": "STIB/MIVB", "operator:wikidata": "Q1631655", "public_transport": "station", "railway": "station", "ref:STIB_MIVB": "33", "station": "subway", "subway": "yes", "wheelchair": "no", "wikidata": "Q2560888", "wikipedia": "fr:H\u00f4tel des Monnaies (m\u00e9tro de Bruxelles)"}}, {"type": "node", "id": 142758831, "lat": 50.8353919, "lon": 4.3546677, "tags": {"name": "Louise - Louiza", "name:etymology:wikidata": "Q237318", "name:fr": "Louise", "name:nl": "Louiza", "network": "IBXL", "network:wikidata": "Q114957008", "operator": "STIB/MIVB", "operator:wikidata": "Q1631655", "public_transport": "station", "railway": "station", "ref:STIB_MIVB": "32", "station": "subway", "subway": "yes", "wheelchair": "no", "wikidata": "Q2262956", "wikipedia": "fr:Louise (m\u00e9tro de Bruxelles)"}}, {"type": "node", "id": 142758834, "lat": 50.8382614, "lon": 4.3616931, "tags": {"alt_name:de": "Namener Tor", "name": "Porte de Namur - Naamsepoort", "name:etymology:wikidata": "Q3399071", "name:fr": "Porte de Namur", "name:nl": "Naamsepoort", "network": "IBXL", "network:wikidata": "Q114957008", "operator": "STIB/MIVB", "operator:wikidata": "Q1631655", "public_transport": "station", "railway": "station", "ref:STIB_MIVB": "31", "station": "subway", "subway": "yes", "wheelchair": "yes", "wikidata": "Q2153197", "wikipedia": "fr:Porte de Namur (m\u00e9tro de Bruxelles)"}}, {"type": "node", "id": 142758883, "lat": 50.841247, "lon": 4.3665164, "tags": {"name": "Tr\u00f4ne - Troon", "name:fr": "Tr\u00f4ne", "name:nl": "Troon", "network": "IBXL", "network:wikidata": "Q114957008", "operator": "STIB/MIVB", "operator:wikidata": "Q1631655", "public_transport": "station", "railway": "station", "ref:STIB_MIVB": "30", "station": "subway", "subway": "yes", "wheelchair": "limited", "wikidata": "Q2889894", "wikipedia": "fr:Tr\u00f4ne (m\u00e9tro de Bruxelles)"}}, {"type": "node", "id": 143701411, "lat": 50.8573007, "lon": 4.3513146, "tags": {"name": "Yser - IJzer", "name:etymology:wikidata": "Q217061", "name:fr": "Yser", "name:nl": "IJzer", "network": "IBXL", "network:wikidata": "Q114957008", "operator": "STIB/MIVB", "operator:wikidata": "Q1631655", "public_transport": "station", "railway": "station", "ref:STIB_MIVB": "44", "station": "subway", "subway": "yes", "wheelchair": "yes", "wikidata": "Q2715354", "wikipedia": "fr:Yser (m\u00e9tro de Bruxelles)"}}, {"type": "node", "id": 144271265, "lat": 50.886095, "lon": 4.3419624, "tags": {"name": "Stuyvenbergh", "name:etymology:wikidata": "Q1992121", "network": "IBXL", "network:wikidata": "Q114957008", "operator": "STIB/MIVB", "operator:wikidata": "Q1631655", "public_transport": "station", "railway": "station", "ref:STIB_MIVB": "780", "station": "subway", "subway": "yes", "wheelchair": "no", "wikidata": "Q2559761", "wikipedia": "fr:Stuyvenbergh (m\u00e9tro de Bruxelles)"}}, {"type": "node", "id": 144271273, "lat": 50.8894885, "lon": 4.3377665, "tags": {"name": "Houba-Brugmann", "name:etymology:wikidata": "Q92542850;Q3102386", "network": "IBXL", "network:wikidata": "Q114957008", "operator": "STIB/MIVB", "operator:wikidata": "Q1631655", "public_transport": "station", "railway": "station", "ref:STIB_MIVB": "781", "station": "subway", "subway": "yes", "toilets:wheelchair": "no", "wheelchair": "yes", "wikidata": "Q3141239", "wikipedia": "fr:Houba-Brugmann (m\u00e9tro de Bruxelles)"}}, {"type": "node", "id": 144276150, "lat": 50.8968737, "lon": 4.3359769, "tags": {"name": "Heysel - Heizel", "name:etymology:wikidata": "Q155285", "name:fr": "Heysel", "name:nl": "Heizel", "network": "IBXL", "network:wikidata": "Q114957008", "operator": "STIB/MIVB", "operator:wikidata": "Q1631655", "public_transport": "station", "railway": "station", "ref:STIB_MIVB": "782", "start_date": "1985-07-05", "station": "subway", "subway": "yes", "wheelchair": "yes", "wikidata": "Q2192952", "wikipedia": "en:Heysel/Heizel metro station"}}, {"type": "node", "id": 144283201, "lat": 50.8963504, "lon": 4.327778, "tags": {"name": "Roi Baudouin - Koning Boudewijn", "name:etymology:wikidata": "Q12976", "name:fr": "Roi Baudouin", "name:nl": "Koning Boudewijn", "network": "IBXL", "network:wikidata": "Q114957008", "operator": "STIB/MIVB", "operator:wikidata": "Q1631655", "public_transport": "station", "railway": "station", "ref:STIB_MIVB": "783", "start_date": "1998-08-25", "station": "subway", "subway": "yes", "wheelchair": "no", "wikidata": "Q2090541", "wikipedia": "fr:Roi Baudouin (m\u00e9tro de Bruxelles)"}}, {"type": "node", "id": 145980763, "lat": 50.8438339, "lon": 4.3769687, "tags": {"name": "Maelbeek - Maalbeek", "name:etymology:wikidata": "Q506931", "name:fr": "Maelbeek", "name:nl": "Maalbeek", "network": "IBXL", "network:wikidata": "Q114957008", "operator": "STIB/MIVB", "operator:wikidata": "Q1631655", "public_transport": "station", "railway": "station", "ref:STIB_MIVB": "05", "station": "subway", "subway": "yes", "wheelchair": "yes", "wikidata": "Q2206139", "wikipedia": "fr:Maelbeek (m\u00e9tro de Bruxelles)"}}, {"type": "node", "id": 287288229, "lat": 50.8788488, "lon": 4.347972, "tags": {"name": "Bockstael", "name:etymology:wikidata": "Q19951885", "network": "IBXL", "network:wikidata": "Q114957008", "operator": "STIB/MIVB", "operator:wikidata": "Q1631655", "public_transport": "station", "railway": "station", "ref:STIB_MIVB": "779", "station": "subway", "subway": "yes", "wheelchair": "yes", "wikidata": "Q2443023", "wikipedia": "fr:Bockstael (m\u00e9tro de Bruxelles)"}}, {"type": "node", "id": 3266203405, "lat": 50.8454639, "lon": 4.3569867, "tags": {"bicycle": "no", "bicycle:description": "It is not allowed to mount or dismount bicycles on the train here.", "level": "0", "name": "Bruxelles-Central - Brussel-Centraal", "name:ar": "\u0628\u0631\u0648\u0643\u0633\u0644 \u0627\u0644\u0645\u0631\u0643\u0632\u064a\u0629", "name:de": "Br\u00fcssel Zentralbahnhof", "name:en": "Brussels-Central", "name:fr": "Bruxelles-Central", "name:nl": "Brussel-Centraal", "name:ur": "\u0628\u0631\u0633\u0644\u0632 \u0634\u06c1\u0631 (\u0633\u06cc\u0646\u0679\u0631\u0644)", "operator": "NMBS/SNCB", "operator:wikidata": "Q524255", "public_transport": "station", "railway": "station", "railway:position:exact": "1.500", "railway:ref": "FBCL", "toilets:wheelchair": "yes", "train": "yes", "uic_ref": "8813003", "website": "https://www.belgiantrain.be/station-information/brussel-bruxelles/centraal-central", "wheelchair": "limited", "wheelchair:description": "Most of the entrances are OK, plus there's a lift inside. Some corridors and the access to the trains and to the metro aren't accessible.", "wikidata": "Q800588", "wikipedia": "fr:Gare de Bruxelles-Central", "zone:NMBS_SNCB": "Bruxelles - Brussel"}}, {"type": "node", "id": 3833189777, "lat": 50.878395, "lon": 4.3784579, "tags": {"name": "Schaerbeek - Schaarbeek", "name:fr": "Schaerbeek", "name:nl": "Schaarbeek", "network": "NMBS/SNCB", "network:wikidata": "Q524255", "old_name": "Schaerbeek-Voyageurs - Schaarbeek Reizigers", "operator": "NMBS/SNCB", "operator:wikidata": "Q524255", "public_transport": "station", "railway": "station", "railway:position:exact:L161": "1.240", "railway:position:exact:L25": "2.400", "railway:position:exact:L27": "2.900", "railway:position:exact:L27D": "2.600", "railway:position:exact:L36": "2.900", "railway:position:exact:L36N": "2.900", "railway:ref": "FSR", "ref:EU:PLC": "BE01048", "train": "yes", "uic_ref": "8811007", "website": "https://www.belgiantrain.be/station-information/brussel-bruxelles/schaarbeek-schaerbeek", "wikidata": "Q801418", "wikipedia": "fr:Gare de Schaerbeek", "zone:NMBS_SNCB": "Bruxelles - Brussel"}}, {"type": "node", "id": 4618293165, "lat": 50.8456068, "lon": 4.3622545, "tags": {"name": "Parc - Park", "name:etymology:wikidata": "Q1892311", "name:fr": "Parc", "name:nl": "Park", "network": "IBXL", "network:wikidata": "Q114957008", "operator": "STIB/MIVB", "operator:wikidata": "Q1631655", "public_transport": "station", "railway": "station", "ref:STIB_MIVB": "03", "station": "subway", "subway": "yes", "wheelchair": "no", "wikidata": "Q2016757", "wikipedia": "fr:Parc (m\u00e9tro de Bruxelles)"}}, {"type": "node", "id": 4892514008, "lat": 50.8339923, "lon": 4.3428824, "tags": {"name": "Porte de Hal - Hallepoort", "name:etymology:wikidata": "Q2988142", "name:fr": "Porte de Hal", "name:nl": "Hallepoort", "network": "IBXL", "network:wikidata": "Q114957008", "operator": "STIB/MIVB", "operator:wikidata": "Q1631655", "public_transport": "station", "railway": "station", "ref:STIB_MIVB": "34", "station": "subway", "subway": "yes", "wheelchair": "no", "wikidata": "Q2475970", "wikipedia": "fr:Porte de Hal (m\u00e9tro de Bruxelles)"}}, {"type": "node", "id": 4902681745, "lat": 50.8735372, "lon": 4.3429602, "tags": {"name": "Pannenhuis", "network": "IBXL", "network:wikidata": "Q114957008", "operator": "STIB/MIVB", "operator:wikidata": "Q1631655", "public_transport": "station", "railway": "station", "ref:STIB_MIVB": "778", "station": "subway", "subway": "yes", "wheelchair": "yes", "wikidata": "Q2114262", "wikipedia": "fr:Pannenhuis (m\u00e9tro de Bruxelles)"}}, {"type": "node", "id": 5380583021, "lat": 50.8402745, "lon": 4.3409753, "tags": {"name": "Lemonnier", "name:etymology:wikidata": "Q2158012", "network": "IBXL", "network:wikidata": "Q114957008", "operator": "STIB/MIVB", "operator:wikidata": "Q1631655", "public_transport": "station", "railway": "station", "ref:STIB_MIVB": "62", "station": "subway", "tram": "yes", "wheelchair": "no", "wikidata": "Q2188417", "wikipedia": "fr:Lemonnier (pr\u00e9m\u00e9tro de Bruxelles)"}}, {"type": "node", "id": 5382893851, "lat": 50.8443013, "lon": 4.345455, "tags": {"alt_name": "Annessens-Fontainas", "name": "Anneessens", "name:etymology:wikidata": "Q3083817", "network": "IBXL", "network:wikidata": "Q114957008", "operator": "STIB/MIVB", "operator:wikidata": "Q1631655", "public_transport": "station", "railway": "station", "ref:STIB_MIVB": "61", "station": "subway", "tram": "yes", "wheelchair": "yes", "wikidata": "Q2851453", "wikipedia": "fr:Anneessens-Fontainas (pr\u00e9m\u00e9tro de Bruxelles)"}}, {"type": "node", "id": 5601594183, "lat": 50.8514851, "lon": 4.353047, "tags": {"name": "De Brouck\u00e8re", "name:etymology:wikidata": "Q1066539", "network": "IBXL", "network:wikidata": "Q114957008", "operator": "STIB/MIVB", "operator:wikidata": "Q1631655", "public_transport": "station", "railway": "station", "ref:STIB_MIVB": "50", "station": "subway", "tram": "yes", "wheelchair": "yes", "wikidata": "Q3020106", "wikipedia": "fr:De Brouck\u00e8re (m\u00e9tro de Bruxelles)"}}, {"type": "node", "id": 5673285175, "lat": 50.8897084, "lon": 4.4157029, "tags": {"name": "Haren-Sud - Haren-Zuid", "name:fr": "Haren-Sud", "name:nl": "Haren-Zuid", "operator": "NMBS/SNCB", "operator:wikidata": "Q524255", "public_transport": "station", "railway": "station", "railway:position:exact": "5.700", "railway:ref": "GHZ", "train": "yes", "uic_ref": "8811130", "website": "https://www.belgiantrain.be/station-information/brussel-bruxelles/haren-zuid-sud", "wikidata": "Q2697132", "wikipedia": "fr:Gare de Haren-Sud", "zone:NMBS_SNCB": "Bruxelles - Brussel"}}, {"type": "node", "id": 5924443350, "lat": 50.8428667, "lon": 4.3806152, "tags": {"name": "Bruxelles-Schuman - Brussel-Schuman", "name:en": "Brussels-Schuman", "name:etymology:wikidata": "Q15981", "name:fr": "Bruxelles-Schuman", "name:nl": "Brussel-Schuman", "operator": "NMBS/SNCB", "operator:wikidata": "Q524255", "public_transport": "station", "railway": "station", "railway:ref": "FBSM", "train": "yes", "uic_ref": "8811916", "website": "https://www.belgiantrain.be/station-information/brussel-bruxelles/schuman", "wikidata": "Q800589", "wikipedia": "nl:Station Brussel-Schuman", "zone:NMBS_SNCB": "Bruxelles - Brussel"}}, {"type": "node", "id": 6276214962, "lat": 50.8478282, "lon": 4.3491201, "tags": {"alt_name": "Bourse\u2013Grand-Place - Beurs\u2013Grote Markt", "alt_name:de": "B\u00f6rse", "alt_name:fr": "Bourse\u2013Grand-Place", "alt_name:nl": "Beurs\u2013Grote Markt", "name": "Bourse - Beurs", "name:etymology:wikidata": "Q28485845", "name:fr": "Bourse", "name:nl": "Beurs", "network": "IBXL", "network:wikidata": "Q114957008", "operator": "STIB/MIVB", "operator:wikidata": "Q1631655", "public_transport": "station", "railway": "station", "ref:STIB_MIVB": "60", "station": "subway", "tram": "yes", "wheelchair": "yes", "wikidata": "Q2922432", "wikipedia": "fr:Bourse - Grand-Place (pr\u00e9m\u00e9tro de Bruxelles)"}}]}