{"version": 0.6, "generator": "Overpass API 0.7.62.10 2d4cfc48", "osm3s": {"timestamp_osm_base": "2026-02-02T16:03:45Z", "copyright": "The data included in this document is from www.openstreetmap.org. The data is made available under ODbL."}, "elements": [{"type": "node", "id": 2466745299, "lat": 50.8246066, "lon": 4.357816, "tags": {"amenity": "bar", "indoor_seating": "yes", "name": "Soif", "opening_hours:signed": "no", "outdoor_seating": "no"}}, {"type": "node", "id": 3100741123, "lat": 50.8312334, "lon": 4.3470158, "tags": {"amenity": "bar", "check_date": "2025-02-23", "indoor_seating": "yes", "name": "La Victoire", "outdoor_seating": "yes"}}, {"type": "node", "id": 4008338465, "lat": 50.8305378, "lon": 4.3510629, "tags": {"amenity": "bar", "check_date": "2025-11-30", "name": "Charivari"}}, {"type": "node", "id": 4422193252, "lat": 50.8250675, "lon": 4.3443529, "tags": {"amenity": "bar", "name": "Gamin"}}, {"type": "node", "id": 4588765293, "lat": 50.8374343, "lon": 4.3467495, "tags": {"amenity": "bar", "check_date": "2024-10-27", "contact:facebook": "https://www.facebook.com/lemarseillaisdujeudeballe/", "indoor_seating": "yes", "name": "Le Marseillais", "opening_hours": "10:00-00:00", "outdoor_seating": "sidewalk", "smoking": "outside"}}, {"type": "node", "id": 4665074589, "lat": 50.8254436, "lon": 4.355002, "tags": {"amenity": "bar", "check_date": "2024-08-28", "name": "La Trinquette"}}, {"type": "node", "id": 4973895934, "lat": 50.8369883, "lon": 4.3475855, "tags": {"amenity": "bar", "name": "Gimic", "website": "https://gimicradio.com"}}, {"type": "node", "id": 5051859510, "lat": 50.8253671, "lon": 4.3581346, "tags": {"amenity": "bar", "check_date": "2024-08-28", "check_date:opening_hours": "2021-06-20", "contact:email": "contact@snapbar.com", "contact:mobile": "+32 476 73 28 53", "contact:website": "https://www.snapbar.com/", "description": "Karaoke Bar", "name": "Snap", "opening_hours": "Su,Mo off"}}, {"type": "node", "id": 5111696130, "lat": 50.8368626, "lon": 4.3449687, "tags": {"amenity": "bar", "name": "La Plume - De Pluim", "name:fr": "La Plume", "name:nl": "De Pluim"}}, {"type": "node", "id": 5111697010, "lat": 50.836811, "lon": 4.3449023, "tags": {"amenity": "bar", "name": "Le Pav\u00e9", "toilets": "yes", "toilets:access": "public", "toilets:description": "Le r\u00e9seau des toilettes accueillantes - Netwerk gastvrije toiletten", "toilets:fee": "no"}}, {"type": "node", "id": 5111702994, "lat": 50.837013, "lon": 4.3451336, "tags": {"amenity": "bar", "name": "Caf\u00e9 Aline"}}, {"type": "node", "id": 6525493580, "lat": 50.8367739, "lon": 4.3481396, "tags": {"amenity": "bar", "contact:website": "https://wielsrenardnoir.wixsite.com/", "name": "Wiel's Renard Noir", "wikidata": "Q42418545", "wikimedia_commons": "Category:Wiel's Renard Noir"}}, {"type": "node", "id": 6651632880, "lat": 50.8254998, "lon": 4.3548158, "tags": {"amenity": "bar", "name": "Cob\u00e1"}}, {"type": "node", "id": 6815837995, "lat": 50.8247754, "lon": 4.357256, "tags": {"amenity": "bar", "check_date": "2024-08-28", "contact:phone": "+32 2 534 64 34", "contact:website": "https://www.oenotk.com/", "description": "Wine bar", "description:fr": "Bar \u00e0 vins", "name": "Oeno TK", "opening_hours": "Mo-Fr 16:00-23:00, Sa 14:00-23:00"}}, {"type": "node", "id": 6815860564, "lat": 50.8309882, "lon": 4.3464518, "tags": {"amenity": "bar", "check_date": "2025-02-02", "indoor_seating": "yes", "name": "Lusitano", "outdoor_seating": "yes"}}, {"type": "node", "id": 6815868156, "lat": 50.830391, "lon": 4.3454621, "tags": {"amenity": "bar", "name": "Dust bar"}}, {"type": "node", "id": 6815969274, "lat": 50.8308984, "lon": 4.34418, "tags": {"amenity": "bar", "check_date": "2025-02-23", "indoor_seating": "yes", "name": "El Faro", "outdoor_seating": "yes", "payment:credit_cards": "yes", "payment:debit_cards": "yes"}}, {"type": "node", "id": 7041630137, "lat": 50.8311708, "lon": 4.3459958, "tags": {"amenity": "bar", "brewery": "Ermitage;Kaapse_Brouwers;Cantillon;Cyclic_Beer_Farm;Ministry_of_Belgian_Beer", "check_date": "2024-08-31", "contact:phone": "+32 2 732 32 68", "contact:website": "https://ermitagesaintgilles.be/", "microbrewery": "yes", "name": "L'Ermitage Saint-Gilles", "opening_hours": "Mo-Su 16:00-24:00", "outdoor_seating": "yes", "start_date": "2019-12-07"}}, {"type": "node", "id": 9571785660, "lat": 50.831174, "lon": 4.3575726, "tags": {"amenity": "bar", "contact:email": "chezstephy@gmail.com", "contact:facebook": "https://facebook.com/chezstephy", "contact:instagram": "https://www.instagram.com/chezstephy/", "contact:mobile": "+32 474 87 15 41", "contact:website": "https://www.stephy.be", "name": "Chez StephY", "opening_hours": "Tu-Su 17:00+", "payment:contactless": "yes", "payment:credit_cards": "yes"}}, {"type": "node", "id": 9653663744, "lat": 50.8255411, "lon": 4.3471716, "tags": {"amenity": "bar", "name": "Swing Bar"}}, {"type": "node", "id": 9654570992, "lat": 50.825279, "lon": 4.3442202, "tags": {"amenity": "bar", "check_date": "2025-12-29", "contact:website": "https://www.themodernalchemist.bar/", "indoor_seating": "yes", "name": "The Modern Alchemist", "opening_hours": "Mo-Th 18:00-00:00; Fr-Sa 18:00-01:00", "outdoor_seating": "yes"}}, {"type": "node", "id": 10100483525, "lat": 50.8322977, "lon": 4.3494579, "tags": {"amenity": "bar", "brewery": "no", "check_date": "2022-10-14", "description": "Bar \u00e0 vin", "name": "Coude \u00e0 coude", "wheelchair": "no"}}, {"type": "node", "id": 10246337601, "lat": 50.8308458, "lon": 4.3415553, "tags": {"amenity": "bar", "check_date": "2022-12-08", "name": "Galletos"}}, {"type": "node", "id": 10246337602, "lat": 50.8312604, "lon": 4.3429147, "tags": {"amenity": "bar", "check_date": "2025-09-18", "name": "Le bateau ivre"}}, {"type": "node", "id": 10246337603, "lat": 50.8313678, "lon": 4.3433737, "tags": {"amenity": "bar", "changing_table": "no", "changing_table:adult": "no", "check_date": "2025-09-18", "entrance:kerb:height": "0.2", "entrance:step_count": "2", "entrance:width": "0.87", "indoor_seating": "yes", "name": "Le Volders", "outdoor_seating": "yes", "ramp:wheelchair": "no", "wheelchair:turning_circle": "yes"}}, {"type": "node", "id": 10246359512, "lat": 50.8306665, "lon": 4.3482459, "tags": {"amenity": "bar", "check_date": "2025-11-14", "name": "Amarcord"}}, {"type": "node", "id": 10550531075, "lat": 50.8270993, "lon": 4.3549184, "tags": {"amenity": "bar", "check_date": "2025-03-11", "contact:facebook": "joliejolicocktailclub", "name": "Jolie Joli Cocktail Club"}}, {"type": "node", "id": 10763523781, "lat": 50.8265246, "lon": 4.3483881, "tags": {"amenity": "bar", "check_date": "2025-08-08", "drink:wine": "yes", "name": "Calmos", "opening_hours": "Mo-Th 17:30-23:30; Fr-Sa 17:30-24:30", "website": "https://calmos.be/"}}, {"type": "node", "id": 10792704806, "lat": 50.8231356, "lon": 4.3536514, "tags": {"amenity": "bar", "name": "Latino Caf\u00e9 Bar", "name:en": "Latino Caf\u00e9 Bar"}}, {"type": "node", "id": 10922478626, "lat": 50.8374397, "lon": 4.3491915, "tags": {"amenity": "bar", "changing_table": "yes", "contact:website": "https://www.lereservoir.be/", "entrance:kerb:height": "0.1", "entrance:ramp": "no", "entrance:step_count": "1", "entrance:width": "0.9", "indoor_seating": "yes", "name": "Le R\u00e9servoir", "opening_hours": "We-Sa 18:00-23:30", "outdoor_seating": "yes", "toilets:wheelchair": "no", "wheelchair:turning_circle": "yes"}}, {"type": "node", "id": 11019548016, "lat": 50.8303413, "lon": 4.3479704, "tags": {"amenity": "bar", "check_date": "2024-11-21", "name": "Maguie", "opening_hours": "Th-Mo 17:00-24:00"}}, {"type": "node", "id": 11360055872, "lat": 50.8256697, "lon": 4.3543713, "tags": {"amenity": "bar", "indoor_seating": "yes", "name": "Le pr\u00e9texte", "outdoor_seating": "yes"}}, {"type": "node", "id": 11585729488, "lat": 50.8320163, "lon": 4.3335351, "tags": {"amenity": "bar", "name": "Au Coin Du Monde 2", "wheelchair": "no"}}, {"type": "node", "id": 11734832558, "lat": 50.825382, "lon": 4.3448342, "tags": {"amenity": "bar", "name": "Rubi"}}, {"type": "node", "id": 12503693434, "lat": 50.8218794, "lon": 4.3432276, "tags": {"amenity": "bar", "check_date": "2025-01-15", "indoor_seating": "yes", "name": "F\u00e9nix", "outdoor_seating": "yes"}}, {"type": "node", "id": 12535200643, "lat": 50.8344544, "lon": 4.3545409, "tags": {"amenity": "bar", "check_date:opening_hours": "2025-10-31", "name": "The Louise Bar", "opening_hours:signed": "no"}}, {"type": "node", "id": 12546316599, "lat": 50.8345995, "lon": 4.3549848, "tags": {"amenity": "bar", "check_date:opening_hours": "2025-10-31", "indoor_seating": "bar_table", "name": "Le Jourdan", "opening_hours:signed": "no", "outdoor_seating": "yes", "wheelchair": "no"}}, {"type": "node", "id": 12581464188, "lat": 50.8251005, "lon": 4.3433549, "tags": {"amenity": "bar", "indoor_seating": "yes", "name": "Le Comptoir", "outdoor_seating": "yes"}}, {"type": "node", "id": 12758051704, "lat": 50.8376671, "lon": 4.3459022, "tags": {"amenity": "bar", "name": "Muche"}}, {"type": "node", "id": 12810876459, "lat": 50.8264017, "lon": 4.3454671, "tags": {"amenity": "bar", "name": "Je suis au boulot"}}]}