{"version": 0.6, "generator": "Overpass API 0.7.62.10 2d4cfc48", "osm3s": {"timestamp_osm_base": "2026-02-02T16:18:00Z", "copyright": "The data included in this document is from www.openstreetmap.org. The data is made available under ODbL."}, "elements": [{"type": "node", "id": 319699022, "lat": 50.8326055, "lon": 4.3026974, "tags": {"name": "Meir", "public_transport": "stop_position", "railway": "tram_stop", "tram": "yes"}}, {"type": "node", "id": 1392117370, "lat": 50.832683, "lon": 4.3017406, "tags": {"name": "Meir", "public_transport": "stop_position", "railway": "tram_stop", "tram": "yes"}}, {"type": "node", "id": 1392117371, "lat": 50.8326777, "lon": 4.3018011, "tags": {"name": "Meir", "public_transport": "stop_position", "railway": "tram_stop", "tram": "yes"}}, {"type": "node", "id": 1392117549, "lat": 50.8370317, "lon": 4.3185768, "tags": {"name": "Cureghem - Kuregem", "name:fr": "Cureghem", "name:nl": "Kuregem", "public_transport": "stop_position", "railway": "tram_stop", "tram": "yes"}}, {"type": "node", "id": 2621203931, "lat": 50.8368125, "lon": 4.3180956, "tags": {"name": "Cureghem - Kuregem", "name:fr": "Cureghem", "name:nl": "Kuregem", "public_transport": "stop_position", "railway": "tram_stop", "tram": "yes"}}, {"type": "node", "id": 2962344714, "lat": 50.8346869, "lon": 4.3056388, "tags": {"name": "Saint-Guidon - Sint-Guido", "name:fr": "Saint-Guidon", "name:nl": "Sint-Guido", "public_transport": "stop_position", "railway": "tram_stop", "tram": "yes", "wikidata": "Q111821466"}}, {"type": "node", "id": 2962344715, "lat": 50.8347706, "lon": 4.3063632, "tags": {"name": "Saint-Guidon - Sint-Guido", "name:fr": "Saint-Guidon", "name:nl": "Sint-Guido", "public_transport": "stop_position", "railway": "tram_stop", "tram": "yes"}}, {"type": "node", "id": 3252643114, "lat": 50.8249205, "lon": 4.2814208, "tags": {"name": "Marius Renard", "public_transport": "stop_position", "railway": "tram_stop", "tram": "yes"}}, {"type": "node", "id": 4229124266, "lat": 50.8357316, "lon": 4.3122384, "tags": {"name": "R\u00e9sistance - Verzet", "name:fr": "R\u00e9sistance", "name:nl": "Verzet", "public_transport": "stop_position", "railway": "tram_stop", "tram": "yes"}}, {"type": "node", "id": 4229124267, "lat": 50.8356441, "lon": 4.311503, "tags": {"name": "R\u00e9sistance - Verzet", "name:fr": "R\u00e9sistance", "name:nl": "Verzet", "public_transport": "stop_position", "railway": "tram_stop", "tram": "yes"}}, {"type": "node", "id": 4229124269, "lat": 50.8361314, "lon": 4.3146813, "tags": {"name": "Douvres - Dover", "name:fr": "Douvres", "name:nl": "Dover", "public_transport": "stop_position", "railway": "tram_stop", "tram": "yes"}}, {"type": "node", "id": 4229124271, "lat": 50.8392265, "lon": 4.3233202, "tags": {"name": "Albert I", "public_transport": "stop_position", "railway": "tram_stop", "tram": "yes"}}, {"type": "node", "id": 4229124272, "lat": 50.8391292, "lon": 4.3229202, "tags": {"name": "Albert I", "public_transport": "stop_position", "railway": "tram_stop", "tram": "yes"}}, {"type": "node", "id": 4581159884, "lat": 50.8391417, "lon": 4.3298449, "tags": {"name": "Conseil - Raad", "name:fr": "Conseil", "name:nl": "Raad", "public_transport": "stop_position", "railway": "tram_stop", "tram": "yes"}}, {"type": "node", "id": 4581160791, "lat": 50.8393069, "lon": 4.3295197, "tags": {"name": "Conseil - Raad", "name:fr": "Conseil", "name:nl": "Raad", "public_transport": "stop_position", "railway": "tram_stop", "tram": "yes"}}, {"type": "node", "id": 4583647042, "lat": 50.8249315, "lon": 4.2819818, "tags": {"name": "Marius Renard", "public_transport": "stop_position", "railway": "tram_stop", "tram": "yes"}}, {"type": "node", "id": 4583652403, "lat": 50.8261504, "lon": 4.2861354, "tags": {"name": "Parc Viv\u00e8s - Viv\u00e8s Park", "name:fr": "Parc Viv\u00e8s", "name:nl": "Viv\u00e8s Park", "public_transport": "stop_position", "railway": "tram_stop", "tram": "yes"}}, {"type": "node", "id": 4583652404, "lat": 50.8258957, "lon": 4.2856029, "tags": {"name": "Parc Viv\u00e8s - Viv\u00e8s Park", "name:fr": "Parc Viv\u00e8s", "name:nl": "Viv\u00e8s Park", "public_transport": "stop_position", "railway": "tram_stop", "tram": "yes"}}, {"type": "node", "id": 4583684645, "lat": 50.8270492, "lon": 4.288347, "tags": {"name": "Frans Hals", "public_transport": "stop_position", "railway": "tram_stop", "tram": "yes"}}, {"type": "node", "id": 4583684646, "lat": 50.8272443, "lon": 4.2889158, "tags": {"name": "Frans Hals", "public_transport": "stop_position", "railway": "tram_stop", "tram": "yes"}}, {"type": "node", "id": 4583704689, "lat": 50.8288548, "lon": 4.2927902, "tags": {"name": "van Beethoven", "public_transport": "stop_position", "railway": "tram_stop", "tram": "yes"}}, {"type": "node", "id": 4583704740, "lat": 50.8286586, "lon": 4.2923994, "tags": {"name": "van Beethoven", "public_transport": "stop_position", "railway": "tram_stop", "tram": "yes"}}, {"type": "node", "id": 4585067141, "lat": 50.8307658, "lon": 4.2975047, "tags": {"name": "Ysaye", "public_transport": "stop_position", "railway": "tram_stop", "tram": "yes"}}, {"type": "node", "id": 4585067154, "lat": 50.830389, "lon": 4.296656, "tags": {"name": "Ysaye", "public_transport": "stop_position", "railway": "tram_stop", "tram": "yes"}}, {"type": "node", "id": 4599849518, "lat": 50.8360629, "lon": 4.3140618, "tags": {"name": "Douvres - Dover", "name:fr": "Douvres", "name:nl": "Dover", "public_transport": "stop_position", "railway": "tram_stop", "tram": "yes"}}]}