{"version": 0.6, "generator": "Overpass API 0.7.62.10 2d4cfc48", "osm3s": {"timestamp_osm_base": "2026-02-02T18:23:45Z", "copyright": "The data included in this document is from www.openstreetmap.org. The data is made available under ODbL."}, "elements": [{"type": "node", "id": 402491446, "lat": 50.8476125, "lon": 4.4085478, "tags": {"amenity": "restaurant", "cuisine": "italian", "name": "Il Posticino"}}, {"type": "node", "id": 1493177062, "lat": 50.8434965, "lon": 4.4102091, "tags": {"amenity": "restaurant", "cuisine": "vietnamese", "name": "Village du Vietnam"}}, {"type": "node", "id": 2325434012, "lat": 50.8403754, "lon": 4.4118755, "tags": {"amenity": "restaurant", "cuisine": "italian", "name": "Osteria Zerodue"}}, {"type": "node", "id": 2334377817, "lat": 50.842906, "lon": 4.4092194, "tags": {"amenity": "restaurant", "contact:website": "https://cotesushi.be/", "cuisine": "sushi", "delivery": "yes", "name": "C\u00f4t\u00e9 Sushi", "takeaway": "yes"}}, {"type": "node", "id": 2338884060, "lat": 50.8462888, "lon": 4.4151866, "tags": {"amenity": "restaurant", "name": "Brasero"}}, {"type": "node", "id": 4386090620, "lat": 50.8442048, "lon": 4.4136461, "tags": {"amenity": "restaurant", "cuisine": "indian", "full_name": "Kantipur Nepali and Indian Restaurant", "name": "Kantipur"}}, {"type": "node", "id": 4423224892, "lat": 50.8455851, "lon": 4.4178693, "tags": {"amenity": "restaurant", "cuisine": "italian", "name": "Piccolo Padrino", "name:en": "Piccolo Padrino", "name:fr": "Piccolo Padrino", "opening_hours": "Mo-Th 12:00-15:00,18:30-23:00; Fr-Su 12:00-23:00", "outdoor_seating": "yes"}}, {"type": "node", "id": 4687200929, "lat": 50.8421003, "lon": 4.4090127, "tags": {"amenity": "restaurant", "contact:instagram": "https://www.instagram.com/affable.restaurant", "name": "Affable"}}, {"type": "node", "id": 4688607534, "lat": 50.8438953, "lon": 4.4131453, "tags": {"amenity": "restaurant", "cuisine": "mexican", "indoor_seating": "yes", "name": "The New Diplomat", "outdoor_seating": "yes", "smoking": "outside"}}, {"type": "node", "id": 4699184933, "lat": 50.8400951, "lon": 4.4105348, "tags": {"amenity": "restaurant", "name": "Baronomie 36", "outdoor_seating": "yes"}}, {"type": "node", "id": 4699196658, "lat": 50.8446217, "lon": 4.4162748, "tags": {"amenity": "restaurant", "cuisine": "sushi;japanese", "delivery": "yes", "name": "Yama Sushi", "opening_hours": "Tu-Su 11:30-15:00,17:30-22:30", "outdoor_seating": "no", "takeaway": "yes"}}, {"type": "node", "id": 4953182144, "lat": 50.8432807, "lon": 4.4106124, "tags": {"alt_name": "Delivery Woluw\u00e9", "amenity": "restaurant", "brand": "Pizza Hut", "brand:wikidata": "Q191615", "brand:wikipedia": "en:Pizza Hut", "contact:phone": "+32 2 732 18 50", "contact:website": "https://www.pizzahut.be", "cuisine": "pizza", "name": "Pizza Hut", "operator": "Pizza Hut"}}, {"type": "node", "id": 5679724521, "lat": 50.8448488, "lon": 4.4181642, "tags": {"amenity": "restaurant", "contact:phone": "+32 2 770 77 60", "contact:website": "http://www.altalgiopizzeria.be/", "cuisine": "italian;italian_pizza;pasta", "name": "Al Taglio", "name:de": "Al Taglio Pizzeria", "opening_hours": "Mo-Su 11:30-22:30"}}, {"type": "node", "id": 7192898331, "lat": 50.8400115, "lon": 4.4102735, "tags": {"amenity": "restaurant", "name": "Le Doux-D\u00e9lire"}}, {"type": "node", "id": 7914346485, "lat": 50.8447686, "lon": 4.4171196, "tags": {"amenity": "restaurant", "cuisine": "asian", "name": "Traiteur Kim", "opening_hours": "Tu-Sa 11:30-15:30,17:30-21:00"}}, {"type": "node", "id": 8491697639, "lat": 50.8445114, "lon": 4.4156797, "tags": {"amenity": "restaurant", "cuisine": "sushi", "name": "Umino Sushi"}}, {"type": "node", "id": 8638563748, "lat": 50.8447118, "lon": 4.4164799, "tags": {"amenity": "restaurant", "contact:phone": "+32 2 762 88 08", "cuisine": "cambodian;indochinese", "name": "Kampuchea", "opening_hours": "We-Su 12:00-14:30, 18:30-22:30", "opening_hours:covid19": "We-Su 12:00-14:30, 18:00-22:00", "wheelchair": "no"}}, {"type": "node", "id": 9547242217, "lat": 50.8424128, "lon": 4.4110972, "tags": {"amenity": "restaurant", "name": "L\u2019H\u00e9ritier"}}, {"type": "node", "id": 11682340321, "lat": 50.84594, "lon": 4.4164972, "tags": {"amenity": "restaurant", "contact:email": "maremonti.resto@hotmail.com", "contact:fax": "+32 2 779 09 81", "contact:phone": "+32 2 772 67 33", "contact:website": "https://sites.resto.com/mareemonti/", "cuisine": "italian", "name": "Mare e Monti"}}, {"type": "node", "id": 11696776520, "lat": 50.8428688, "lon": 4.4088992, "tags": {"amenity": "restaurant", "contact:mobile": "+32 499 89 44 47", "cuisine": "indian", "diet:vegan": "yes", "diet:vegetarian": "yes", "name": "Dastaan", "opening_hours": "Tu-Fr 11:00-14:30,18:00-22:30; Sa-Su 11:30-14:30, 18:00-22:30", "website": "https://www.dastaan.be"}}, {"type": "node", "id": 12090173061, "lat": 50.846786, "lon": 4.4176412, "tags": {"amenity": "restaurant", "cuisine": "asian", "name": "TchinTchin", "opening_hours": "Mo-Su 12:00-14:30,18:00-22:30"}}, {"type": "node", "id": 13006986076, "lat": 50.8430827, "lon": 4.410434, "tags": {"amenity": "restaurant", "contact:phone": "+32 2 736 40 42", "contact:website": "https://www.restaurant-pintong.be/", "cuisine": "thai", "name": "Pintong", "opening_hours": "Mo,Tu,Th-Sa 11:30-14:30,17:30-22:00", "outdoor_seating": "parklet", "payment:cash": "yes", "payment:maestro": "yes", "takeaway": "yes"}}, {"type": "node", "id": 13121622725, "lat": 50.8424571, "lon": 4.4071924, "tags": {"amenity": "restaurant", "check_date": "2025-09-05", "contact:mobile": "+32 492 99 39 49", "contact:website": "https://www.sanbiagio.be/", "cuisine": "pizza", "name": "San Biagio", "opening_hours": "Mo off; Tu-Su 12:00-14:00,18:00-22:00", "payment:cash": "yes", "payment:credit_cards": "yes", "payment:debit_cards": "yes", "takeaway": "only"}}, {"type": "node", "id": 13173702729, "lat": 50.8423231, "lon": 4.406809, "tags": {"amenity": "restaurant", "name": "Le Martin P\u00eacheur", "wheelchair": "yes"}}, {"type": "node", "id": 13448460301, "lat": 50.8437492, "lon": 4.4125821, "tags": {"amenity": "restaurant", "contact:phone": "+32 2 733 20 82", "contact:website": "https://www.nem-saigon.be/", "cuisine": "vietnamese", "name": "Nem Saigon", "opening_hours": "Tu-Su 10:00-15:00, 17:30-21:00"}}]}