{"version": 0.6, "generator": "Overpass API 0.7.62.10 2d4cfc48", "osm3s": {"timestamp_osm_base": "2026-02-03T11:54:15Z", "copyright": "The data included in this document is from www.openstreetmap.org. The data is made available under ODbL."}, "elements": [{"type": "node", "id": 462754947, "lat": 50.8802312, "lon": 4.3300409, "tags": {"name": "Gare de Jette - Station Jette", "name:fr": "Gare de Jette", "name:nl": "Station Jette", "public_transport": "stop_position", "railway": "tram_stop", "tram": "yes"}}, {"type": "node", "id": 503885988, "lat": 50.8735323, "lon": 4.3259576, "tags": {"name": "Place Reine Astrid - Koningin Astridplein", "name:fr": "Place Reine Astrid", "name:nl": "Koningin Astridplein", "public_transport": "stop_position", "railway": "tram_stop", "tram": "yes"}}, {"type": "node", "id": 1994416589, "lat": 50.8801302, "lon": 4.3304259, "tags": {"name": "Gare de Jette - Station Jette", "name:fr": "Gare de Jette", "name:nl": "Station Jette", "public_transport": "stop_position", "railway": "tram_stop", "tram": "yes"}}, {"type": "node", "id": 3151435858, "lat": 50.8733467, "lon": 4.3257764, "tags": {"name": "Place Reine Astrid - Koningin Astridplein", "name:fr": "Place Reine Astrid", "name:nl": "Koningin Astridplein", "public_transport": "stop_position", "railway": "tram_stop", "tram": "yes"}}, {"type": "node", "id": 3151436001, "lat": 50.8768281, "lon": 4.3281981, "tags": {"name": "Lenoir", "public_transport": "stop_position", "railway": "tram_stop", "tram": "yes"}}, {"type": "node", "id": 5175016643, "lat": 50.8765397, "lon": 4.3280353, "tags": {"name": "Lenoir", "public_transport": "stop_position", "railway": "tram_stop", "tram": "yes"}}, {"type": "node", "id": 5869344333, "lat": 50.8735681, "lon": 4.3227668, "tags": {"name": "Bruxellois - Brusselaars", "name:fr": "Bruxellois", "name:nl": "Brusselaars", "public_transport": "stop_position", "railway": "tram_stop", "tram": "yes"}}, {"type": "node", "id": 5869344334, "lat": 50.873988, "lon": 4.3225366, "tags": {"name": "Bruxellois - Brusselaars", "name:fr": "Bruxellois", "name:nl": "Brusselaars", "public_transport": "stop_position", "railway": "tram_stop", "tram": "yes"}}, {"type": "node", "id": 5869547904, "lat": 50.8760168, "lon": 4.3187042, "tags": {"name": "Square du Centenaire - Eeuwfeestsquare", "name:fr": "Square du Centenaire", "name:nl": "Eeuwfeestsquare", "public_transport": "stop_position", "railway": "tram_stop", "tram": "yes"}}, {"type": "node", "id": 5869605662, "lat": 50.8762895, "lon": 4.3183027, "tags": {"name": "Square du Centenaire - Eeuwfeestsquare", "name:fr": "Square du Centenaire", "name:nl": "Eeuwfeestsquare", "public_transport": "stop_position", "railway": "tram_stop", "tram": "yes"}}]}