{"version": 0.6, "generator": "Overpass API 0.7.62.10 2d4cfc48", "osm3s": {"timestamp_osm_base": "2026-02-03T09:33:55Z", "copyright": "The data included in this document is from www.openstreetmap.org. The data is made available under ODbL."}, "elements": [{"type": "node", "id": 493584391, "lat": 50.8594259, "lon": 4.3681593, "tags": {"name": "Sainte-Marie - Sint-Maria", "name:fr": "Sainte-Marie", "name:nl": "Sint-Maria", "public_transport": "stop_position", "railway": "tram_stop", "tram": "yes"}}, {"type": "node", "id": 3126574377, "lat": 50.8640587, "lon": 4.3733375, "tags": {"name": "\u00c9glise Saint-Servais - St-Servaaskerk", "name:fr": "\u00c9glise Saint-Servais", "name:nl": "St-Servaaskerk", "public_transport": "stop_position", "railway": "tram_stop", "tram": "yes"}}, {"type": "node", "id": 3126574378, "lat": 50.8642581, "lon": 4.3734872, "tags": {"name": "\u00c9glise Saint-Servais - St-Servaaskerk", "name:fr": "\u00c9glise Saint-Servais", "name:nl": "St-Servaaskerk", "public_transport": "stop_position", "railway": "tram_stop", "tram": "yes"}}, {"type": "node", "id": 3126574385, "lat": 50.8649062, "lon": 4.37389, "tags": {"name": "D\u00e9p\u00f4t Schaerbeek - Stelplaats Schaarbeek", "name:fr": "D\u00e9p\u00f4t Schaerbeek", "name:nl": "Stelplaats Schaarbeek", "public_transport": "stop_position", "railway": "tram_stop", "tram": "yes"}}, {"type": "node", "id": 3126953156, "lat": 50.8557863, "lon": 4.3670246, "tags": {"name": "Gillon", "public_transport": "stop_position", "railway": "tram_stop", "tram": "yes"}}, {"type": "node", "id": 3126953176, "lat": 50.8560589, "lon": 4.3672033, "tags": {"name": "Gillon", "public_transport": "stop_position", "railway": "tram_stop", "tram": "yes"}}, {"type": "node", "id": 3126953180, "lat": 50.858052, "lon": 4.3681987, "tags": {"name": "Sainte-Marie - Sint-Maria", "name:fr": "Sainte-Marie", "name:nl": "Sint-Maria", "public_transport": "stop_position", "railway": "tram_stop", "tram": "yes"}}, {"type": "node", "id": 3202278918, "lat": 50.8598427, "lon": 4.3758362, "tags": {"name": "Coteaux - Wijnheuvelen", "name:fr": "Coteaux", "name:nl": "Wijnheuvelen", "public_transport": "stop_position", "railway": "tram_stop", "tram": "yes"}}, {"type": "node", "id": 3202278929, "lat": 50.8601688, "lon": 4.3711911, "tags": {"name": "Robiano", "public_transport": "stop_position", "railway": "tram_stop", "tram": "yes"}}, {"type": "node", "id": 3202278932, "lat": 50.8605106, "lon": 4.3714439, "tags": {"name": "Robiano", "public_transport": "stop_position", "railway": "tram_stop", "tram": "yes"}}, {"type": "node", "id": 3202278935, "lat": 50.8607974, "lon": 4.3713262, "tags": {"name": "Robiano", "public_transport": "stop_position", "railway": "tram_stop", "tram": "yes"}}, {"type": "node", "id": 3202278938, "lat": 50.8609582, "lon": 4.3707241, "tags": {"name": "Robiano", "public_transport": "stop_position", "railway": "tram_stop", "tram": "yes"}}, {"type": "node", "id": 4713549041, "lat": 50.8595914, "lon": 4.3768297, "tags": {"name": "Coteaux - Wijnheuvelen", "name:fr": "Coteaux", "name:nl": "Wijnheuvelen", "public_transport": "stop_position", "railway": "tram_stop", "tram": "yes"}}, {"type": "node", "id": 4911094421, "lat": 50.8589907, "lon": 4.3697408, "tags": {"name": "Sainte-Marie - Sint-Maria", "name:fr": "Sainte-Marie", "name:nl": "Sint-Maria", "public_transport": "stop_position", "railway": "tram_stop", "tram": "yes"}}, {"type": "node", "id": 5335117832, "lat": 50.8652109, "lon": 4.3740388, "tags": {"name": "D\u00e9p\u00f4t Schaerbeek - Stelplaats Schaarbeek", "name:fr": "D\u00e9p\u00f4t Schaerbeek", "name:nl": "Stelplaats Schaarbeek", "public_transport": "stop_position", "railway": "tram_stop", "tram": "yes"}}]}