{"version": 0.6, "generator": "Overpass API 0.7.62.10 2d4cfc48", "osm3s": {"timestamp_osm_base": "2026-02-02T17:26:26Z", "copyright": "The data included in this document is from www.openstreetmap.org. The data is made available under ODbL."}, "elements": [{"type": "node", "id": 2463358720, "lat": 50.815463, "lon": 4.389716, "tags": {"amenity": "cafe", "brand": "Le Pain Quotidien", "brand:wikidata": "Q2046903", "brand:wikipedia": "en:Le Pain Quotidien", "contact:phone": "+32 2 646 06 93", "contact:website": "http://www.lepainquotidien.be/store/le-pain-quotidien-ixelles-fr/", "diet:vegan": "yes", "diet:vegetarian": "yes", "indoor_seating": "yes", "internet_access": "wlan", "name": "Le Pain Quotidien", "opening_hours": "Mo-Su 07:00-19:00", "outdoor_seating": "yes", "shop": "bakery", "wheelchair": "no"}}, {"type": "node", "id": 4202897969, "lat": 50.821413, "lon": 4.394941, "tags": {"amenity": "cafe", "cuisine": "coffee_shop", "level": "1", "name": "Opinio", "opening_hours": "closed", "outdoor_seating": "yes", "wheelchair": "limited"}}, {"type": "node", "id": 6070797859, "lat": 50.8163341, "lon": 4.3912125, "tags": {"amenity": "cafe", "brand:website": "https://lloydcoffee.com/", "internet_access": "wlan", "name": "Lloyd Coffee Eatery", "opening_hours": "Mo-Fr 08:00-20:00, Sa-Su 09:00-20:00", "outdoor_seating": "yes", "wheelchair": "no"}}, {"type": "node", "id": 6113995465, "lat": 50.8180144, "lon": 4.3922822, "tags": {"amenity": "cafe", "name": "Hastag caf\u00e9", "opening_hours": "Mo-Fr 08:00-17:00; Sa 09:00-18:00"}}, {"type": "node", "id": 6279627050, "lat": 50.8243568, "lon": 4.3956771, "tags": {"amenity": "cafe", "contact:phone": "+32 2 629 28 91", "contact:website": "https://www.vub.be/en/services-vub-campuses-in-etterbeek-and-jette/tasty-food-vub-campus/catering-facilities-vub-campus", "name": "'t Complex", "opening_hours": "Mo-Fr 11:00-11:30", "outdoor_seating": "yes"}}, {"type": "node", "id": 6902637395, "lat": 50.8235762, "lon": 4.3982043, "tags": {"amenity": "cafe", "bar": "yes", "check_date": "2023-01-18", "contact:email": "info@barpilar.be", "contact:instagram": "https://instagram.com/barpilarbrussels", "contact:phone": "+32 2 629 30 56", "contact:website": "https://pilar.brussels/", "indoor_seating": "yes", "name": "Bar Pilar", "opening_hours": "Mo-Fr 11:00-23:00; Sa 11:00-17:00; Su,PH off", "outdoor_seating": "yes", "payment:mastercard": "yes", "payment:visa": "yes", "smoking": "outside", "wheelchair": "yes"}}, {"type": "node", "id": 7276681940, "lat": 50.819031, "lon": 4.382966, "tags": {"amenity": "cafe", "contact:email": "happyday.ixelles@gmail.com", "contact:website": "https://happydayixelles.wixsite.com/website", "name": "Happy day"}}, {"type": "node", "id": 11298203500, "lat": 50.817836, "lon": 4.3798279, "tags": {"amenity": "cafe", "check_date:opening_hours": "2026-01-03", "name": "Caf\u00e9 Gumo", "opening_hours:signed": "no"}}, {"type": "node", "id": 11406451521, "lat": 50.8163982, "lon": 4.3826058, "tags": {"amenity": "cafe", "contact:website": "https://www.onobrunchandcoffee.com", "cuisine": "coffee_shop", "name": "Ono Brunch & Coffee"}}, {"type": "node", "id": 12447420002, "lat": 50.8178453, "lon": 4.3802918, "tags": {"amenity": "cafe", "contact:instagram": "https://www.instagram.com/koukou.coffee", "name": "Koukou"}}]}