{"version": 0.6, "generator": "Overpass API 0.7.62.10 2d4cfc48", "osm3s": {"timestamp_osm_base": "2026-02-10T15:28:50Z", "copyright": "The data included in this document is from www.openstreetmap.org. The data is made available under ODbL."}, "elements": [{"type": "node", "id": 2339843290, "lat": 50.8487834, "lon": 4.3666289, "tags": {"amenity": "restaurant", "contact:email": "info@madous-folie.be", "contact:phone": "+32 2 217 38 31", "contact:website": "https://www.resto-madous-folie.be", "cuisine": "regional", "name": "Madou's Folie", "opening_hours": "Mo-Fr 12:00-15:00,18:30-22:00", "payment:cash": "yes", "payment:maestro": "yes", "payment:mastercard": "yes", "payment:visa": "yes"}}, {"type": "node", "id": 2339843343, "lat": 50.8494644, "lon": 4.3658962, "tags": {"amenity": "restaurant", "check_date": "2025-02-12", "contact:website": "https://basils.org/", "cuisine": "italian;pizza", "name": "Basils", "opening_hours": "Mo-Su 18:30-22:30; Mo-Sa 12:00-14:30"}}, {"type": "node", "id": 2339843363, "lat": 50.8483884, "lon": 4.3644704, "tags": {"amenity": "restaurant", "contact:phone": "+32 2 219 42 00", "contact:website": "http://www.la-bottega-resto.be/", "cuisine": "italian", "name": "La Bottega", "opening_hours": "Mo-We 12:00-15:00; Th-Fr 12:00-15:00,18:00-23:00; Sa,Su,PH off"}}, {"type": "node", "id": 2339843382, "lat": 50.848226, "lon": 4.36499, "tags": {"amenity": "restaurant", "contact:email": "info@ahnonpeutetre.brussels", "contact:website": "https://www.ahnonpeutetre.brussels/", "cuisine": "regional", "name": "Ah non peut-\u00eatre !", "opening_hours": "Mo-Fr 11:30-14:30", "payment:maestro": "yes", "payment:mastercard": "yes", "payment:visa": "yes", "wheelchair": "no"}}, {"type": "node", "id": 2341205042, "lat": 50.8479706, "lon": 4.364618, "tags": {"amenity": "restaurant", "cuisine": "italian", "name": "Agora", "wheelchair": "no"}}, {"type": "node", "id": 2341205071, "lat": 50.8480011, "lon": 4.3647704, "tags": {"amenity": "restaurant", "check_date:opening_hours": "2021-06-25", "contact:phone": "+32 2 627 15 50", "name": "Bonjour Colette", "opening_hours": "Mo-Fr 11:30-15:00", "wheelchair": "no"}}, {"type": "node", "id": 2341205164, "lat": 50.84875, "lon": 4.3675184, "tags": {"amenity": "restaurant", "contact:phone": "+32 2 203 87 39", "cuisine": "thai;vietnamese", "name": "Bambou Rouge", "opening_hours": "Mo-Fr 12:00-15:00,18:00-23:00; Sa-Su 18:00-23:00", "takeaway": "yes", "wheelchair": "no"}}, {"type": "node", "id": 2345001230, "lat": 50.849507, "lon": 4.3667853, "tags": {"amenity": "restaurant", "contact:facebook": "https://www.facebook.com/DeBruxellesEtDAilleurs/", "contact:mobile": "+32 484 95 31 81", "cuisine": "international", "indoor_seating": "yes", "name": "De Bruxelles et d'Ailleurs", "opening_hours": "Mo-Fr 12:00-14:30,18:45-22:30", "outdoor_seating": "yes"}}, {"type": "node", "id": 2345001354, "lat": 50.8499377, "lon": 4.3665137, "tags": {"amenity": "restaurant", "bar": "yes", "brewery": "yes", "cuisine": "french", "diet:vegetarian": "no", "indoor_seating": "yes", "name": "Garden City", "opening_hours": "Mo-Su 09:30-22:00; Su 09:30-18:00", "outdoor_seating": "yes"}}, {"type": "node", "id": 2345001387, "lat": 50.8499017, "lon": 4.3666768, "tags": {"amenity": "restaurant", "bar": "yes", "contact:phone": "+32 2 356 14 05", "contact:website": "https://www.caberdouche.com/", "cuisine": "french", "diet:vegetarian": "yes", "indoor_seating": "yes", "name": "Caf\u00e9 Caberdouche", "opening_hours": "Mo-Th, Su 09:00-00:00; Fr, Sa 09:00-01:00", "outdoor_seating": "yes"}}, {"type": "node", "id": 2345001393, "lat": 50.8497489, "lon": 4.3669493, "tags": {"amenity": "restaurant", "contact:mobile": "+32 489 23 79 14", "contact:website": "https://los-chiringuitos.com", "cuisine": "tapas", "name": "Los Chiringuitos"}}, {"type": "node", "id": 2345001396, "lat": 50.8485824, "lon": 4.3683423, "tags": {"amenity": "restaurant", "cuisine": "japanese", "name": "Senraku"}}, {"type": "node", "id": 3863696750, "lat": 50.8496725, "lon": 4.366034, "tags": {"amenity": "restaurant", "contact:email": "basils.liberte.bruxelles@gmail.com", "contact:phone": "+32 2 648 85 33", "contact:website": "https://www.basilsliberte.com/", "cuisine": "italian", "name": "Basils Libert\u00e9", "opening_hours": "Mo, Sa 18:30-22:30; Tu-Fr 12:00-14:00, 18:30-22:30"}}, {"type": "node", "id": 3863696753, "lat": 50.8481181, "lon": 4.363584, "tags": {"amenity": "restaurant", "check_date": "2024-04-22", "fixme": "Not sure about the name, Latos Latino is the name written on the permit displayed on the shop window", "name": "Yuca Latina"}}, {"type": "node", "id": 3863699459, "lat": 50.8485277, "lon": 4.3647108, "tags": {"amenity": "restaurant", "contact:phone": "+32 2 219 54 45", "contact:website": "https://www.menthesafran.be/", "cuisine": "moroccan", "name": "Menthe & Safran", "opening_hours": "Mo-Fr 12:00-14:00,18:00-22:00; Sa 18:00-22:00; Su,PH off"}}, {"type": "node", "id": 3863699460, "lat": 50.8483621, "lon": 4.3640038, "tags": {"amenity": "restaurant", "contact:phone": "+32 2 315 24 17", "cuisine": "sushi;ramen", "diet:vegetarian": "yes", "name": "Sapporo-Shi", "opening_hours": "Mo-Fr 12:00-14:30,18:00-22:00; Sa,Su,PH 18:00-22:00"}}, {"type": "node", "id": 3863699462, "lat": 50.8486744, "lon": 4.3645411, "tags": {"amenity": "restaurant", "name": "Oda Kitchen", "opening_hours": "Mo-Sa 12:00-14:00,18:00-23:00"}}, {"type": "node", "id": 3863699466, "lat": 50.8490026, "lon": 4.3655284, "tags": {"amenity": "restaurant", "contact:fax": "+32 2 217 34 19", "contact:phone": "+32 2 217 34 19", "cuisine": "italian", "name": "Al Solito Posto", "shop": "vacant", "takeaway": "yes"}}, {"type": "node", "id": 3863699467, "lat": 50.8516942, "lon": 4.3651359, "tags": {"amenity": "restaurant", "check_date:opening_hours": "2021-08-30", "cuisine": "vietnamese", "name": "Parfum d'Asie", "opening_hours": "Mo-Sa 12:00-17:00"}}, {"type": "node", "id": 3863699470, "lat": 50.8521033, "lon": 4.3653496, "tags": {"amenity": "restaurant", "cuisine": "italian", "name": "Villa Romana", "opening_hours": "Mo-Su,PH 11:00-23:00", "takeaway": "yes", "wheelchair": "no"}}, {"type": "node", "id": 3863737378, "lat": 50.8479968, "lon": 4.3637945, "tags": {"amenity": "restaurant", "contact:mobile": "+32 496 91 29 71", "contact:website": "https://beatrestaurants.be/", "cuisine": "belgian", "entrance:kerb:height": "0.2", "entrance:step_count": "2", "entrance:width": "1.22", "indoor_seating": "yes", "name": "Beat", "opening_hours": "11:00-01:00", "outdoor_seating": "yes", "wheelchair": "no"}}, {"type": "node", "id": 3863812078, "lat": 50.8505351, "lon": 4.3680484, "tags": {"amenity": "restaurant", "contact:website": "https://www.gus-brussels.be/", "cuisine": "italian", "name": "Brassonomie Gus", "opening_hours": "Mo off; Tu,Th,Fr 12:00-13:30; We 12:00-13:30,19:00-21:30; Sa, Su off", "short_name": "Gus", "wheelchair": "no"}}, {"type": "node", "id": 3873641340, "lat": 50.8518962, "lon": 4.365742, "tags": {"amenity": "restaurant", "contact:mobile": "+32 483 51 08 23", "cuisine": "african", "name": "Chari Vari", "opening_hours": "Mo-Fr 00:00-02:00,11:30-23:59; Sa-Su 00:00-02:00,14:00-23:59"}}, {"type": "node", "id": 3873671159, "lat": 50.8488511, "lon": 4.3653101, "tags": {"amenity": "restaurant", "contact:facebook": "https://www.facebook.com/Chandigarh.Brussels/", "contact:instagram": "https://www.instagram.com/chandigarh_brussels/", "contact:phone": "+32 2 308 30 05", "contact:website": "https://www.chandigarh.be", "cuisine": "indian", "diet:vegan": "yes", "diet:vegetarian": "only", "facility:ayurveda": "yes", "name": "Chandigarh", "note": "they cook according to ayurvedic principles. If you find a better way to tag this, please modify", "opening_hours": "Mo,Tu off; We-Fr 18:30-22:30; Sa 11:00-14:30,18:30-22:30; Su 11:00-15:00", "outdoor_seating": "yes"}}, {"type": "node", "id": 3873685249, "lat": 50.8485695, "lon": 4.364783, "tags": {"amenity": "restaurant", "contact:facebook": "https://www.facebook.com/Barakat.Kacem.Restaurant", "contact:mobile": "+32 489 18 60 81", "contact:phone": "+32 2 830 43 18", "cuisine": "italian", "diet:halal": "yes", "diet:vegetarian": "yes", "name": "Baraka't"}}, {"type": "node", "id": 3874925140, "lat": 50.8490085, "lon": 4.3651381, "tags": {"amenity": "restaurant", "check_date": "2024-04-22", "check_date:opening_hours": "2024-04-22", "name": "Bar Brussels Tapas", "opening_hours:signed": "no"}}, {"type": "node", "id": 3874925141, "lat": 50.8490385, "lon": 4.3651954, "tags": {"amenity": "restaurant", "check_date": "2023-06-30", "check_date:opening_hours": "2024-04-22", "cuisine": "regional", "name": "Brussels Stoemp", "opening_hours:signed": "no"}}, {"type": "node", "id": 3874947573, "lat": 50.8481849, "lon": 4.3641192, "tags": {"air_conditioning": "yes", "amenity": "restaurant", "contact:facebook": "https://www.facebook.com/IndianRestaurantBrussels/", "contact:mobile": "+32 498 53 65 64", "contact:website": "https://shahitandor.be/", "cuisine": "indian", "delivery": "yes", "diet:vegan": "yes", "diet:vegetarian": "yes", "name": "Shahi Tandor", "opening_hours": "Mo-Fr 12:00-14:30, 18:00-22:30; Sa-Su 18:00-22:30", "outdoor_seating": "yes", "reservation": "yes", "takeaway": "yes"}}, {"type": "node", "id": 4342814706, "lat": 50.8482992, "lon": 4.3643164, "tags": {"amenity": "restaurant", "brewery": "various", "contact:mobile": "+32 488 94 23 69", "cuisine": "pasta;roman", "diet:vegan": "no", "diet:vegetarian": "no", "name": "La Tana", "opening_hours": "Mo-Sa 12:00-21:00"}}, {"type": "node", "id": 4413365657, "lat": 50.8481497, "lon": 4.3628372, "tags": {"amenity": "restaurant", "changing_table": "no", "changing_table:adult": "no", "cuisine": "regional", "diet:vegetarian": "yes", "indoor_seating": "yes", "level": "0", "name": "Brasserie de la Presse", "opening_hours": "Mo-Fr 12:00-22:00", "outdoor_seating": "no", "toilets:wheelchair": "yes", "toilets:wheelchair:accessible_via": "GROUND_FLOOR", "toilets:wheelchair:grab_rails": "no", "wheelchair": "yes", "wheelchair:turning_circle": "no"}}, {"type": "node", "id": 4485233393, "lat": 50.8511335, "lon": 4.3644492, "tags": {"amenity": "restaurant", "contact:website": "http://www.comptoirroyalbrasserie.com", "cuisine": "regional", "name": "Comptoir Royal", "opening_hours": "Mo-Th 08:00-22:30; Fr 08:00-06:00; Sa 12:00-06:00; Su 12:00-22:30"}}, {"type": "node", "id": 4633408985, "lat": 50.8487096, "lon": 4.3646017, "tags": {"amenity": "restaurant", "name": "Sekai Corndogs"}}, {"type": "node", "id": 4633409089, "lat": 50.8484088, "lon": 4.3640841, "tags": {"alt_name": "Manola 3", "amenity": "restaurant", "contact:phone": "+32 2 223 06 96", "contact:website": "https://www.manola.be/resto/fr/3/manola-iii", "cuisine": "thai", "name": "Manola III", "opening_hours": "Mo-Fr 12:00-14:00; Tu-Su 18:30-22:30", "takeaway": "yes"}}, {"type": "node", "id": 4633409090, "lat": 50.8482945, "lon": 4.3638874, "tags": {"amenity": "restaurant", "contact:phone": "+32 2 223 33 18", "cuisine": "pizza", "name": "Rigoletto", "takeaway": "yes"}}, {"type": "node", "id": 4640235708, "lat": 50.8489647, "lon": 4.3654633, "tags": {"amenity": "restaurant", "check_date:opening_hours": "2024-04-22", "cuisine": "pizza", "name": "Fantastico", "opening_hours:signed": "no"}}, {"type": "node", "id": 4642580479, "lat": 50.848334, "lon": 4.3643766, "tags": {"amenity": "restaurant", "check_date": "2025-04-12", "contact:email": "perbaccocarmine@gmail.com", "contact:phone": "+32 2 217 00 17", "contact:website": "https://www.perbacco-bruxelles.be/", "cuisine": "pizza;italian", "diet:vegetarian": "yes", "indoor_seating": "yes", "name": "Per Bacco", "opening_hours": "Tu-Fr,Su 12:00-14:30,18:30-22:30; Sa 18:30-22:30", "outdoor_seating": "yes", "payment:credit_cards": "yes", "payment:debit_cards": "yes", "reservation": "yes", "takeaway": "yes", "wheelchair": "no"}}, {"type": "node", "id": 6216937632, "lat": 50.8486417, "lon": 4.3644849, "tags": {"amenity": "restaurant", "diet:vegan": "yes", "diet:vegetarian": "yes", "name": "Poke Go", "opening_hours": "Mo-Sa 12:00-15:00,18:00-21:30; Su off"}}, {"type": "node", "id": 6226094916, "lat": 50.8501699, "lon": 4.3672966, "tags": {"amenity": "restaurant", "check_date": "2025-03-05", "check_date:diet:vegetarian": "2025-03-05", "cuisine": "italian", "diet:vegetarian": "yes", "name": "La Fuga", "opening_hours": "Mo-Fr 11:30-14:30,18:00-22:30; Sa 14:00-23:00; Su 18:00-22:30", "takeaway": "yes"}}, {"type": "node", "id": 6247954260, "lat": 50.8488045, "lon": 4.3687234, "tags": {"amenity": "restaurant", "contact:phone": "+32 2 502 60 02", "cuisine": "italian", "name": "Pomo", "opening_hours": "Mo-Fr 10:00-14:30", "wheelchair": "no"}}, {"type": "node", "id": 6247956165, "lat": 50.849306, "lon": 4.3677089, "tags": {"amenity": "restaurant", "diet:vegan": "yes", "diet:vegetarian": "yes", "indoor_seating": "yes", "name": "Better than Hungry", "opening_hours": "Mo-Fr 11:30-15:00,17:30-22:00; Sa 17:00-22:00", "outdoor_seating": "yes", "wheelchair": "no"}}, {"type": "node", "id": 6517895850, "lat": 50.8484708, "lon": 4.3662603, "tags": {"amenity": "restaurant", "contact:phone": "+32 2 217 28 00", "contact:website": "https://www.manola.be/resto/fr/1/manola", "cuisine": "thai", "name": "Manola", "opening_hours": "Mo-Sa 12:00-14:00", "takeaway": "yes", "wheelchair": "no"}}, {"type": "node", "id": 6517895851, "lat": 50.8484412, "lon": 4.3661054, "tags": {"amenity": "restaurant", "name": "Woods", "wheelchair": "no"}}, {"type": "node", "id": 6517916475, "lat": 50.8485532, "lon": 4.3666908, "tags": {"amenity": "restaurant", "contact:phone": "+32 2 223 25 25", "contact:website": "https://pastabar.business.site/", "cuisine": "italian;pasta", "name": "Pasta Bar", "opening_hours": "Mo-Fr 12:00-15:00", "wheelchair": "no"}}, {"type": "node", "id": 6761509714, "lat": 50.8479129, "lon": 4.3643059, "tags": {"amenity": "restaurant", "contact:phone": "+32 2 511 02 07", "contact:website": "https://www.pizzasaco.com/", "cuisine": "pizza", "name": "Pizza Saco", "opening_hours": "Mo-Fr 11:30-15:00,18:00-23:00", "wheelchair": "no"}}, {"type": "node", "id": 8711897146, "lat": 50.8480571, "lon": 4.3634789, "tags": {"amenity": "restaurant", "contact:mobile": "+32 470 41 28 11", "contact:website": "https://www.baraviandes.be/", "cuisine": "steak_house", "diet:meat": "yes", "name": "Cannibale", "opening_hours": "Th-Fr 18:00-22:00; Sa 12:00-15:00,18:00-22:00"}}, {"type": "node", "id": 10130596692, "lat": 50.850022, "lon": 4.3644304, "tags": {"amenity": "restaurant", "contact:email": "contact@chezchris.be", "contact:website": "https://chezchris.be/", "name": "Chez Chris", "opening_hours": "Mo-Fr 07:00-15:00"}}, {"type": "node", "id": 10554822383, "lat": 50.8499898, "lon": 4.3645785, "tags": {"amenity": "restaurant", "cuisine": "mediterranean", "name": "Med", "wheelchair": "yes"}}, {"type": "node", "id": 11102037735, "lat": 50.8494733, "lon": 4.3669403, "tags": {"amenity": "restaurant", "check_date": "2024-09-24", "contact:phone": "+32 2 223 00 02", "indoor_seating": "yes", "name": "Le Mangeoire", "opening_hours": "Mo-Th 12:00-14:00,18:00-21:00;Fr 12:00-14:00; Sa,Su off", "outdoor_seating": "yes"}}, {"type": "node", "id": 11102323210, "lat": 50.8497988, "lon": 4.36699, "tags": {"amenity": "restaurant", "contact:phone": "+32 2 223 23 22", "contact:website": "https://www.sushiworld.be/", "cuisine": "sushi", "diet:vegetarian": "yes", "name": "Sushi World", "opening_hours": "Mo-Fr 11:00-14:30,17:30-22:00; Sa 11:00-14:30; Su off", "outdoor_seating": "sidewalk"}}, {"type": "node", "id": 11581463586, "lat": 50.8481128, "lon": 4.3643994, "tags": {"amenity": "restaurant", "check_date": "2024-07-21", "cuisine": "lebanese", "wheelchair": "no"}}, {"type": "node", "id": 11877749516, "lat": 50.8482515, "lon": 4.3684291, "tags": {"amenity": "restaurant", "contact:phone": "+32 2 514 14 80", "cuisine": "thai;vietnamese", "name": "Kumquat", "opening_hours": "11:00-15:00,18:00-20:00"}}, {"type": "node", "id": 12787866923, "lat": 50.8513505, "lon": 4.3651724, "tags": {"amenity": "restaurant", "contact:website": "https://lepetitbonbon.brussels/", "fixme": "location", "name": "Le Petit Bon Bon"}}, {"type": "node", "id": 12840688030, "lat": 50.8484325, "lon": 4.36606, "tags": {"amenity": "restaurant", "name": "La Cezieria", "wheelchair": "no"}}]}