{"version": 0.6, "generator": "Overpass API 0.7.62.10 2d4cfc48", "osm3s": {"timestamp_osm_base": "2026-02-02T17:38:42Z", "copyright": "The data included in this document is from www.openstreetmap.org. The data is made available under ODbL."}, "elements": [{"type": "node", "id": 766847696, "lat": 50.838439, "lon": 4.382078, "tags": {"amenity": "restaurant", "check_date:opening_hours": "2022-12-12", "name": "Chez Amina", "opening_hours:signed": "no", "wheelchair": "no"}}, {"type": "node", "id": 1631358481, "lat": 50.8386114, "lon": 4.3646222, "tags": {"amenity": "restaurant", "contact:phone": "+32 2 511 84 35", "contact:website": "http://enotecadavalentino.com", "cuisine": "italian", "description": "Restaurant Wine bar", "name": "Enoteca da Valentino", "opening_hours": "Mo-Fr 12:00-15:00,18:00-22:00; Sa 18:30-23:00"}}, {"type": "node", "id": 2365906504, "lat": 50.8405603, "lon": 4.3851354, "tags": {"amenity": "restaurant", "contact:phone": "+32 2 280 28 00", "contact:website": "https://www.paolosidea.com", "cuisine": "pizza", "name": "Paolo\u2019s Idea", "opening_hours": "Mo 12:00-14:30; Tu-Fr 12:00-14:30,18:30-22:30, Sa 18:30-22:30; Su,PH off", "takeaway": "yes"}}, {"type": "node", "id": 2394706142, "lat": 50.8432303, "lon": 4.3840963, "tags": {"amenity": "restaurant", "cuisine": "portuguese", "name": "Puro"}}, {"type": "node", "id": 2422639573, "lat": 50.8396427, "lon": 4.3836187, "tags": {"amenity": "restaurant", "contact:email": "indianroyalspicy@gmail.com", "contact:facebook": "https://www.facebook.com/indianroyalspicy.Brussels.be/", "contact:mobile": "+32 465 40 10 28", "cuisine": "indian", "diet:vegan": "yes", "diet:vegetarian": "yes", "name": "Indian Royal Spicy", "opening_hours": "Mo-Su 12:00-15:00,17:30-23:15; We off", "outdoor_seating": "yes"}}, {"type": "node", "id": 2430177136, "lat": 50.8435928, "lon": 4.3746855, "tags": {"amenity": "restaurant", "check_date": "2024-10-07", "contact:phone": "+32 2 230 76 04", "cuisine": "italian", "diet:vegetarian": "yes", "entrance:kerb:height": "0", "entrance:step_count": "0", "entrance:width": "0.86", "name": "Il buongustaio"}}, {"type": "node", "id": 2435780467, "lat": 50.8434426, "lon": 4.3752631, "tags": {"amenity": "restaurant", "entrance:kerb:height": "0.13", "entrance:step_count": "1", "entrance:width": "0.86", "indoor_seating": "yes", "name": "La Galia", "opening_hours:signed": "no", "outdoor_seating": "yes"}}, {"type": "node", "id": 2436568806, "lat": 50.8421472, "lon": 4.3859761, "tags": {"amenity": "restaurant", "contact:phone": "+32 2 238 08 08", "contact:website": "https://restoparkside.be/", "internet_access": "wlan", "name": "Park Side Brasserie", "opening_hours": "Mo-Fr 12:00-14:30,18:30-22:00"}}, {"type": "node", "id": 2443572659, "lat": 50.8388893, "lon": 4.3708652, "tags": {"amenity": "restaurant", "indoor_seating": "yes", "name": "LUX/BXL", "outdoor_seating": "yes"}}, {"type": "node", "id": 2489046144, "lat": 50.8459591, "lon": 4.3721222, "tags": {"amenity": "restaurant", "changing_table": "no", "changing_table:adult": "no", "check_date:opening_hours": "2023-04-01", "contact:email": "contact@kamilou.be", "contact:phone": "+32 2 894 46 67", "contact:website": "https://www.kamilou.be/en/restaurant-at-arts-loi/", "delivery": "yes", "diet:vegan": "no", "diet:vegetarian": "no", "entrance:step_count": "0", "entrance:width": "1.04", "internet_access": "wlan", "name": "Kamilou", "opening_hours:signed": "no", "outdoor_seating": "yes", "takeaway": "yes", "wheelchair:turning_circle": "no"}}, {"type": "node", "id": 2656942970, "lat": 50.8400229, "lon": 4.3680788, "tags": {"amenity": "restaurant", "cuisine": "asian", "name": "Be Bo Bun"}}, {"type": "node", "id": 2656942982, "lat": 50.839368, "lon": 4.3672461, "tags": {"amenity": "restaurant", "check_date:opening_hours": "2025-03-11", "contact:phone": "+32 2 513 47 81", "cuisine": "italian", "name": "Trattoria al dente", "opening_hours:signed": "no"}}, {"type": "node", "id": 2656943200, "lat": 50.8420705, "lon": 4.3686351, "tags": {"amenity": "restaurant", "contact:phone": "+32 2 511 00 98", "contact:website": "https://www.khunmaybrussels.com", "cuisine": "thai", "name": "Khun May", "opening_hours:signed": "no", "payment:cash": "yes", "payment:credit_cards": "no", "payment:debit_cards": "no", "wheelchair": "no"}}, {"type": "node", "id": 2839619941, "lat": 50.837737, "lon": 4.3684091, "tags": {"amenity": "restaurant", "contact:phone": "+32 2 503 36 48", "contact:website": "https://elturco.be/", "cuisine": "mediterranean", "description": "Restaurant self service de type mediterran\u00e9en, d'influence ottomane", "diet:vegan": "yes", "diet:vegetarian": "yes", "internet_access": "wlan", "name": "El Turco", "opening_hours": "Mo-Fr 11:30-15:00; Tu-Fr 19:00-22:30", "outdoor_seating": "yes", "self_service": "yes", "takeaway": "yes", "wheelchair": "yes"}}, {"type": "node", "id": 3991415854, "lat": 50.8397104, "lon": 4.3680492, "tags": {"amenity": "restaurant", "contact:phone": "+32 2 506 91 11", "contact:website": "https://www.thonhotels.com/fr/hotels/belgique/bruxelles/stanhope-hotel/brighton-restaurant/", "name": "Brighton Restaurant", "opening_hours": "Mo-Fr 07:00-10:00, 12:00-14:00, 19:00-22:00; Sa, Su 07:30-12:00", "outdoor_seating": "yes"}}, {"type": "node", "id": 4262247200, "lat": 50.8393345, "lon": 4.3713588, "tags": {"amenity": "restaurant", "cuisine": "thai", "indoor_seating": "yes", "name": "Thai Caf\u00e9", "outdoor_seating": "yes", "toilets:access": "customers"}}, {"type": "node", "id": 4262247203, "lat": 50.8394933, "lon": 4.3717484, "tags": {"amenity": "restaurant", "contact:website": "https://pokehouse.be", "cuisine": "hawaiian", "entrance:kerb:height": "0.11", "entrance:step_count": "1", "entrance:width": "0.92", "name": "Pok\u00e9 House", "takeaway": "yes", "toilets:access": "customers"}}, {"type": "node", "id": 4262247204, "lat": 50.8387621, "lon": 4.3726262, "tags": {"amenity": "restaurant", "comment": "terasse accessible for wheelchair", "entrance:kerb:height": "0.35", "entrance:step_count": "2", "entrance:width": "0.88", "indoor_seating": "yes", "name": "Surfside Pok\u00e9", "opening_hours": "Mo-Fr 11:00-22:00; Sa 11:00-15:00; Su off", "outdoor_seating": "yes", "toilets:access": "customers"}}, {"type": "node", "id": 4262247205, "lat": 50.8394642, "lon": 4.3718878, "tags": {"amenity": "restaurant", "cuisine": "mediterranean", "indoor_seating": "yes", "name": "Tourane", "outdoor_seating": "yes"}}, {"type": "node", "id": 4262247206, "lat": 50.8394781, "lon": 4.3718212, "tags": {"amenity": "restaurant", "contact:phone": "+32 2 230 01 18", "contact:website": "https://restoportofino.be/", "cuisine": "italian", "entrance:kerb:height": "0.27", "entrance:step_count": "1", "entrance:width": "2", "indoor_seating": "yes", "name": "Porto Fino", "opening_hours": "Mo-Su 12:00-15:00,18:00-23:00", "outdoor_seating": "yes", "ramp:wheelchair": "yes", "toilets:access": "customers"}}, {"type": "node", "id": 4262247207, "lat": 50.839542, "lon": 4.3730286, "tags": {"amenity": "restaurant", "bar": "yes", "brewery": "various", "capacity": "200", "comment": "terasse accessible without stairs", "contact:phone": "+32 2 280 25 52", "contact:website": "https://quartier-leopold.be/", "cuisine": "brasserie;french;burger", "entrance:kerb:height": "0.08", "entrance:step_count": "1", "entrance:width": "0.85", "name": "Quartier Leopold", "opening_hours": "Mo-Sa 12:00-23:00", "outdoor_seating": "yes", "reservation": "yes", "toilets:access": "customers"}}, {"type": "node", "id": 4268177828, "lat": 50.8408162, "lon": 4.3730384, "tags": {"amenity": "restaurant", "name": "'t Lunch"}}, {"type": "node", "id": 4268177832, "lat": 50.8408538, "lon": 4.3730664, "tags": {"amenity": "restaurant", "contact:phone": "+32 2 230 47 47", "contact:website": "https://www.latableresto.be/", "description": "Restaurant - Sandwicherie", "name": "La Table", "opening_hours": "Mo-Fr 07:00-15:00", "wheelchair": "limited"}}, {"type": "node", "id": 4268177833, "lat": 50.840968, "lon": 4.3731195, "tags": {"amenity": "restaurant", "cuisine": "african", "entrance:kerb:height": "0.13", "entrance:step_count": "1", "entrance:width": "0.92", "name": "Africalicious", "toilets:access": "customers", "wheelchair:turning_circle": "yes"}}, {"type": "node", "id": 4268177837, "lat": 50.8393959, "lon": 4.3710728, "tags": {"amenity": "restaurant", "contact:phone": "+32 2 511 99 95", "contact:website": "https://maisonduluxembourg.be", "cuisine": "french", "name": "Maison du Luxembourg", "opening_hours": "Mo-Th 12:00-14:30, 19:00-22:00; Fr 12:00-14:30"}}, {"type": "node", "id": 4268177838, "lat": 50.8398539, "lon": 4.3735033, "tags": {"amenity": "restaurant", "contact:phone": "+32 2 280 65 40", "contact:website": "https://www.restaurantmediterraneobruxelles.be/", "cuisine": "italian", "name": "Mediterraneo"}}, {"type": "node", "id": 4268177840, "lat": 50.839973, "lon": 4.3735585, "tags": {"amenity": "restaurant", "contact:email": "info@piadabar.eu", "contact:phone": "+32 2 230 41 94", "contact:website": "https://www.piadabar.eu/", "cuisine": "italian", "name": "Piada Bar", "outdoor_seating": "yes"}}, {"type": "node", "id": 4268177842, "lat": 50.8393709, "lon": 4.3711925, "tags": {"amenity": "restaurant", "cuisine": "lebanese", "name": "The Lebanon"}}, {"type": "node", "id": 4268177843, "lat": 50.8395254, "lon": 4.3733347, "tags": {"amenity": "restaurant", "contact:phone": "+32 2 265 50 24", "contact:website": "https://www.sushibox.be", "cuisine": "sushi", "delivery": "yes", "name": "Sushi Box", "opening_hours": "Mo-Fr 11:30-15:00, 18:00-21:30;Sa 17:30-22:00", "takeaway": "yes"}}, {"type": "node", "id": 4268177844, "lat": 50.8399119, "lon": 4.3735248, "tags": {"amenity": "restaurant", "name": "Sowl"}}, {"type": "node", "id": 4268301803, "lat": 50.8407419, "lon": 4.36889, "tags": {"amenity": "restaurant", "name": "ASAP", "outdoor_seating": "sidewalk"}}, {"type": "node", "id": 4268301806, "lat": 50.8415868, "lon": 4.3707648, "tags": {"amenity": "restaurant", "contact:phone": "+32 2 230 81 88", "contact:website": "https://www.gustocultura.be/restaurant-italien/osteria-pizzeria/carina", "cuisine": "italian", "name": "Paninoteca Tavola Calda Carina", "opening_hours": "Mo-Fr 10:00-14:30", "wheelchair": "limited"}}, {"type": "node", "id": 4415645090, "lat": 50.8381477, "lon": 4.3683847, "tags": {"amenity": "restaurant", "check_date": "2024-10-10", "contact:email": "anciennepoissonnerie@gmail.com", "contact:phone": "+32 2 502 75 05", "contact:website": "http://www.anciennepoissonnerie.be", "cuisine": "italian", "name": "L'Ancienne Poissonnerie", "opening_hours": "Mo-Fr 12:00-15:00, 19:00-23:00; Sa 19:00-23:00", "wheelchair": "no"}}, {"type": "node", "id": 4631073389, "lat": 50.840509, "lon": 4.3791908, "tags": {"amenity": "restaurant", "check_date:opening_hours": "2023-04-01", "contact:phone": "+32 2 720 00 77", "contact:website": "http://www.kokuban.be/", "cuisine": "japanese", "name": "Kokuban", "opening_hours": "Mo-Fr 12:00-14:30,19:00-22:30; Sa 19:00-22:30; Su off", "takeaway": "yes", "wheelchair": "yes"}}, {"type": "node", "id": 4672117996, "lat": 50.8404175, "lon": 4.3816774, "tags": {"amenity": "restaurant", "cuisine": "korean", "name": "Kim's Kitchen"}}, {"type": "node", "id": 4837572050, "lat": 50.8403043, "lon": 4.3678646, "tags": {"amenity": "restaurant", "cuisine": "sushi", "name": "Sushi Avenue", "wheelchair": "no"}}, {"type": "node", "id": 4850273427, "lat": 50.8400779, "lon": 4.3678165, "tags": {"alt_name": "Brasserie Meeus", "amenity": "restaurant", "contact:phone": "+32 2 502 31 93", "contact:website": "https://www.brasseriemeeus.be/", "name": "Meeus", "opening_hours": "Mo-Fr 11:30-15:30"}}, {"type": "node", "id": 4850357787, "lat": 50.8406766, "lon": 4.3731305, "tags": {"amenity": "restaurant", "check_date:opening_hours": "2024-05-29", "name": "Le Montoyer", "opening_hours:signed": "no"}}, {"type": "node", "id": 4864707926, "lat": 50.8385969, "lon": 4.3643471, "tags": {"amenity": "restaurant", "check_date": "2023-08-07", "contact:email": "novusbruxelles@gmail.com", "contact:mobile": "+32 477 22 36 97", "contact:website": "https://www.novus-restaurant.be/", "name": "Novus", "note": "will become El Pulgarcito restaurant soon..", "opening_hours": "off"}}, {"type": "node", "id": 4864741401, "lat": 50.838009, "lon": 4.368126, "tags": {"amenity": "restaurant", "start_date": "2020"}}, {"type": "node", "id": 4864772015, "lat": 50.8386836, "lon": 4.3705756, "tags": {"amenity": "restaurant", "contact:email": "bxl.kroket@gmail.com", "contact:phone": "+32 2 580 16 30", "contact:website": "https://kroket.eatbu.com", "diet:vegan": "limited", "diet:vegetarian": "yes", "indoor_seating": "yes", "name": "Kroket", "opening_hours": "Mo, Tu 12:00-14:30; We-Fr 12:00-14:30, 19:00-21:30", "outdoor_seating": "yes", "payment:cards": "yes", "payment:cash": "yes", "service:electricity": "limited", "takeaway": "yes"}}, {"type": "node", "id": 4864777206, "lat": 50.838665, "lon": 4.3705045, "tags": {"amenity": "restaurant", "indoor_seating": "yes", "name": "Le Nouvel Artiste", "outdoor_seating": "yes"}}, {"type": "node", "id": 4874783128, "lat": 50.8380346, "lon": 4.3725479, "tags": {"amenity": "restaurant", "contact:phone": "+32 2 502 37 64", "contact:website": "https://starofasia.eu", "cuisine": "indian", "entrance:kerb:height": "0.03", "entrance:step_count": "2", "entrance:width": "0.85", "name": "Star of Asia", "opening_hours": "Mo-Fr 12:00-14:30; Sa-Su 18:30-23:30", "wheelchair": "no"}}, {"type": "node", "id": 4890506560, "lat": 50.8396092, "lon": 4.3825354, "tags": {"alt_name": "Bois Savanes In Town", "amenity": "restaurant", "contact:phone": "+32 2 230 34 46", "contact:website": "https://www.boissavanes.be", "cuisine": "thai", "name": "Bois Savanes"}}, {"type": "node", "id": 4890538627, "lat": 50.8397125, "lon": 4.3828519, "tags": {"amenity": "restaurant", "contact:phone": "+32 2 725 71 88", "contact:website": "http://www.ristorantedaisardi-caralis.be", "cuisine": "italian", "name": "Dai Sardi Ristorante Caralis", "opening_hours": "Mo-Fr 12:00-14:30,19:00-22:00; Sa 19:00-22:00"}}, {"type": "node", "id": 5328839023, "lat": 50.8429308, "lon": 4.3754078, "tags": {"amenity": "restaurant", "contact:email": "atticabrussels@gmail.com", "contact:facebook": "https://facebook.com/Attica-Brussels-105324984640379/", "contact:instagram": "https://www.instagram.com/atticabruxelles/", "contact:phone": "+32 2 280 29 00", "contact:website": "https://attica-brussels.be", "cuisine": "greek;sandwich", "indoor_seating": "yes", "name": "Attica", "opening_hours": "Mo-Fr 08:00-15:00", "outdoor_seating": "yes", "takeaway": "yes", "toilets:wheelchair": "no", "wheelchair:turning_circle": "yes"}}, {"type": "node", "id": 6258622795, "lat": 50.8400913, "lon": 4.3787981, "tags": {"amenity": "restaurant", "check_date": "2024-11-07", "name": "Caf\u00e9 Europa"}}, {"type": "node", "id": 6669868163, "lat": 50.8397981, "lon": 4.3734653, "tags": {"amenity": "restaurant", "contact:website": "https://can-tho.business.site/", "cuisine": "vietnamese", "delivery": "yes", "diet:vegetarian": "yes", "name": "Can Tho", "opening_hours": "Mo-We, Fr 11:30-15:00; Th 11:30-15:00, 19:00-22:30, Sa-Su off", "outdoor_seating": "yes", "payment:cash": "no", "takeaway": "yes", "wheelchair": "yes"}}, {"type": "node", "id": 6812386840, "lat": 50.8459984, "lon": 4.3718531, "tags": {"amenity": "restaurant", "bar": "yes", "check_date": "2025-04-09", "level": "0", "name": "Le Cinquante et Un"}}, {"type": "node", "id": 6812386841, "lat": 50.8460227, "lon": 4.3707114, "tags": {"amenity": "restaurant", "check_date:opening_hours": "2023-04-01", "comment": "geen toegang toilet", "contact:mobile": "+32 488 65 01 99", "contact:website": "https://vespacaffe.be/en", "cuisine": "italian", "entrance:kerb:height": "0.01", "entrance:step_count": "1", "entrance:width": "1.17", "internet_access": "wlan", "name": "Vespa Caff\u00e8", "opening_hours": "Mo-Fr 08:00-15:30", "outdoor_seating": "yes", "reservation": "yes", "takeaway": "yes", "wheelchair": "yes"}}, {"type": "node", "id": 6834220177, "lat": 50.8459842, "lon": 4.3708587, "tags": {"amenity": "restaurant", "check_date": "2024-09-11", "dish": "italian", "name": "Foro Romano"}}, {"type": "node", "id": 6879125185, "lat": 50.8430162, "lon": 4.3761378, "tags": {"amenity": "restaurant", "name": "Atelier29", "opening_hours": "\"Event location. Only open upon reservation.\""}}, {"type": "node", "id": 6989944071, "lat": 50.840575, "lon": 4.3724789, "tags": {"amenity": "restaurant", "breakfast": "Mo-Fr 07:30-11:00", "check_date": "2024-09-29", "contact:email": "chezteo.be63@gmail.com", "contact:mobile": "+32 476 21 51 46", "description": "An international food offer designed to provide a healthy and balanced choice. The selection of contemporary menus features a sustainable and seasonal ingredients, enriched by local products. A take-away option with biodegradable boxes is available.", "dinner": "Mo-Fr 18:00-22:00", "lunch": "Mo-Fr 11:00-17:00", "lunch:menu:takeaway": "yes", "lunch:specials": "yes", "name": "Chez Teo", "opening_hours": "Mo-Fr 07:30-17:00,18:00-22:00", "takeaway": "yes", "wheelchair": "yes"}}, {"type": "node", "id": 7490428752, "lat": 50.8408852, "lon": 4.3730733, "tags": {"air_conditioning": "no", "amenity": "restaurant", "contact:facebook": "https://www.facebook.com/godobruxelles/", "contact:instagram": "https://www.instagram.com/godobruxelles/", "contact:phone": "+32 2 426 74 13", "contact:website": "https://www.godobruxelles.com/it/", "cuisine": "pizza;italian;cafe", "diet:vegan": "yes", "diet:vegetarian": "yes", "entrance:kerb:height": "0", "entrance:step_count": "0", "entrance:width": "0.93", "indoor_seating": "yes", "name": "Godo Bistrot Pizzeria Caff\u00e8", "opening_hours": "Mo 08:00-15:00; Tu-Fr 08:00-15:00,18:00-22:00; Sa 11:30-15:00,18:00-22:00", "outdoor_seating": "yes", "payment:credit_cards": "yes", "payment:debit_cards": "yes", "smoking": "outside", "toilets:access": "customers", "toilets:wheelchair": "yes", "toilets:wheelchair:accessible_via": "ground_floor", "toilets:wheelchair:door_width": "0.8", "toilets:wheelchair:space_front": "0.9", "toilets:wheelchair:space_side": "0.5", "wheelchair:turning_circle": "yes"}}, {"type": "node", "id": 8013258685, "lat": 50.8388365, "lon": 4.3675236, "tags": {"amenity": "restaurant", "contact:mobile": "+32 494 52 62 59", "contact:website": "https://vkous.com/", "cuisine": "hawaiian", "entrance:kerb:height": "0.15", "entrance:step_count": "2", "entrance:width": "0.9", "name": "Vkous", "opening_hours": "Mo 11:00-15:00; Tu-Fr 11:00-15:00,18:30-21:30", "toilets:wheelchair": "yes", "toilets:wheelchair:accessible_via": "stairs", "wheelchair:turning_circle": "yes"}}, {"type": "node", "id": 8617596345, "lat": 50.8376929, "lon": 4.3680319, "tags": {"amenity": "restaurant", "cuisine": "soup;salads;coffee", "name": "IKI", "opening_hours:covid19": "Mo-Fr 11:30-15:00; Sa-Su off"}}, {"type": "node", "id": 8617596347, "lat": 50.8375985, "lon": 4.3681618, "tags": {"amenity": "restaurant", "contact:phone": "+32 2 502 22 32", "contact:website": "https://www.restaurantchou.eu", "name": "Chou", "opening_hours:covid19": "Mo-Fr 12:00-14:00,18:30-22:00; Sa 18:30-22:00; Su off"}}, {"type": "node", "id": 10277774519, "lat": 50.8415677, "lon": 4.3833192, "tags": {"amenity": "restaurant", "check_date": "2023-05-27", "cuisine": "vietnamese", "name": "Banh Mi Express", "opening_hours": "11:00-21:00", "payment:maestro": "yes", "payment:mastercard": "yes", "payment:visa": "yes", "website": "https://www.banhmi.be"}}, {"type": "node", "id": 10801280504, "lat": 50.841078, "lon": 4.3671193, "tags": {"amenity": "restaurant", "contact:website": "https://midori.cownected.be/restaurants/brussels/arts56/", "description": "Canteen, open to guests not working there as well", "email": "arts56@midori.eu", "name": "Midori Arts 56", "opening_hours": "Mo-Fr 08:00-15:30"}}, {"type": "node", "id": 10903524224, "lat": 50.8395202, "lon": 4.3731355, "tags": {"amenity": "restaurant", "bar": "yes", "contact:website": "https://londonbrasserie.be/", "cuisine": "french", "entrance:kerb:height": "0.09", "entrance:step_count": "1", "entrance:width": "0.8", "name": "London Brasserie", "outdoor_seating": "veranda", "payment:cash": "yes", "payment:debit_cards": "yes", "payment:mastercard": "yes", "payment:payconiq": "yes", "payment:visa": "yes", "toilets:access": "customers", "wheelchair": "yes"}}, {"type": "node", "id": 11244653188, "lat": 50.8375363, "lon": 4.3719467, "tags": {"amenity": "restaurant", "cuisine": "sandwich;coffee_shop;salad", "name": "So Lunch"}}, {"type": "node", "id": 11269853899, "lat": 50.8436667, "lon": 4.3840729, "tags": {"amenity": "restaurant", "cuisine": "italian", "name": "Taste of Italy", "not:website": "http://www.tasteofitaly.be/"}}, {"type": "node", "id": 11273709447, "lat": 50.8378886, "lon": 4.3686954, "tags": {"amenity": "restaurant", "contact:phone": "+32 2 502 52 05", "contact:website": "https://hinodeya.jimdofree.com/", "cuisine": "japanese", "name": "Hinodeya", "opening_hours": "Mo,Tu,Th,Fr 12:00-13:30,19:00-21:30; We 12:00-13:30"}}, {"type": "node", "id": 11396718377, "lat": 50.8389546, "lon": 4.3708495, "tags": {"amenity": "restaurant", "contact:phone": "+32 2 512 62 52", "contact:website": "http://www.ilpasticcio.be", "cuisine": "italian", "name": "Il Pasticcio", "opening_hours": "Mo-Sa 12:00-14:30, We 19:00-22:30", "wheelchair": "no"}}, {"type": "node", "id": 11502834659, "lat": 50.8376852, "lon": 4.3676446, "tags": {"amenity": "restaurant", "contact:email": "info.grilledandtoasty@gmail.com", "contact:mobile": "+32 470 55 70 31", "contact:website": "https://grilledandtoasty.com/", "cuisine": "sandwich", "delivery": "yes", "indoor_seating": "yes", "name": "Grilled & Toasty", "opening_hours": "Mo-Su 12:00-15:00,17:00-23:00", "outdoor_seating": "no", "payment:cash": "yes", "payment:credit_cards": "yes", "payment:debit_cards": "yes", "reservation": "yes", "takeaway": "yes"}}, {"type": "node", "id": 11516580185, "lat": 50.8386874, "lon": 4.3711685, "tags": {"amenity": "restaurant", "cuisine": "vietnamese", "name": "H\u00f4ng Loan", "wheelchair": "no"}}, {"type": "node", "id": 11900486926, "lat": 50.8406445, "lon": 4.3784672, "tags": {"amenity": "restaurant", "check_date:opening_hours": "2024-06-25", "name": "Street Deli Food", "opening_hours:signed": "no"}}, {"type": "node", "id": 12064917419, "lat": 50.8389847, "lon": 4.3655354, "tags": {"amenity": "restaurant", "club": "social", "contact:fax": "+32 2 513 64 11", "contact:phone": "+32 2 545 04 00", "contact:website": "https://universityfoundation.be/", "name": "Fondation Universitaire - Universitaire Stichting", "name:en": "University Foundation", "name:fr": "Fondation Universitaire", "name:nl": "Universitaire Stichting", "office": "foundation", "ref:vatin": "BE0536049813", "start_date": "1920-07-06", "tourism": "hotel", "wikidata": "Q7894696"}}, {"type": "node", "id": 12181771787, "lat": 50.8384406, "lon": 4.3727543, "tags": {"amenity": "restaurant", "comment": "terasse accessible for wheelchair", "diet:vegan": "no", "diet:vegetarian": "yes", "entrance:kerb:height": "0.2", "entrance:step_count": "2", "entrance:width": "0.9", "name": "Spuntino", "opening_hours": "Mo-We 07:30-14:30; Th 07:30-14:30,17:00-23:00; Fr 11:00-14:30", "toilets:access": "customers", "wheelchair:turning_circle": "yes"}}, {"type": "node", "id": 12181800660, "lat": 50.8398329, "lon": 4.372283, "tags": {"amenity": "restaurant", "changing_table": "no", "changing_table:adult": "no", "created_by": "On Wheels 44", "diet:vegan": "no", "diet:vegetarian": "no", "entrance:kerb:height": "0.5", "entrance:step_count": "3", "entrance:width": "0.78", "name": "Asia Extra", "ramp:wheelchair": "no", "wheelchair:turning_circle": "no"}}, {"type": "node", "id": 12181837942, "lat": 50.8426305, "lon": 4.3716733, "tags": {"amenity": "restaurant", "entrance:kerb:height": "0", "entrance:step_count": "0", "entrance:width": "1", "name": "Time to eat", "toilets:access": "customers", "wheelchair:turning_circle": "yes"}}, {"type": "node", "id": 12232462194, "lat": 50.8434461, "lon": 4.375063, "tags": {"amenity": "restaurant", "check_date": "2024-10-07", "cuisine": "thai", "name": "Chaba Thai", "website:menu": "https://www.chaba-thai.be"}}, {"type": "node", "id": 12756992582, "lat": 50.8440634, "lon": 4.3750504, "tags": {"amenity": "restaurant", "level": "0", "name": "The Twelve"}}, {"type": "node", "id": 12769087037, "lat": 50.842708, "lon": 4.3768554, "tags": {"amenity": "restaurant", "contact:email": "ilramoverdee@hotmail.com", "contact:phone": "+32 2 231 10 95", "cuisine": "italian", "name": "Il Ramo Verdee", "opening_hours": "Mo-Fr 11:30-15:00"}}, {"type": "node", "id": 12926451892, "lat": 50.839855, "lon": 4.3739154, "tags": {"amenity": "restaurant", "name": "Chaba Thai"}}, {"type": "node", "id": 13511501901, "lat": 50.8423959, "lon": 4.3798243, "tags": {"amenity": "restaurant", "name": "Residence Palace"}}]}