{"version": 0.6, "generator": "Overpass API 0.7.62.10 2d4cfc48", "osm3s": {"timestamp_osm_base": "2026-02-02T15:47:30Z", "copyright": "The data included in this document is from www.openstreetmap.org. The data is made available under ODbL."}, "elements": [{"type": "node", "id": 1478778218, "lat": 50.8163581, "lon": 4.3883967}, {"type": "node", "id": 1478778229, "lat": 50.8164243, "lon": 4.3883479}, {"type": "node", "id": 1478778231, "lat": 50.8164926, "lon": 4.3888511}, {"type": "node", "id": 1478778238, "lat": 50.8165552, "lon": 4.3887948}, {"type": "node", "id": 1478778239, "lat": 50.8165679, "lon": 4.3891057}, {"type": "node", "id": 1478778243, "lat": 50.8166159, "lon": 4.3890718, "tags": {"barrier": "gate"}}, {"type": "node", "id": 1478778246, "lat": 50.8166332, "lon": 4.3890596}, {"type": "node", "id": 1626936287, "lat": 50.8299526, "lon": 4.3588247, "tags": {"alt_name": "Funny Horse", "amenity": "bar", "check_date": "2025-09-29", "contact:website": "https://www.funnyhorse.be/", "internet_access": "wlan", "name": "The Funny Horse Club"}}, {"type": "node", "id": 1631975584, "lat": 50.8142769, "lon": 4.356031, "tags": {"amenity": "bar", "contact:website": "https://boaboarecordscafe.com/", "indoor_seating": "yes", "name": "Boa Boa", "opening_hours": "Tu-Sa 16:00-24:00", "outdoor_seating": "yes"}}, {"type": "node", "id": 2183692588, "lat": 50.8378198, "lon": 4.3678032, "tags": {"air_conditioning": "yes", "amenity": "bar", "contact:email": "londoncallingdublin@gmail.com", "contact:phone": "+32 2 888 83 47", "indoor_seating": "yes", "name": "London Calling", "opening_hours": "Mo-Tu 16:00-24:00; We-Fr 16:00-24:00; Sa 19:00-24:00", "outdoor_seating": "yes", "smoking": "outside", "wheelchair": "yes"}}, {"type": "node", "id": 2197253302, "lat": 50.8359326, "lon": 4.3655543, "tags": {"amenity": "bar", "indoor_seating": "yes", "name": "Zonneklop", "opening_hours": "Mo-Sa 17:00-02:00", "outdoor_seating": "no"}}, {"type": "node", "id": 2441937662, "lat": 50.8355966, "lon": 4.3706637, "tags": {"amenity": "bar", "contact:email": "tituluspictus@gmail.com", "contact:phone": "+32 2 512 98 30", "contact:website": "http://www.titulus.be/", "description": "Delicatessen, wine bar, sells wine bottles", "description:fr": "\u00c9picerie fine, bar \u00e0 vins", "indoor_seating": "yes", "name": "Titulus", "opening_hours": "Mo 17:00-20:30; Tu-Sa 12:00-22:00", "outdoor_seating": "yes", "wheelchair": "no"}}, {"type": "node", "id": 2443572645, "lat": 50.8387393, "lon": 4.3707296, "tags": {"amenity": "bar", "cuisine": "greek", "description": "Wine bar", "name": "Idea", "outdoor_seating": "sidewalk", "wheelchair": "no"}}, {"type": "node", "id": 2463358771, "lat": 50.8272864, "lon": 4.3743763, "tags": {"amenity": "bar", "check_date": "2026-02-01", "name": "The Black Sheep"}}, {"type": "node", "id": 2463359353, "lat": 50.8164601, "lon": 4.388473}, {"type": "node", "id": 2463359354, "lat": 50.8165105, "lon": 4.3889142}, {"type": "node", "id": 2463359356, "lat": 50.8164994, "lon": 4.3886025}, {"type": "node", "id": 2463359358, "lat": 50.8165158, "lon": 4.3886627}, {"type": "node", "id": 2463359359, "lat": 50.8165221, "lon": 4.3886824}, {"type": "node", "id": 2463359370, "lat": 50.8165799, "lon": 4.3888752}, {"type": "node", "id": 2466682771, "lat": 50.8238536, "lon": 4.3667614, "tags": {"amenity": "bar", "name": "Ethnic", "opening_hours": "Mo-Fr 18:00-23:59, Tu-Sa 00:00-02:00; Sa 21:00-23:59; Su 00:00-02:00+"}}, {"type": "node", "id": 2466745299, "lat": 50.8246066, "lon": 4.357816, "tags": {"amenity": "bar", "indoor_seating": "yes", "name": "Soif", "opening_hours:signed": "no", "outdoor_seating": "no"}}, {"type": "node", "id": 2468798128, "lat": 50.8184191, "lon": 4.3879337, "tags": {"amenity": "bar", "check_date": "2023-12-12", "name": "Lucky club", "opening_hours": "PH,Mo-Su 14:00-01:00", "sport": "billiards"}}, {"type": "node", "id": 3322996455, "lat": 50.8277159, "lon": 4.3663475, "tags": {"amenity": "bar", "indoor_seating": "yes", "name": "Mises en Bouche", "outdoor_seating": "yes"}}, {"type": "node", "id": 3652702052, "lat": 50.8266433, "lon": 4.373911, "tags": {"amenity": "bar", "check_date:opening_hours": "2024-02-08", "name": "Le melting potes", "note": "Formerly a restaurant named Le roi du poulet", "opening_hours:signed": "no", "wheelchair": "no"}}, {"type": "node", "id": 3670710056, "lat": 50.8140912, "lon": 4.3552571, "tags": {"amenity": "bar", "contact:phone": "+32 2 346 18 05", "contact:website": "https://www.lharmonium.be", "description:fr": "L\u2019Harmonium is een nieuwe bar, un lieu de rencontre autour d\u2019un verre ou d\u2019un encas, dedicated to artistic creation and its diffusion. Au programme : art materialen beschikbaar voor klanten, cuisine cr\u00e9ative, artistic workshops, en culturele evenementen.", "name": "L'Harmonium", "opening_hours": "Tu-Su 11:30-22:00", "smoking": "no", "wheelchair": "yes"}}, {"type": "node", "id": 3857578257, "lat": 50.8216871, "lon": 4.3883408, "tags": {"amenity": "bar", "name": "Chez Cubitus XL", "opening_hours": "Mo-Th 17:00-24:00, Fr 17:00-01:00, Sa 14:00-01:00, Su 14:00-20:00"}}, {"type": "node", "id": 3868669450, "lat": 50.8396082, "lon": 4.3727037, "tags": {"alt_name": "Le Pullmann", "amenity": "bar", "description:fr": "Brasserie restaurant", "entrance:kerb:height": "0.21", "entrance:step_count": "1", "entrance:width": "0.74", "name": "Pullman", "outdoor_seating": "yes"}}, {"type": "node", "id": 3991415855, "lat": 50.8394604, "lon": 4.3677527, "tags": {"amenity": "bar", "name": "Library Bar"}}, {"type": "node", "id": 4026992218, "lat": 50.8336813, "lon": 4.3657896, "tags": {"amenity": "bar", "indoor_seating": "yes", "name": "Choco Bar", "opening_hours": "Mo-Sa 08:00-01:00, Su 12:00-01:00", "outdoor_seating": "yes", "smoking": "isolated", "wheelchair": "yes"}}, {"type": "node", "id": 4030010493, "lat": 50.832598, "lon": 4.3666172, "tags": {"amenity": "bar", "name": "Pompette", "opening_hours": "Su-We 16:00-24:00, Th-Sa 16:00-02:00"}}, {"type": "node", "id": 4262247201, "lat": 50.8395618, "lon": 4.3729314, "tags": {"amenity": "bar", "contact:phone": "+32 2 721 57 15", "entrance:kerb:height": "0.16", "entrance:step_count": "1", "entrance:width": "0.74", "name": "Caf\u00e9 Luxembourg", "opening_hours": "Mo-Tu 08:00-01:00; We 08:00-03:00; Th-Fr 08:00-04:30; Sa 10:00-04:30; Su 11:00-00:00", "outdoor_seating": "veranda"}}, {"type": "node", "id": 4268177836, "lat": 50.8392132, "lon": 4.3707274, "tags": {"amenity": "bar", "name": "Leopold Taverne"}}, {"type": "node", "id": 4415994691, "lat": 50.8273969, "lon": 4.3741556, "tags": {"amenity": "bar", "check_date": "2026-02-01", "name": "Pessoa"}}, {"type": "node", "id": 4417449889, "lat": 50.8270975, "lon": 4.3746956, "tags": {"amenity": "bar", "contact:email": "oreguaflagey@gmail.com", "contact:facebook": "https://m.facebook.com/reguacafebar/?locale=fr_FR", "name": "O'R\u00e9gua", "origin": "portugese"}}, {"type": "node", "id": 4423871734, "lat": 50.8379912, "lon": 4.3695069, "tags": {"amenity": "bar", "contact:mobile": "+32 465 39 47 82", "contact:website": "http://iosonowinebar.com", "name": "Iosono Wine Bar"}}, {"type": "node", "id": 4665074589, "lat": 50.8254436, "lon": 4.355002, "tags": {"amenity": "bar", "check_date": "2024-08-28", "name": "La Trinquette"}}, {"type": "node", "id": 4684005989, "lat": 50.8268268, "lon": 4.3744107, "tags": {"amenity": "bar", "changing_table": "no", "entrance:kerb:height": "0", "entrance:step_count": "0", "entrance:width": "0.82", "indoor_seating": "yes", "name": "L'am\u00e8re \u00e0 boire", "outdoor_seating": "yes", "toilets:wheelchair": "no", "wheelchair:turning_circle": "yes"}}, {"type": "node", "id": 5051859510, "lat": 50.8253671, "lon": 4.3581346, "tags": {"amenity": "bar", "check_date": "2024-08-28", "check_date:opening_hours": "2021-06-20", "contact:email": "contact@snapbar.com", "contact:mobile": "+32 476 73 28 53", "contact:website": "https://www.snapbar.com/", "description": "Karaoke Bar", "name": "Snap", "opening_hours": "Su,Mo off"}}, {"type": "node", "id": 5094225734, "lat": 50.8184632, "lon": 4.363582, "tags": {"amenity": "bar", "check_date": "2024-07-30", "check_date:opening_hours": "2024-07-30", "internet_access": "wlan", "internet_access:fee": "customers", "name": "Le Damier", "opening_hours:signed": "no"}}, {"type": "node", "id": 5130986542, "lat": 50.8241143, "lon": 4.35943, "tags": {"amenity": "bar", "name": "Caf\u00e9 club"}}, {"type": "node", "id": 5580230178, "lat": 50.8218957, "lon": 4.3553549, "tags": {"amenity": "bar", "contact:phone": "+32 2 851 10 39", "name": "Jane's", "opening_hours": "Tu-We 15:30-23:45; Th-Sa 15:30-02:00; Su 11:00-17:00", "outdoor_seating": "yes", "smoking": "no"}}, {"type": "node", "id": 5910187133, "lat": 50.8171587, "lon": 4.3667693, "tags": {"amenity": "bar", "name": "Le Savoye"}}, {"type": "node", "id": 5910222878, "lat": 50.8149959, "lon": 4.3674432, "tags": {"amenity": "bar", "check_date": "2024-08-28", "name": "Le Carrefour"}}, {"type": "node", "id": 5910303544, "lat": 50.8143938, "lon": 4.3593073, "tags": {"amenity": "bar", "check_date": "2024-08-28", "name": "Le Champlain"}}, {"type": "node", "id": 5910308954, "lat": 50.8142811, "lon": 4.3563214, "tags": {"amenity": "bar", "indoor_seating": "yes", "name": "Le Longchamps", "outdoor_seating": "yes"}}, {"type": "node", "id": 6394781034, "lat": 50.8189843, "lon": 4.3874029, "tags": {"amenity": "bar", "brewery": "yes", "indoor_seating": "yes", "name": "Le B@cchus", "outdoor_seating": "yes"}}, {"type": "node", "id": 6418483666, "lat": 50.816414, "lon": 4.3914197, "tags": {"amenity": "bar", "brewery": "yes", "name": "Bar 77", "opening_hours": "18:00-02:00", "outdoor_seating": "yes"}}, {"type": "node", "id": 6418483683, "lat": 50.8206533, "lon": 4.3868286, "tags": {"amenity": "bar", "contact:website": "https://winebar-mouchart.be/fr", "name": "Wine bar Mouchart", "opening_hours": "Tu-Sa 17:00-00:00", "outdoor_seating": "terrace", "shop": "wine"}}, {"type": "node", "id": 6424745050, "lat": 50.8326974, "lon": 4.3688746, "tags": {"amenity": "bar", "check_date:opening_hours": "2024-07-05", "indoor_seating": "yes", "name": "Au panier d'Ixelles", "opening_hours:signed": "no", "outdoor_seating": "no"}}, {"type": "node", "id": 6483739848, "lat": 50.8277007, "lon": 4.3743012, "tags": {"amenity": "bar", "name": "Cafe Rio Mondego"}}, {"type": "node", "id": 6487476523, "lat": 50.8333224, "lon": 4.366206, "tags": {"amenity": "bar", "check_date": "2025-07-13", "contact:phone": "+32 2 512 24 66", "contact:website": "https://contrebande-bar.be", "name": "Contrebande", "opening_hours": "Mo-Th 16:00-24:00; Fr 16:00-02:00; Sa 14:00-02:00; Su 14:00-24:00"}}, {"type": "node", "id": 6651632880, "lat": 50.8254998, "lon": 4.3548158, "tags": {"amenity": "bar", "name": "Cob\u00e1"}}, {"type": "node", "id": 6720857519, "lat": 50.8274814, "lon": 4.3650621, "tags": {"amenity": "bar", "indoor_seating": "yes", "name": "Kastar", "outdoor_seating": "yes"}}, {"type": "node", "id": 6721194415, "lat": 50.8160296, "lon": 4.3894568, "tags": {"amenity": "bar", "check_date": "2026-01-31", "name": "Le Bar d'Ixelles", "outdoor_seating": "yes"}}, {"type": "node", "id": 6757380218, "lat": 50.8378261, "lon": 4.3687787, "tags": {"amenity": "bar", "check_date": "2024-10-10", "fixme": "check exact location and name spelling", "name": "Elturco", "wheelchair": "yes"}}, {"type": "node", "id": 6815774864, "lat": 50.8265892, "lon": 4.3626606, "tags": {"amenity": "bar", "description": "Lounge bar", "name": "Le Boudoir"}}, {"type": "node", "id": 6815837995, "lat": 50.8247754, "lon": 4.357256, "tags": {"amenity": "bar", "check_date": "2024-08-28", "contact:phone": "+32 2 534 64 34", "contact:website": "https://www.oenotk.com/", "description": "Wine bar", "description:fr": "Bar \u00e0 vins", "name": "Oeno TK", "opening_hours": "Mo-Fr 16:00-23:00, Sa 14:00-23:00"}}, {"type": "node", "id": 6815857057, "lat": 50.8241646, "lon": 4.3592502, "tags": {"amenity": "bar", "check_date": "2024-08-28", "description": "Bar \u00e0 cocktails", "name": "Le Stoefer", "website": "https://lestoefer.be"}}, {"type": "node", "id": 6815859419, "lat": 50.8254506, "lon": 4.3584683, "tags": {"amenity": "bar", "contact:instagram": "http://instagram.com/confessionsbxl", "indoor_seating": "yes", "name": "Confessions", "outdoor_seating": "yes"}}, {"type": "node", "id": 7213745081, "lat": 50.8310137, "lon": 4.3685158, "tags": {"amenity": "bar", "name": "Fermento"}}, {"type": "node", "id": 7254813152, "lat": 50.8185689, "lon": 4.3839964, "tags": {"amenity": "bar", "name": "Ratabar"}}, {"type": "node", "id": 7272572860, "lat": 50.8285825, "lon": 4.3720353, "tags": {"amenity": "bar", "contact:mobile": "+32 474 36 49 44", "indoor_seating": "yes", "name": "Le Flagey", "opening_hours": "Mo-Fr 09:30-23:00", "outdoor_seating": "yes", "wheelchair": "limited"}}, {"type": "node", "id": 7696147085, "lat": 50.82787, "lon": 4.3742748, "tags": {"amenity": "bar", "name": "Le Tigre"}}, {"type": "node", "id": 7833853185, "lat": 50.8234702, "lon": 4.3630583, "tags": {"amenity": "bar", "name": "Tarzan"}}, {"type": "node", "id": 7921173128, "lat": 50.8164547, "lon": 4.3887232}, {"type": "node", "id": 7995752748, "lat": 50.8092381, "lon": 4.3769161, "tags": {"amenity": "bar", "contact:facebook": "https://www.facebook.com/Leflore.brussels", "contact:instagram": "https://www.instagram.com/leflore.brussels/", "contact:phone": "+32 2 343 04 24", "contact:website": "https://leflore.brussels", "lunch": "yes", "name": "Le Flore Brussels", "opening_hours": "We-Sa 11:30-24:00; Su 11:30-18:00", "outdoor_seating": "yes", "wheelchair": "no"}}, {"type": "node", "id": 8748608981, "lat": 50.8309058, "lon": 4.3638527, "tags": {"amenity": "bar", "indoor_seating": "yes", "name": "La Casa Lounge", "outdoor_seating": "no"}}, {"type": "node", "id": 9366220888, "lat": 50.836614, "lon": 4.36675, "tags": {"air_conditioning": "yes", "amenity": "bar", "contact:phone": "+32 2 502 09 74", "contact:website": "https://www.pool-gate.be/", "internet_access": "wlan", "internet_access:fee": "no", "name": "Pool Gate", "opening_hours:covid19": "Mo-Su 17:30-03:00", "payment:cash": "yes", "payment:debit_cards": "yes", "payment:mastercard": "yes", "payment:visa": "yes", "sport": "billiards", "wheelchair": "yes"}}, {"type": "node", "id": 9389425329, "lat": 50.8220016, "lon": 4.3865684, "tags": {"amenity": "bar", "contact:email": "hello@horscategorie.brussels", "contact:facebook": "https://www.facebook.com/horscategorie.brussels", "contact:instagram": "https://www.instagram.com/horscategorie.brussels/", "contact:phone": "+32 2 649 00 02", "contact:website": "http://horscategorie.brussels", "name": "Hors Cat\u00e9gorie - Bar", "opening_hours": "Mo,Tu,PH off; We-Th 16:00-22:00; Fr-Sa 15:00-22:00; Su 15:00-20:00"}}, {"type": "node", "id": 9571785660, "lat": 50.831174, "lon": 4.3575726, "tags": {"amenity": "bar", "contact:email": "chezstephy@gmail.com", "contact:facebook": "https://facebook.com/chezstephy", "contact:instagram": "https://www.instagram.com/chezstephy/", "contact:mobile": "+32 474 87 15 41", "contact:website": "https://www.stephy.be", "name": "Chez StephY", "opening_hours": "Tu-Su 17:00+", "payment:contactless": "yes", "payment:credit_cards": "yes"}}, {"type": "node", "id": 9587373732, "lat": 50.8255551, "lon": 4.3592818, "tags": {"amenity": "bar", "contact:mobile": "+32 487 56 05 15", "description": "Lounge", "name": "Touareg", "opening_hours": "Mo-Su 14:00-02:00", "smoking": "dedicated"}}, {"type": "node", "id": 9773152847, "lat": 50.8336646, "lon": 4.3662816, "tags": {"amenity": "bar", "contact:instagram": "https://www.instagram.com/rosa_bar_brussels/", "indoor_seating": "yes", "name": "Rosa", "outdoor_seating": "yes", "was:name": "Vertical"}}, {"type": "node", "id": 10550531075, "lat": 50.8270993, "lon": 4.3549184, "tags": {"amenity": "bar", "check_date": "2025-03-11", "contact:facebook": "joliejolicocktailclub", "name": "Jolie Joli Cocktail Club"}}, {"type": "node", "id": 10792704806, "lat": 50.8231356, "lon": 4.3536514, "tags": {"amenity": "bar", "name": "Latino Caf\u00e9 Bar", "name:en": "Latino Caf\u00e9 Bar"}}, {"type": "node", "id": 10826946207, "lat": 50.8248526, "lon": 4.3602536, "tags": {"amenity": "bar", "check_date": "2025-07-17", "name": "L'Impasse"}}, {"type": "node", "id": 11001935400, "lat": 50.8224872, "lon": 4.3629965, "tags": {"amenity": "bar", "contact:instagram": "https://www.instagram.com/raki.winebar/", "name": "Raki", "opening_hours": "We-Su 18:00+"}}, {"type": "node", "id": 11112427720, "lat": 50.8265784, "lon": 4.3622596, "tags": {"amenity": "bar", "name": "La Note"}}, {"type": "node", "id": 11210922246, "lat": 50.8170879, "lon": 4.3534597, "tags": {"amenity": "bar", "name": "P\u00e9nar", "opening_hours": "Mo-Sa 11:00-23:00", "outdoor_seating": "yes"}}, {"type": "node", "id": 11360055872, "lat": 50.8256697, "lon": 4.3543713, "tags": {"amenity": "bar", "indoor_seating": "yes", "name": "Le pr\u00e9texte", "outdoor_seating": "yes"}}, {"type": "node", "id": 11406492664, "lat": 50.817562, "lon": 4.3882918, "tags": {"amenity": "bar", "name": "Le Gauguin"}}, {"type": "node", "id": 11406492666, "lat": 50.8182343, "lon": 4.3852548, "tags": {"amenity": "bar", "check_date:opening_hours": "2024-12-27", "contact:website": "http://www.lemontmartre.be/", "name": "Montmartre", "opening_hours": "Mo-Fr 11:00-22:00+; Sa,Su,PH 15:00-22:00+", "panoramax": "3edde328-d693-45b8-a82d-5350cd597f54", "wifi": "yes"}}, {"type": "node", "id": 11420848461, "lat": 50.8280941, "lon": 4.3760036, "tags": {"amenity": "bar", "name": "Life"}}, {"type": "node", "id": 11502834658, "lat": 50.8377225, "lon": 4.3676973, "tags": {"amenity": "bar", "contact:mobile": "+32 475 71 69 73", "contact:website": "https://non-peutetre.be/", "entrance:kerb:height": "0", "entrance:step_count": "11", "entrance:width": "0.82", "indoor_seating": "yes", "name": "Non Peut-\u00catre", "opening_hours": "Mo-Fr 17:00-23:00", "outdoor_seating": "yes", "payment:cash": "yes", "payment:debit_cards": "yes", "payment:mastercard": "yes", "payment:postfinance_card": "yes", "payment:visa": "yes", "toilets:wheelchair": "no"}}, {"type": "node", "id": 11516372085, "lat": 50.8378123, "lon": 4.3720227, "tags": {"amenity": "bar", "elevator:depth": "1.3", "elevator:door:width": "0.8", "elevator:width": "1.5", "entrance:step_count": "0", "entrance:width": "0.83", "name": "The Poet", "toilets:access": "customers", "toilets:wheelchair": "yes", "toilets:wheelchair:accessible_via": "lift_accessible", "toilets:wheelchair:door_width": "0.91"}}, {"type": "node", "id": 11554358050, "lat": 50.8163357, "lon": 4.3892381, "tags": {"amenity": "bar", "contact:email": "info@waff.be", "contact:phone": "+32 2 640 00 42", "contact:website": "https://www.waff.be/", "name": "Waff"}}, {"type": "node", "id": 11782644291, "lat": 50.8190025, "lon": 4.3833161, "tags": {"amenity": "bar", "check_date:opening_hours": "2024-02-08", "name": "Banning", "opening_hours:signed": "no", "wheelchair": "limited"}}, {"type": "node", "id": 11951493222, "lat": 50.8243529, "lon": 4.3604657, "tags": {"alt_name": "La Place 33", "amenity": "bar", "name": "La Place", "website": "https://www.laplace33.be/"}}, {"type": "node", "id": 12238620493, "lat": 50.8316747, "lon": 4.3856828, "tags": {"amenity": "bar", "contact:mobile": "+32 484 02 01 00", "contact:website": "https://etc.cafe/", "indoor_seating": "yes", "name": "Etcetera", "opening_hours": "Mo-Su 11:00-00:00", "opening_hours:signed": "no", "outdoor_seating": "yes", "payment:cards": "no", "payment:cash": "yes", "short_name": "Etc"}}, {"type": "way", "id": 134497214, "nodes": [1478778246, 2463359370, 1478778238, 2463359359, 2463359358, 2463359356, 2463359353, 1478778229, 1478778218, 7921173128, 1478778231, 2463359354, 1478778239, 1478778243, 1478778246], "tags": {"amenity": "bar", "contact:email": "info@le-tavernier.be", "contact:phone": "+32 475 24 15 23", "contact:website": "http://www.le-tavernier.be/", "internet_access": "wlan", "name": "Tavernier", "outdoor_seating": "yes", "payment:cards": "no", "payment:cash": "no", "payment:credit_cards": "yes", "payment:qr_code": "no", "toilets:wheelchair": "no", "wheelchair": "yes"}}]}