{"version": 0.6, "generator": "Overpass API 0.7.62.10 2d4cfc48", "osm3s": {"timestamp_osm_base": "2026-02-03T09:22:40Z", "copyright": "The data included in this document is from www.openstreetmap.org. The data is made available under ODbL."}, "elements": [{"type": "node", "id": 2338171997, "lat": 50.8512228, "lon": 4.397058, "tags": {"amenity": "restaurant", "contact:phone": "+32 2 358 68 52", "contact:website": "https://www.lepoppins.com", "cuisine": "italian;pasta", "diet:gluten_free": "yes", "diet:meat": "yes", "diet:vegetarian": "yes", "name": "Poppins", "opening_hours": "Mo-We 11:30-15:00, Th-Fr 11:30-22:30, Sa off, Su off", "outdoor_seating": "yes", "reservation": "yes", "smoking": "outside", "source": "UrbIS", "takeaway": "yes"}}, {"type": "node", "id": 2338172015, "lat": 50.849952, "lon": 4.3933587, "tags": {"amenity": "restaurant", "contact:phone": "+32 2 738 78 26", "contact:website": "http://www.lesaintgeorges.be/", "description": "Brasserie - Ecailler", "diet:vegetarian": "no", "indoor_seating": "yes", "name": "Le Saint-Georges", "opening_hours": "PH,Mo-Su 11:00-24:00", "outdoor_seating": "yes", "source": "UrbIS"}}, {"type": "node", "id": 2338172016, "lat": 50.8502331, "lon": 4.3944772, "tags": {"amenity": "restaurant", "check_date": "2025-08-31", "contact:instagram": "https://www.instagram.com/cheztom_brussels", "name": "Chez Tom", "opening_hours": "Mo,Tu 09:00-22:00; We-Su 09:00-23:00", "outdoor_seating": "yes"}}, {"type": "node", "id": 2357756974, "lat": 50.8530973, "lon": 4.391313, "tags": {"amenity": "restaurant", "contact:website": "https://obeyrouth-restaurant.be/", "cuisine": "lebanese", "name": "O Beyrouth"}}, {"type": "node", "id": 2359101259, "lat": 50.852763, "lon": 4.3901707, "tags": {"amenity": "restaurant", "contact:phone": "+32 2 732 61 81", "contact:website": "http://www.poseidons.be/", "cuisine": "greek", "name": "Poseidon", "opening_hours": "Mo-Fr 11:00-14:00, 18:00-22:00; Sa-Su 11:00-15:00, 18:00-22:00", "takeaway": "only"}}, {"type": "node", "id": 2365469558, "lat": 50.8498765, "lon": 4.3990586, "tags": {"amenity": "restaurant", "name": "Le Petit Restaurant", "opening_hours": "Tu-Su 12:00-15:00,18:00-23:00"}}, {"type": "node", "id": 2421757610, "lat": 50.8497369, "lon": 4.3902097, "tags": {"amenity": "restaurant", "check_date:opening_hours": "2024-04-28", "contact:phone": "+32 2 735 15 17", "contact:website": "https://lesainthubert.be/", "diet:vegetarian": "no", "name": "Le Saint Hubert", "opening_hours": "Mo-Su 11:00-23:00", "opening_hours:signed": "no", "outdoor_seating": "yes"}}, {"type": "node", "id": 4214034195, "lat": 50.8504597, "lon": 4.396665, "tags": {"amenity": "restaurant", "contact:website": "https://www.postoalsole.be", "cuisine": "italian", "name": "Un Posto al Sole", "outdoor_seating": "yes"}}, {"type": "node", "id": 6001367002, "lat": 50.8490926, "lon": 4.4013893, "tags": {"amenity": "restaurant", "contact:email": "info@ciaooopizzeria.be", "contact:facebook": "https://www.facebook.com/ciaooo.it/", "contact:instagram": "https://www.instagram.com/ciaooopizzeria/", "contact:phone": "+32 2 310 06 20", "contact:website": "https://www.ciaooopizzeria.be/", "cuisine": "pizza", "name": "Ciaooo Pizzeria", "opening_hours": "Mo off; Tu-Su16:00-23:00", "takeaway": "yes"}}, {"type": "node", "id": 6009155394, "lat": 50.8487594, "lon": 4.3937097, "tags": {"amenity": "restaurant", "contact:phone": "+32 2 733 50 88", "cuisine": "chinese", "diet:vegetarian": "yes", "name": "China Express 2", "opening_hours": "Mo-Fr,Su 11:30-14:30,17:30-22:30; Sa off", "takeaway": "yes"}}, {"type": "node", "id": 6505549382, "lat": 50.8474557, "lon": 4.3926524, "tags": {"amenity": "restaurant", "contact:email": "lescapricesdharmony@hotmail.com", "contact:phone": "+32 2 733 14 02", "contact:website": "https://www.lescapricesdharmony.eu/", "name": "Les Caprices d'Harmony", "opening_hours": "Tu-Fr 12:00-14:30, 18:30-23:00; Sa 18:30-23:00; PH off", "opening_hours:kitchen": "Tu-Fr 12:00-14:00, 18:30-22:00; Sa 18:30-22:00; PH off", "outdoor_seating": "yes"}}, {"type": "node", "id": 7925763076, "lat": 50.8506718, "lon": 4.3949932, "tags": {"amenity": "restaurant", "check_date": "2024-08-29", "contact:facebook": "https://www.facebook.com/pizzeria450/", "contact:mobile": "+32 494 21 87 13", "cuisine": "pizza", "level": "0", "name": "450 Gradi", "opening_hours": "Tu,We,Su 17:00-23:00; Th 17:00-23:00,12:00-14:00; Fr,Sa 17:00-23:30", "outdoor_seating": "yes", "payment:cash": "yes", "payment:credit_cards": "yes", "payment:debit_cards": "yes", "website": "https://www.450gradi.be"}}, {"type": "node", "id": 10694653992, "lat": 50.8503997, "lon": 4.3950016, "tags": {"amenity": "restaurant", "contact:mobile": "+32 479 43 17 60", "cuisine": "burger", "name": "Chardin", "opening_hours": "Mo,We-Su 12:00-14:00, 19:00-22:00", "outdoor_seating": "yes"}}, {"type": "node", "id": 11872780875, "lat": 50.8527161, "lon": 4.3906233, "tags": {"amenity": "restaurant", "cuisine": "italian;pizza;pasta", "name": "Da Mario Take Away", "takeaway": "only"}}, {"type": "node", "id": 13173726135, "lat": 50.8525378, "lon": 4.3950784, "tags": {"amenity": "restaurant", "contact:phone": "+32 2 608 39 31", "contact:website": "http://www.pizzasaco.com/", "cuisine": "pizza", "diet:vegan": "no", "diet:vegetarian": "yes", "name": "Pizza Saco", "opening_hours": "Mo-Sa 18:00-23:00", "outdoor_seating": "yes", "reservation": "yes", "takeaway": "yes"}}]}