{"version": 0.6, "generator": "Overpass API 0.7.62.10 2d4cfc48", "osm3s": {"timestamp_osm_base": "2026-02-02T15:56:43Z", "copyright": "The data included in this document is from www.openstreetmap.org. The data is made available under ODbL."}, "elements": [{"type": "node", "id": 341797000, "lat": 50.8440469, "lon": 4.4267026, "tags": {"check_date:wheelchair": "2021-06-08", "name": "Place du Tomberg - Tombergplein", "name:fr": "Place du Tomberg", "name:nl": "Tombergplein", "railway": "subway_entrance", "ref": "3", "wheelchair": "no"}}, {"type": "node", "id": 1241613556, "lat": 50.8427867, "lon": 4.4056727, "tags": {"name": "Boulevard Brand Whitlock - Brand Whitlocklaan", "name:fr": "Boulevard Brand Whitlock", "name:nl": "Brand Whitlocklaan", "railway": "subway_entrance", "ref": "4", "wheelchair": "no"}}, {"type": "node", "id": 1241613594, "lat": 50.8428767, "lon": 4.4063995, "tags": {"name": "Boulevard Brand Whitlock - Brand Whitlocklaan", "name:fr": "Boulevard Brand Whitlock", "name:nl": "Brand Whitlocklaan", "railway": "subway_entrance", "ref": "3", "wheelchair": "yes"}}, {"type": "node", "id": 1783153843, "lat": 50.8436074, "lon": 4.4248472, "tags": {"name": "Avenue Paul Hymans - Paul Hymanslaan", "name:fr": "Avenue Paul Hymans", "name:nl": "Paul Hymanslaan", "railway": "subway_entrance", "ref": "1", "wheelchair": "yes"}}, {"type": "node", "id": 1783153844, "lat": 50.8435753, "lon": 4.4255159, "tags": {"check_date:wheelchair": "2021-06-08", "name": "Place du Tomberg - Tombergplein", "name:fr": "Place du Tomberg", "name:nl": "Tombergplein", "railway": "subway_entrance", "ref": "4", "wheelchair": "no"}}, {"type": "node", "id": 1783163593, "lat": 50.8446588, "lon": 4.4045753, "tags": {"name": "Square Vergote - Vergoteplein", "name:fr": "Square Vergote", "name:nl": "Vergoteplein", "railway": "subway_entrance", "ref": "2", "wheelchair": "no"}}, {"type": "node", "id": 1783163594, "lat": 50.8446258, "lon": 4.4054852, "tags": {"name": "Square Vergote - Vergoteplein", "name:fr": "Square Vergote", "name:nl": "Vergoteplein", "railway": "subway_entrance", "ref": "1", "wheelchair": "no"}}, {"type": "node", "id": 1811158185, "lat": 50.8447464, "lon": 4.4258551, "tags": {"name": "Avenue Paul Hymans - Paul Hymanslaan", "name:fr": "Avenue Paul Hymans", "name:nl": "Paul Hymanslaan", "railway": "subway_entrance", "ref": "2", "wheelchair": "no"}}, {"type": "node", "id": 1826298960, "lat": 50.8441583, "lon": 4.4259156, "tags": {"bicycle": "yes", "name": "Avenue Paul Hymans - Paul Hymanslaan", "name:fr": "Avenue Paul Hymans", "name:nl": "Paul Hymanslaan", "railway": "subway_entrance", "ref": "5", "wheelchair": "yes"}}, {"type": "node", "id": 1839580048, "lat": 50.847889, "lon": 4.4375766, "tags": {"name": "Avenue Paul Hymans - Paul Hymanslaan", "name:fr": "Avenue Paul Hymans", "name:nl": "Paul Hymanslaan", "railway": "subway_entrance", "ref": "2", "wheelchair": "no"}}, {"type": "node", "id": 1839580049, "lat": 50.8476056, "lon": 4.4378796, "tags": {"name": "Avenue Paul Hymans - Paul Hymanslaan", "name:fr": "Avenue Paul Hymans", "name:nl": "Paul Hymanslaan", "railway": "subway_entrance", "ref": "3", "wheelchair": "no"}}, {"type": "node", "id": 1839580050, "lat": 50.8478338, "lon": 4.4359079, "tags": {"name": "Parking Roodebeek", "name:fr": "Parking Roodebeek", "name:nl": "Parking Roodebeek", "railway": "subway_entrance", "ref": "1", "wheelchair": "no"}}, {"type": "node", "id": 1989523690, "lat": 50.8473299, "lon": 4.4478053, "tags": {"name": "Avenue Emile Vandervelde - Emile Vanderveldelaan", "name:fr": "Avenue Emile Vandervelde", "name:nl": "Emile Vanderveldelaan", "railway": "subway_entrance", "ref": "2", "wheelchair": "no"}}, {"type": "node", "id": 1989523691, "lat": 50.847677, "lon": 4.4484325, "tags": {"name": "Avenue Emile Vandervelde - Emile Vanderveldelaan", "name:fr": "Avenue Emile Vandervelde", "name:nl": "Emile Vanderveldelaan", "railway": "subway_entrance", "ref": "1", "wheelchair": "no"}}, {"type": "node", "id": 2083371319, "lat": 50.8404899, "lon": 4.4136897, "tags": {"name": "Avenue de Woluwe-St-Lambert - Sint-Lambrechts-Woluwelaan", "name:fr": "Avenue de Woluwe-St-Lambert", "name:nl": "Sint-Lambrechts-Woluwelaan", "railway": "subway_entrance", "ref": "2", "wheelchair": "no"}}, {"type": "node", "id": 2083371320, "lat": 50.8399613, "lon": 4.4129659, "tags": {"name": "Square Jos\u00e9phine-Charlotte - Jos\u00e9phine-Charlottesquare", "name:fr": "Square Jos\u00e9phine-Charlotte", "name:nl": "Jos\u00e9phine-Charlottesquare", "railway": "subway_entrance", "ref": "1", "wheelchair": "yes"}}, {"type": "node", "id": 2083380135, "lat": 50.8402215, "lon": 4.4139227, "tags": {"name": "Avenue de Broqueville - de Broquevillelaan", "name:fr": "Avenue de Broqueville", "name:nl": "de Broquevillelaan", "railway": "subway_entrance", "ref": "3", "wheelchair": "no"}}, {"type": "node", "id": 2083414957, "lat": 50.8427606, "lon": 4.4181563, "tags": {"name": "Avenue du Roi Chevalier - Ridder Koninglaan", "name:fr": "Avenue du Roi Chevalier", "name:nl": "Ridder Koninglaan", "railway": "subway_entrance", "ref": "2", "wheelchair": "no"}}, {"type": "node", "id": 2083414966, "lat": 50.8422593, "lon": 4.4176388, "tags": {"check_date:wheelchair": "2021-07-11", "name": "Avenue Gribaumont - Louis Gribaumontlaan", "name:fr": "Avenue Gribaumont", "name:nl": "Louis Gribaumontlaan", "railway": "subway_entrance", "ref": "4", "wheelchair": "no"}}, {"type": "node", "id": 2083414969, "lat": 50.8425973, "lon": 4.4177421, "tags": {"layer": "-1", "level": "-1", "location": "underground", "railway": "subway_entrance", "ref": "1", "wheelchair": "no"}}, {"type": "node", "id": 2347978249, "lat": 50.8422279, "lon": 4.4180753, "tags": {"check_date:wheelchair": "2021-07-11", "name": "Avenue Gribaumont - Louis Gribaumontlaan", "name:fr": "Avenue Gribaumont", "name:nl": "Louis Gribaumontlaan", "railway": "subway_entrance", "ref": "3", "wheelchair": "no"}}, {"type": "node", "id": 2364397844, "lat": 50.8497346, "lon": 4.4526663, "tags": {"level": "1", "name": "Place de la Vecqu\u00e9e - V\u00e8cqu\u00e9eplein", "name:fr": "Place de la Vecqu\u00e9e", "name:nl": "V\u00e8cqu\u00e9eplein", "railway": "subway_entrance", "ref": "2", "wheelchair": "yes"}}, {"type": "node", "id": 2368465591, "lat": 50.8496097, "lon": 4.4530396, "tags": {"name": "Place de l'Alma - Almaplein", "name:fr": "Place de l'Alma", "name:nl": "Almaplein", "railway": "subway_entrance", "ref": "3", "wheelchair": "yes"}}, {"type": "node", "id": 3721663836, "lat": 50.847366, "lon": 4.4337359, "tags": {"name": "Avenue Paul Hymans - Paul Hymanslaan", "name:fr": "Avenue Paul Hymans", "name:nl": "Paul Hymanslaan", "railway": "subway_entrance", "ref": "6", "wheelchair": "no"}}, {"type": "node", "id": 4696981530, "lat": 50.8488091, "lon": 4.4586153, "tags": {"name": "Avenue de Wezembeek - Wezembeeklaan", "name:fr": "Avenue de Wezembeek", "name:nl": "Wezembeeklaan", "railway": "subway_entrance", "ref": "1", "wheelchair": "yes"}}, {"type": "node", "id": 4701737666, "lat": 50.8471877, "lon": 4.434934, "tags": {"name": "Avenue Paul Hymans - Paul Hymanslaan", "name:fr": "Avenue Paul Hymans", "name:nl": "Paul Hymanslaan", "railway": "subway_entrance", "ref": "5", "wheelchair": "no"}}, {"type": "node", "id": 4701742937, "lat": 50.8474413, "lon": 4.4381714, "tags": {"name": "Woluwe Shopping Center", "railway": "subway_entrance", "ref": "4", "wheelchair": "no"}}, {"type": "node", "id": 5935901406, "lat": 50.8476312, "lon": 4.4369944, "tags": {"check_date:wheelchair": "2025-05-22", "railway": "subway_entrance", "ref": "7", "wheelchair": "no"}}, {"type": "node", "id": 6742010124, "lat": 50.842714, "lon": 4.417953, "tags": {"name": "Avenue du Roi Chevalier - Ridder Koninglaan", "name:fr": "Avenue du Roi Chevalier", "name:nl": "Ridder Koninglaan", "railway": "subway_entrance", "ref": "1H", "wheelchair": "yes"}}, {"type": "node", "id": 8675438601, "lat": 50.8498046, "lon": 4.4533906, "tags": {"level": "0", "name": "Place de l'Alma - Almaplein", "name:fr": "Place de l'Alma", "name:nl": "Almaplein", "railway": "subway_entrance", "ref": "1", "wheelchair": "yes"}}, {"type": "node", "id": 9762479006, "lat": 50.847703, "lon": 4.4358818, "tags": {"railway": "subway_entrance", "ref": "1H", "wheelchair": "yes"}}, {"type": "node", "id": 11245360799, "lat": 50.8474598, "lon": 4.4464305, "tags": {"railway": "subway_entrance", "ref": "3", "wheelchair": "yes"}}, {"type": "node", "id": 11245360800, "lat": 50.8472509, "lon": 4.4464216, "tags": {"railway": "subway_entrance", "ref": "4", "wheelchair": "yes"}}]}