{"version": 0.6, "generator": "Overpass API 0.7.62.10 2d4cfc48", "osm3s": {"timestamp_osm_base": "2026-02-03T09:21:36Z", "copyright": "The data included in this document is from www.openstreetmap.org. The data is made available under ODbL."}, "elements": [{"type": "node", "id": 1871737110, "lat": 50.8506687, "lon": 4.3942232, "tags": {"amenity": "bar", "check_date": "2024-08-29", "name": "L'Imper", "outdoor_seating": "yes", "payment:cash": "no", "payment:credit_cards": "yes", "payment:debit_cards": "yes"}}, {"type": "node", "id": 2363509887, "lat": 50.8487819, "lon": 4.3904443, "tags": {"amenity": "bar", "name": "Dreams", "opening_hours": "Mo-Fr 08:00-01:00, Sa,Su 09:00-02:00", "outdoor_seating": "yes"}}, {"type": "node", "id": 2365462141, "lat": 50.8504124, "lon": 4.3965324, "tags": {"amenity": "pub", "check_date": "2024-10-05", "name": "New Plasky", "opening_hours": "Mo-Fr 12:00-24:00; Sa 15:00-24:00", "outdoor_seating": "yes", "payment:cash": "yes", "payment:credit_cards": "yes", "payment:debit_cards": "yes"}}, {"type": "node", "id": 2365503340, "lat": 50.850496, "lon": 4.3959196, "tags": {"amenity": "bar", "name": "Jef Live", "outdoor_seating": "yes"}}, {"type": "node", "id": 3951599267, "lat": 50.8502871, "lon": 4.3934159, "tags": {"amenity": "bar", "check_date:opening_hours": "2024-04-28", "contact:phone": "+32 2 736 82 04", "contact:website": "http://www.felixbar.be/", "indoor_seating": "yes", "name": "Chez Felix", "opening_hours": "Mo-Sa 16:00-22:00", "opening_hours:signed": "no", "outdoor_seating": "yes"}}, {"type": "node", "id": 5800912585, "lat": 50.8489109, "lon": 4.4018626, "tags": {"amenity": "pub", "name": "Le Diamant"}}, {"type": "node", "id": 5923692612, "lat": 50.8496866, "lon": 4.392157, "tags": {"amenity": "bar", "brewery": "yes", "check_date": "2024-08-29", "check_date:opening_hours": "2024-04-28", "contact:email": "python.craftbeer@gmail.com", "contact:facebook": "PythonCraftBeer", "contact:mobile": "+32 479 58 12 19", "name": "Python", "opening_hours": "Mo-Th 16:00-00:00; Fr-Sa 16:00-01:00; Su off", "opening_hours:signed": "no", "outdoor_seating": "yes", "payment:cash": "yes", "payment:credit_cards": "yes", "payment:debit_cards": "yes", "smoking": "outside"}}, {"type": "node", "id": 7925730513, "lat": 50.8530942, "lon": 4.3914387, "tags": {"amenity": "bar", "name": "Bugg's"}}, {"type": "node", "id": 7925763078, "lat": 50.8489673, "lon": 4.390471, "tags": {"amenity": "pub", "name": "Les Bons Enfants", "opening_hours": "Mo-Sa 08:00-24:00", "outdoor_seating": "yes"}}]}