{"version": 0.6, "generator": "Overpass API 0.7.62.10 2d4cfc48", "osm3s": {"timestamp_osm_base": "2026-02-02T17:44:00Z", "copyright": "The data included in this document is from www.openstreetmap.org. The data is made available under ODbL."}, "elements": [{"type": "node", "id": 3121274427, "lat": 50.8273419, "lon": 4.3719346, "tags": {"name": "Flagey", "public_transport": "stop_position", "railway": "tram_stop", "tram": "yes"}}, {"type": "node", "id": 3124859480, "lat": 50.8268419, "lon": 4.3640894, "tags": {"name": "Bailli - Baljuw", "name:fr": "Bailli", "name:nl": "Baljuw", "public_transport": "stop_position", "railway": "tram_stop", "tram": "yes"}}, {"type": "node", "id": 3132141473, "lat": 50.815565, "lon": 4.3717381, "tags": {"name": "Legrand", "public_transport": "stop_position", "railway": "tram_stop", "tram": "yes", "wikidata": "Q30312617"}}, {"type": "node", "id": 3132141646, "lat": 50.8159288, "lon": 4.3719198, "tags": {"name": "Legrand", "public_transport": "stop_position", "railway": "tram_stop", "tram": "yes", "wikidata": "Q30312617"}}, {"type": "node", "id": 3132141664, "lat": 50.816263, "lon": 4.3718399, "tags": {"name": "Legrand", "public_transport": "stop_position", "railway": "tram_stop", "tram": "yes", "wikidata": "Q30312617"}}, {"type": "node", "id": 3132141682, "lat": 50.8163538, "lon": 4.3763066, "tags": {"name": "Cambre-\u00c9toile - Ter Kameren-Ster", "name:fr": "Cambre-\u00c9toile", "name:nl": "Ter Kameren-Ster", "public_transport": "stop_position", "railway": "tram_stop", "tram": "yes"}}, {"type": "node", "id": 3132141701, "lat": 50.8165192, "lon": 4.3775061, "tags": {"name": "Cambre-\u00c9toile - Ter Kameren-Ster", "name:fr": "Cambre-\u00c9toile", "name:nl": "Ter Kameren-Ster", "public_transport": "stop_position", "railway": "tram_stop", "tram": "yes"}}, {"type": "node", "id": 3132141843, "lat": 50.8171997, "lon": 4.3784615, "tags": {"name": "Buyl", "public_transport": "stop_position", "railway": "tram_stop", "tram": "yes", "wikidata": "Q13446825"}}, {"type": "node", "id": 3132142852, "lat": 50.8229779, "lon": 4.3680695, "tags": {"name": "Vleurgat", "public_transport": "stop_position", "railway": "tram_stop", "tram": "yes"}}, {"type": "node", "id": 3132143196, "lat": 50.8264333, "lon": 4.3723226, "tags": {"name": "Flagey", "public_transport": "stop_position", "railway": "tram_stop", "tram": "yes"}}, {"type": "node", "id": 4430400436, "lat": 50.8276434, "lon": 4.3672897, "tags": {"name": "Dautzenberg", "public_transport": "stop_position", "railway": "tram_stop", "tram": "yes"}}, {"type": "node", "id": 4443026847, "lat": 50.8174274, "lon": 4.3806501, "tags": {"name": "Buyl", "public_transport": "stop_position", "railway": "tram_stop", "tram": "yes", "wikidata": "Q13446825"}}, {"type": "node", "id": 4909622572, "lat": 50.8240903, "lon": 4.3669752, "tags": {"name": "Vleurgat", "public_transport": "stop_position", "railway": "tram_stop", "tram": "yes"}}, {"type": "node", "id": 4909651557, "lat": 50.8189075, "lon": 4.3707643, "tags": {"name": "Abbaye - Abdij", "name:fr": "Abbaye", "name:nl": "Abdij", "public_transport": "stop_position", "railway": "tram_stop", "tram": "yes"}}, {"type": "node", "id": 4909651562, "lat": 50.8198835, "lon": 4.3704708, "tags": {"name": "Abbaye - Abdij", "name:fr": "Abbaye", "name:nl": "Abdij", "public_transport": "stop_position", "railway": "tram_stop", "tram": "yes"}}, {"type": "node", "id": 4926333172, "lat": 50.8166896, "lon": 4.3716787, "tags": {"name": "Legrand", "public_transport": "stop_position", "railway": "tram_stop", "tram": "yes", "wikidata": "Q30312617"}}, {"type": "node", "id": 4947040360, "lat": 50.8209144, "lon": 4.3765319, "tags": {"name": "G\u00e9o Bernier", "public_transport": "stop_position", "railway": "tram_stop", "tram": "yes"}}, {"type": "node", "id": 4970981097, "lat": 50.82368, "lon": 4.3739598, "tags": {"name": "\u00c9tangs d'Ixelles - Vijvers van Elsene", "name:fr": "\u00c9tangs d'Ixelles", "name:nl": "Vijvers van Elsene", "public_transport": "stop_position", "railway": "tram_stop", "tram": "yes"}}, {"type": "node", "id": 4970981098, "lat": 50.8241239, "lon": 4.3734422, "tags": {"name": "\u00c9tangs d'Ixelles - Vijvers van Elsene", "name:fr": "\u00c9tangs d'Ixelles", "name:nl": "Vijvers van Elsene", "public_transport": "stop_position", "railway": "tram_stop", "tram": "yes"}}, {"type": "node", "id": 7429425605, "lat": 50.8201549, "lon": 4.3771597, "tags": {"name": "G\u00e9o Bernier", "public_transport": "stop_position", "railway": "tram_stop", "tram": "yes"}}]}