{"version": 0.6, "generator": "Overpass API 0.7.62.10 2d4cfc48", "osm3s": {"timestamp_osm_base": "2026-02-02T16:05:46Z", "copyright": "The data included in this document is from www.openstreetmap.org. The data is made available under ODbL."}, "elements": [{"type": "node", "id": 2352347474, "lat": 50.8183567, "lon": 4.3461755, "tags": {"amenity": "cafe", "indoor_seating": "yes", "name": "Caf\u00e9 Le Bonheur", "outdoor_seating": "sidewalk"}}, {"type": "node", "id": 2353224696, "lat": 50.8184392, "lon": 4.3426809, "tags": {"amenity": "cafe", "name": "Le petit Moli\u00e8re"}}, {"type": "node", "id": 2391417211, "lat": 50.8164553, "lon": 4.3375916, "tags": {"amenity": "cafe", "indoor_seating": "yes", "name": "Le Lorada", "outdoor_seating": "yes"}}, {"type": "node", "id": 6499579497, "lat": 50.8282373, "lon": 4.3326815, "tags": {"amenity": "cafe", "contact:website": "https://honestbrussels.com/", "indoor_seating": "yes", "name": "Honest", "outdoor_seating": "yes"}}, {"type": "node", "id": 6649175959, "lat": 50.8202277, "lon": 4.3254436, "tags": {"amenity": "cafe", "indoor_seating": "yes", "name": "Rocket's", "opening_hours": "Mo-Fr 08:00-20:00; Sa,Su 09:00-20:00", "outdoor_seating": "yes"}}, {"type": "node", "id": 6699385286, "lat": 50.8063297, "lon": 4.3141833, "tags": {"amenity": "cafe", "indoor_seating": "yes", "name": "Le Paradis", "outdoor_seating": "yes"}}, {"type": "node", "id": 6699391689, "lat": 50.8082165, "lon": 4.3164337, "tags": {"amenity": "cafe", "name": "Lion"}}, {"type": "node", "id": 6699391699, "lat": 50.8238595, "lon": 4.3236787, "tags": {"amenity": "cafe", "indoor_seating": "yes", "name": "Cafe Araguaia", "outdoor_seating": "yes"}}, {"type": "node", "id": 7273850933, "lat": 50.8190358, "lon": 4.3440674, "tags": {"amenity": "cafe", "level": "0", "name": "Caf\u00e9 Aa", "opening_hours": "Tu-Sa 10:00-21:00"}}, {"type": "node", "id": 7750321775, "lat": 50.810779, "lon": 4.317385, "tags": {"amenity": "cafe", "description": "La buvette de l'Abbaye de Forest, un lieu convivial De buvette van de Abdij van Vorst, een gezellige plek...", "facebook": "https://www.facebook.com/buvetteABY", "indoor_seating": "yes", "name": "BUVETTE AB\u0178", "opening_hours": "We-Su 11:00-22:00", "outdoor_seating": "yes"}}, {"type": "node", "id": 10621580262, "lat": 50.8098776, "lon": 4.3162949, "tags": {"amenity": "cafe", "indoor_seating": "yes", "name": "Kiosque Caf\u00e9", "opening_hours": "Mo-Th 08:00-01:00, Fr 08:00-02:00, Sa 08:00-03:00, Su 10:00-24:00", "outdoor_seating": "yes"}}, {"type": "node", "id": 10621829487, "lat": 50.8099039, "lon": 4.3167777, "tags": {"amenity": "cafe", "name": "Aux armes de Forest"}}, {"type": "node", "id": 10621838950, "lat": 50.8095956, "lon": 4.3172498, "tags": {"amenity": "cafe", "check_date": "2025-05-02", "name": "Au Ballon"}}, {"type": "node", "id": 10651424106, "lat": 50.8183041, "lon": 4.3270512, "tags": {"amenity": "cafe", "contact:instagram": "perruche.bistrotducoin", "contact:website": "https://perruche.brussels/", "indoor_seating": "yes", "internet_access": "wlan", "name": "Perruche", "opening_hours": "Su-Mo, Th-Fr 12:00-22:00; We, Sa 16:00-22:00", "outdoor_seating": "yes"}}, {"type": "node", "id": 10748552604, "lat": 50.8255115, "lon": 4.3371343, "tags": {"amenity": "cafe", "contact:instagram": "https://www.instagram.com/marinabautier/", "contact:website": "https://bautier.com/blogs/news/cafe-bautier", "name": "Caf\u00e9 Bautier"}}, {"type": "node", "id": 11361423538, "lat": 50.8281569, "lon": 4.3318045, "tags": {"amenity": "cafe", "cuisine": "coffee_shop", "indoor_seating": "yes", "name": "Les d\u00e9jeuners de l'orient", "outdoor_seating": "yes"}}, {"type": "node", "id": 11361470647, "lat": 50.8261605, "lon": 4.3295148, "tags": {"amenity": "cafe", "cuisine": "coffee_shop", "name": "Capitano"}}, {"type": "node", "id": 11687482068, "lat": 50.8244153, "lon": 4.3258917, "tags": {"amenity": "cafe", "contact:website": "https://www.wiels.org/fr/wielscafe", "level": "1", "name": "WIELS' Caf\u00e9", "opening_hours": "Tu-Su 11:00-18:00"}}, {"type": "node", "id": 12222826786, "lat": 50.8151042, "lon": 4.3397092, "tags": {"amenity": "cafe", "name": "Moka Moon", "website": "https://mokamoon.be"}}, {"type": "node", "id": 13038891501, "lat": 50.8163318, "lon": 4.337867, "tags": {"amenity": "cafe", "contact:instagram": "yao.bxl", "cuisine": "asian;tea", "name": "Yao", "opening_hours": "Mo, Th-Fr 08:30-16:30; Sa-Su 09:00-16:30"}}]}