{"version": 0.6, "generator": "Overpass API 0.7.62.10 2d4cfc48", "osm3s": {"timestamp_osm_base": "2026-02-02T19:14:00Z", "copyright": "The data included in this document is from www.openstreetmap.org. The data is made available under ODbL."}, "elements": [{"type": "node", "id": 251008442, "lat": 50.8256727, "lon": 4.3600852, "tags": {"amenity": "pub", "entrance:kerb:height": "0.4", "entrance:step_count": "3", "entrance:width": "1.2", "name": "Roxi", "toilets:wheelchair": "no"}}, {"type": "node", "id": 463174855, "lat": 50.8272547, "lon": 4.3633948, "tags": {"alt_name": "Brussels Beer Project Bailli", "amenity": "pub", "contact:facebook": "https://www.facebook.com/bbp.bailli", "contact:website": "https://www.beerproject.be/en/taproom/bailli/", "indoor_seating": "yes", "name": "BBP Bailli", "opening_hours": "Mo,Tu 17:00-24:00, We 17:00-01:00, Th,Fr 17:00-02:00, Sa 15:00-02:00, Su 15:00-24:00", "outdoor_seating": "no", "wheelchair": "limited"}}, {"type": "node", "id": 826830628, "lat": 50.8333203, "lon": 4.3563505, "tags": {"amenity": "pub", "check_date": "2025-12-25", "check_date:opening_hours": "2025-12-25", "name": "Le Stephany", "opening_hours:signed": "no"}}, {"type": "node", "id": 1626936287, "lat": 50.8299526, "lon": 4.3588247, "tags": {"alt_name": "Funny Horse", "amenity": "bar", "check_date": "2025-09-29", "contact:website": "https://www.funnyhorse.be/", "internet_access": "wlan", "name": "The Funny Horse Club"}}, {"type": "node", "id": 2338580694, "lat": 50.8240405, "lon": 4.3597187, "tags": {"amenity": "pub", "name": "Pam Pam", "outdoor_seating": "yes", "wheelchair": "yes"}}, {"type": "node", "id": 2466682771, "lat": 50.8238536, "lon": 4.3667614, "tags": {"amenity": "bar", "name": "Ethnic", "opening_hours": "Mo-Fr 18:00-23:59, Tu-Sa 00:00-02:00; Sa 21:00-23:59; Su 00:00-02:00+"}}, {"type": "node", "id": 2466745299, "lat": 50.8246066, "lon": 4.357816, "tags": {"amenity": "bar", "indoor_seating": "yes", "name": "Soif", "opening_hours:signed": "no", "outdoor_seating": "no"}}, {"type": "node", "id": 2480297899, "lat": 50.831216, "lon": 4.357911, "tags": {"amenity": "pub", "name": "Le Livourne"}}, {"type": "node", "id": 4665074589, "lat": 50.8254436, "lon": 4.355002, "tags": {"amenity": "bar", "check_date": "2024-08-28", "name": "La Trinquette"}}, {"type": "node", "id": 5051859510, "lat": 50.8253671, "lon": 4.3581346, "tags": {"amenity": "bar", "check_date": "2024-08-28", "check_date:opening_hours": "2021-06-20", "contact:email": "contact@snapbar.com", "contact:mobile": "+32 476 73 28 53", "contact:website": "https://www.snapbar.com/", "description": "Karaoke Bar", "name": "Snap", "opening_hours": "Su,Mo off"}}, {"type": "node", "id": 5060667122, "lat": 50.8255803, "lon": 4.3598431, "tags": {"amenity": "pub", "check_date": "2024-08-28", "indoor_seating": "yes", "name": "La Famille", "outdoor_seating": "yes"}}, {"type": "node", "id": 5130961021, "lat": 50.8241182, "lon": 4.3600787, "tags": {"amenity": "pub", "contact:email": "hello@dinghi.be", "contact:facebook": "https://www.facebook.com/people/Dinghi-Brussels/100083208677065/", "contact:phone": "+32 2 248 26 72", "contact:website": "https://compagnieabc.be/restaurant/dinghi/", "food": "yes", "name": "Dinghi", "opening_hours": "Tu-Su 17:00-01:00", "outdoor_seating": "yes"}}, {"type": "node", "id": 5130986542, "lat": 50.8241143, "lon": 4.35943, "tags": {"amenity": "bar", "name": "Caf\u00e9 club"}}, {"type": "node", "id": 5978131955, "lat": 50.8294781, "lon": 4.3621198, "tags": {"amenity": "nightclub", "name": "Le 144"}}, {"type": "node", "id": 6651632880, "lat": 50.8254998, "lon": 4.3548158, "tags": {"amenity": "bar", "name": "Cob\u00e1"}}, {"type": "node", "id": 6815774864, "lat": 50.8265892, "lon": 4.3626606, "tags": {"amenity": "bar", "description": "Lounge bar", "name": "Le Boudoir"}}, {"type": "node", "id": 6815837995, "lat": 50.8247754, "lon": 4.357256, "tags": {"amenity": "bar", "check_date": "2024-08-28", "contact:phone": "+32 2 534 64 34", "contact:website": "https://www.oenotk.com/", "description": "Wine bar", "description:fr": "Bar \u00e0 vins", "name": "Oeno TK", "opening_hours": "Mo-Fr 16:00-23:00, Sa 14:00-23:00"}}, {"type": "node", "id": 6815857057, "lat": 50.8241646, "lon": 4.3592502, "tags": {"amenity": "bar", "check_date": "2024-08-28", "description": "Bar \u00e0 cocktails", "name": "Le Stoefer", "website": "https://lestoefer.be"}}, {"type": "node", "id": 6815859419, "lat": 50.8254506, "lon": 4.3584683, "tags": {"amenity": "bar", "contact:instagram": "http://instagram.com/confessionsbxl", "indoor_seating": "yes", "name": "Confessions", "outdoor_seating": "yes"}}, {"type": "node", "id": 7833853185, "lat": 50.8234702, "lon": 4.3630583, "tags": {"amenity": "bar", "name": "Tarzan"}}, {"type": "node", "id": 9571785660, "lat": 50.831174, "lon": 4.3575726, "tags": {"amenity": "bar", "contact:email": "chezstephy@gmail.com", "contact:facebook": "https://facebook.com/chezstephy", "contact:instagram": "https://www.instagram.com/chezstephy/", "contact:mobile": "+32 474 87 15 41", "contact:website": "https://www.stephy.be", "name": "Chez StephY", "opening_hours": "Tu-Su 17:00+", "payment:contactless": "yes", "payment:credit_cards": "yes"}}, {"type": "node", "id": 9587373732, "lat": 50.8255551, "lon": 4.3592818, "tags": {"amenity": "bar", "contact:mobile": "+32 487 56 05 15", "description": "Lounge", "name": "Touareg", "opening_hours": "Mo-Su 14:00-02:00", "smoking": "dedicated"}}, {"type": "node", "id": 9654554427, "lat": 50.825822, "lon": 4.3598788, "tags": {"amenity": "pub", "check_date": "2024-08-28", "indoor_seating": "yes", "name": "Supra Bailly", "opening_hours": "Mo-Sa 09:00-02:00+", "outdoor_seating": "yes", "wifi": "no"}}, {"type": "node", "id": 9654650708, "lat": 50.8301917, "lon": 4.3585937, "tags": {"amenity": "nightclub", "check_date": "2025-09-29", "name": "L'Interdit"}}, {"type": "node", "id": 10550531075, "lat": 50.8270993, "lon": 4.3549184, "tags": {"amenity": "bar", "check_date": "2025-03-11", "contact:facebook": "joliejolicocktailclub", "name": "Jolie Joli Cocktail Club"}}, {"type": "node", "id": 10826946207, "lat": 50.8248526, "lon": 4.3602536, "tags": {"amenity": "bar", "check_date": "2025-07-17", "name": "L'Impasse"}}, {"type": "node", "id": 11001935400, "lat": 50.8224872, "lon": 4.3629965, "tags": {"amenity": "bar", "contact:instagram": "https://www.instagram.com/raki.winebar/", "name": "Raki", "opening_hours": "We-Su 18:00+"}}, {"type": "node", "id": 11112427720, "lat": 50.8265784, "lon": 4.3622596, "tags": {"amenity": "bar", "name": "La Note"}}, {"type": "node", "id": 11360055872, "lat": 50.8256697, "lon": 4.3543713, "tags": {"amenity": "bar", "indoor_seating": "yes", "name": "Le pr\u00e9texte", "outdoor_seating": "yes"}}, {"type": "node", "id": 11630611490, "lat": 50.8258732, "lon": 4.3544671, "tags": {"amenity": "nightclub", "name": "BPM", "wifi": "no"}}, {"type": "node", "id": 11951493222, "lat": 50.8243529, "lon": 4.3604657, "tags": {"alt_name": "La Place 33", "amenity": "bar", "name": "La Place", "website": "https://www.laplace33.be/"}}, {"type": "node", "id": 12377496798, "lat": 50.8256996, "lon": 4.3595908, "tags": {"amenity": "pub", "check_date": "2024-08-28", "indoor_seating": "yes", "name": "The Bank", "outdoor_seating": "yes", "website": "https://www.thebank.be"}}]}