{"version": 0.6, "generator": "Overpass API 0.7.62.10 2d4cfc48", "osm3s": {"timestamp_osm_base": "2026-02-02T16:16:59Z", "copyright": "The data included in this document is from www.openstreetmap.org. The data is made available under ODbL."}, "elements": [{"type": "node", "id": 428683156, "lat": 50.8428899, "lon": 4.3177952, "tags": {"name": "Avenue Norbert Gille - Norbert Gillelaan", "name:fr": "Avenue Norbert Gille", "name:nl": "Norbert Gillelaan", "railway": "subway_entrance", "ref": "1", "wheelchair": "no"}}, {"type": "node", "id": 428683177, "lat": 50.8425567, "lon": 4.3172408, "tags": {"name": "Avenue Norbert Gille - Norbert Gillelaan", "name:fr": "Avenue Norbert Gille", "name:nl": "Norbert Gillelaan", "railway": "subway_entrance", "ref": "2", "wheelchair": "no"}}, {"type": "node", "id": 428683199, "lat": 50.8447002, "lon": 4.3181129, "tags": {"name": "Boulevard Jules Graindor - Jules Graindorlaan", "name:fr": "Boulevard Jules Graindor", "name:nl": "Jules Graindorlaan", "railway": "subway_entrance", "ref": "3", "wheelchair": "no"}}, {"type": "node", "id": 491637866, "lat": 50.83019, "lon": 4.3008678, "tags": {"name": "Avenue Gounod - Gounodlaan", "name:fr": "Avenue Gounod", "name:nl": "Gounodlaan", "railway": "subway_entrance", "ref": "1", "wheelchair": "no"}}, {"type": "node", "id": 1025220501, "lat": 50.8393286, "lon": 4.312665, "tags": {"name": "Square E. Vander Bruggen - Emile Vander Bruggensquare", "name:fr": "Square E. Vander Bruggen", "name:nl": "Emile Vander Bruggensquare", "railway": "subway_entrance", "ref": "1", "wheelchair": "no"}}, {"type": "node", "id": 1925200474, "lat": 50.8448362, "lon": 4.3249242, "tags": {"name": "Quai Fernand Demets - Fernand Demetskaai", "name:fr": "Quai Fernand Demets", "name:nl": "Fernand Demetskaai", "railway": "subway_entrance", "ref": "3", "wheelchair": "no"}}, {"type": "node", "id": 1925200481, "lat": 50.8444516, "lon": 4.325513, "tags": {"name": "Quai de l'Industrie - Nijverheidskaai", "name:fr": "Quai de l'Industrie", "name:nl": "Nijverheidskaai", "railway": "subway_entrance", "ref": "4", "wheelchair": "no"}}, {"type": "node", "id": 2489100367, "lat": 50.8347848, "lon": 4.3053423, "tags": {"entrance": "main", "name": "Cours Saint-Guidon - Sint-Guidocorso", "name:fr": "Cours Saint-Guidon", "name:nl": "Sint-Guidocorso", "railway": "subway_entrance", "ref": "1", "wheelchair": "yes"}}, {"type": "node", "id": 2622779363, "lat": 50.8283499, "lon": 4.2995501, "tags": {"name": "Place Verdi - Verdiplein", "name:fr": "Place Verdi", "name:nl": "Verdiplein", "railway": "subway_entrance", "ref": "2", "wheelchair": "no"}}, {"type": "node", "id": 2696741934, "lat": 50.8418231, "lon": 4.3301529, "tags": {"name": "Chauss\u00e9e de Mons - Bergensesteenweg", "name:fr": "Chauss\u00e9e de Mons", "name:nl": "Bergensesteenweg", "railway": "subway_entrance", "ref": "2"}}, {"type": "node", "id": 3999683080, "lat": 50.8452151, "lon": 4.318454, "tags": {"name": "Boulevard Jules Graindor - Jules Graindorlaan", "name:fr": "Boulevard Jules Graindor", "name:nl": "Jules Graindorlaan", "railway": "subway_entrance", "ref": "4", "wheelchair": "no"}}, {"type": "node", "id": 4107286364, "lat": 50.8405398, "lon": 4.3314474, "tags": {"name": "Rue de la Clinique - Kliniekstraat", "name:fr": "Rue de la Clinique", "name:nl": "Kliniekstraat", "railway": "subway_entrance", "ref": "1"}}, {"type": "node", "id": 4147073740, "lat": 50.8458586, "lon": 4.3233997, "tags": {"name": "Rue L\u00e9on Delacroix - L\u00e9on Delacroixstraat", "name:fr": "Rue L\u00e9on Delacroix", "name:nl": "L\u00e9on Delacroixstraat", "railway": "subway_entrance", "ref": "1"}}, {"type": "node", "id": 4657241994, "lat": 50.8169473, "lon": 4.279733, "tags": {"check_date:wheelchair": "2021-11-05", "name": "Route de Lennik - Lenniksebaan", "name:fr": "Route de Lennik", "name:nl": "Lenniksebaan", "railway": "subway_entrance", "ref": "2", "wheelchair": "no"}}, {"type": "node", "id": 4657242016, "lat": 50.8165036, "lon": 4.2817711, "tags": {"name": "Boulevard Josse Leemans - Josse Leemanslaan", "name:fr": "Boulevard Josse Leemans", "name:nl": "Josse Leemanslaan", "railway": "subway_entrance", "ref": "1", "wheelchair": "yes"}}, {"type": "node", "id": 4657395735, "lat": 50.8154369, "lon": 4.2677912, "tags": {"name": "Route de Lennik - Lenniksebaan", "name:fr": "Route de Lennik", "name:nl": "Lenniksebaan", "railway": "subway_entrance", "ref": "1", "wheelchair": "no"}}, {"type": "node", "id": 4657395744, "lat": 50.8151487, "lon": 4.2678461, "tags": {"name": "Route de Lennik - Lenniksebaan", "name:fr": "Route de Lennik", "name:nl": "Lenniksebaan", "railway": "subway_entrance", "ref": "2", "wheelchair": "no"}}, {"type": "node", "id": 4657395784, "lat": 50.8151568, "lon": 4.2660181, "tags": {"name": "H\u00f4pital Erasme - Erasmus Ziekenhuis", "name:fr": "H\u00f4pital Erasme", "name:nl": "Erasmus Ziekenhuis", "railway": "subway_entrance", "ref": "3", "wheelchair": "yes"}}, {"type": "node", "id": 4659387696, "lat": 50.8204854, "lon": 4.2935031, "tags": {"name": "Chauss\u00e9e de Mons - Bergensesteenweg", "name:fr": "Chauss\u00e9e de Mons", "name:nl": "Bergensesteenweg", "railway": "subway_entrance", "ref": "1"}}, {"type": "node", "id": 4659414151, "lat": 50.8217229, "lon": 4.2942957, "tags": {"name": "Chauss\u00e9e de Mons - Bergensesteenweg", "name:fr": "Chauss\u00e9e de Mons", "name:nl": "Bergensesteenweg", "railway": "subway_entrance", "ref": "2", "wheelchair": "yes"}}, {"type": "node", "id": 4659808072, "lat": 50.8159565, "lon": 4.2885898, "tags": {"name": "Parking CERIA", "note": "Official name is apparently the same in both languages", "railway": "subway_entrance", "ref": "2", "wheelchair": "yes"}}, {"type": "node", "id": 4659808081, "lat": 50.8166056, "lon": 4.29073, "tags": {"barrier": "gate", "name": "Chauss\u00e9e de Mons - Bergensesteenweg", "name:fr": "Chauss\u00e9e de Mons", "name:nl": "Bergensesteenweg", "opening_hours": "4:30-1:04", "railway": "subway_entrance", "ref": "1", "wheelchair": "yes"}}, {"type": "node", "id": 4660314052, "lat": 50.8252255, "lon": 4.2978954, "tags": {"name": "Place Bizet - Bizetplein", "name:fr": "Place Bizet", "name:nl": "Bizetplein", "railway": "subway_entrance", "ref": "1", "wheelchair": "no"}}, {"type": "node", "id": 4668276638, "lat": 50.8399286, "lon": 4.3120424, "tags": {"name": "Place du Repos - Rustplein", "name:fr": "Place du Repos", "name:nl": "Rustplein", "railway": "subway_entrance", "ref": "2", "wheelchair": "no"}}, {"type": "node", "id": 4682593739, "lat": 50.8348277, "lon": 4.3051383, "tags": {"entrance": "main", "name": "Cours Saint-Guidon - Sint-Guidocorso", "name:fr": "Cours Saint-Guidon", "name:nl": "Sint-Guidocorso", "railway": "subway_entrance", "ref": "2", "wheelchair": "yes"}}, {"type": "node", "id": 4841373995, "lat": 50.8397984, "lon": 4.3124301, "tags": {"railway": "subway_entrance", "ref": "2H", "wheelchair": "yes"}}, {"type": "node", "id": 5653527155, "lat": 50.8299552, "lon": 4.3007218, "tags": {"railway": "subway_entrance", "ref": "1H", "wheelchair": "yes"}}, {"type": "node", "id": 11073279399, "lat": 50.8445799, "lon": 4.3182177, "tags": {"railway": "subway_entrance", "ref": "3H", "wheelchair": "yes"}}]}