{"version": 0.6, "generator": "Overpass API 0.7.62.10 2d4cfc48", "osm3s": {"timestamp_osm_base": "2026-02-02T15:47:30Z", "copyright": "The data included in this document is from www.openstreetmap.org. The data is made available under ODbL."}, "elements": [{"type": "node", "id": 234494737, "lat": 50.8240271, "lon": 4.3593328, "tags": {"amenity": "restaurant", "contact:email": "chatelain@mammaroma.be", "contact:phone": "+32 2 544 14 02", "contact:website": "https://www.mammaroma.be/", "cuisine": "pizza", "diet:vegan": "no", "diet:vegetarian": "yes", "name": "Mamma Roma", "opening_hours": "Su-We 12:00-22:00; Th-Sa 12:00-22:30", "operator": "Mamma Roma"}}, {"type": "node", "id": 234524306, "lat": 50.8359295, "lon": 4.3644108, "tags": {"amenity": "restaurant", "contact:email": "info@ultimeatome.be", "contact:facebook": "UltimeAtome.be", "contact:instagram": "_ultime_atome_", "contact:phone": "+32 2 513 48 84", "contact:website": "https://www.ultimeatome.be", "internet_access": "wlan", "internet_access:fee": "no", "name": "L'Ultime Atome", "opening_hours": "Su-Th 08:00-00:30; Fr-Sa 08:00-01:00", "outdoor_seating": "yes", "smoking": "isolated", "website:menu": "https://ultimeatome.be/en/menu", "wheelchair": "no"}}, {"type": "node", "id": 234524310, "lat": 50.8356075, "lon": 4.3648084, "tags": {"amenity": "restaurant", "brewery": "Chouffe;Vedett Blanche;Maes", "contact:phone": "+32 2 511 11 21", "contact:website": "https://www.leclandesbelges.be", "cuisine": "local", "indoor_seating": "yes", "internet_access": "wlan", "name": "Le clan des Belges", "outdoor_seating": "pedestrian_zone", "wheelchair": "limited"}}, {"type": "node", "id": 306122013, "lat": 50.8275767, "lon": 4.3711196, "tags": {"amenity": "restaurant", "contact:email": "flagey@mammaroma.be", "contact:phone": "+32 2 640 42 80", "contact:website": "https://www.mammaroma.com", "cuisine": "pizza;italian", "diet:vegan": "no", "diet:vegetarian": "yes", "name": "Mamma Roma", "opening_hours": "Mo-Su 12:00-22:00; Th-Sa 12:00-22:30", "wheelchair": "no"}}, {"type": "node", "id": 354619109, "lat": 50.8286041, "lon": 4.3906403, "tags": {"amenity": "restaurant", "cuisine": "italian", "name": "Il Vesuvio"}}, {"type": "node", "id": 457877372, "lat": 50.8167396, "lon": 4.3533287, "tags": {"amenity": "restaurant", "cuisine": "american", "diet:vegetarian": "yes", "name": "Balmoral", "opening_hours": "We,Th,Su 10:00-17:00; Fr,Sa 10:00-21:45", "wheelchair": "limited"}}, {"type": "node", "id": 457878619, "lat": 50.8178431, "lon": 4.3549102, "tags": {"amenity": "restaurant", "check_date": "2023-09-10", "name": "Voltaire", "wheelchair": "limited"}}, {"type": "node", "id": 613352975, "lat": 50.8177713, "lon": 4.3927708, "tags": {"amenity": "restaurant", "changing_table": "no", "cuisine": "french", "entrance:kerb:height": "0.14", "entrance:ramp": "no", "entrance:step_count": "1", "entrance:width": "0.86", "indoor_seating": "yes", "name": "Wolf Street Cafe", "outdoor_seating": "no", "toilets:wheelchair": "no", "wheelchair:turning_circle": "no"}}, {"type": "node", "id": 623504311, "lat": 50.8082506, "lon": 4.3706525, "tags": {"amenity": "restaurant", "contact:phone": "+32 2 375 01 16", "cuisine": "japanese", "name": "Yagura", "opening_hours": "Tu-Sa 12:00-14:00,19:00-22:00"}}, {"type": "node", "id": 692913049, "lat": 50.8272012, "lon": 4.373046, "tags": {"air_conditioning": "yes", "amenity": "restaurant", "bar": "yes", "contact:instagram": "bigmamma.be", "contact:website": "https://www.bigmammagroup.com/", "cuisine": "italian", "name": "Barracuda", "opening_hours": "Mo-Th 12:00-14:00,18:30-22:00; Fr 12:00-14:00,18:30-22:15; Sa 12:00-14:45,18:30-22:15; Su 12:00-14:45,18:30-22:00", "operator": "Big Mamma", "operator:wikidata": "Q112871189", "start_date": "2024-09-27", "wikidata": "Q130750355"}}, {"type": "node", "id": 694336436, "lat": 50.8359501, "lon": 4.3648155, "tags": {"alt_name": "Le 2e \u00e9l\u00e9ment", "amenity": "restaurant", "check_date": "2026-01-24", "check_date:opening_hours": "2026-01-24", "contact:phone": "+32 2 502 00 28", "contact:website": "https://www.2eme-element.be/", "cuisine": "thai", "diet:vegetarian": "yes", "internet_access": "wlan", "name": "Le Deuxi\u00e8me \u00c9l\u00e9ment", "opening_hours": "Mo-Fr 12:00-14:30,18:30-22:30; Sa,Su 18:30-22:30", "payment:maestro": "yes", "payment:mastercard": "yes", "payment:visa": "yes", "source": "survey", "takeaway": "yes", "wheelchair": "limited"}}, {"type": "node", "id": 694372969, "lat": 50.8362608, "lon": 4.3636908, "tags": {"amenity": "restaurant", "cuisine": "japanese", "diet:meat": "yes", "diet:vegan": "no", "diet:vegetarian": "no", "name": "Yamato", "opening_hours": "Mo-Fr 12:00-14:30,18:30-22:00; Sa,Su 12:00-15:30,18:30-22:00", "wheelchair": "limited"}}, {"type": "node", "id": 712913905, "lat": 50.8223662, "lon": 4.3886139, "tags": {"amenity": "restaurant", "check_date": "2025-02-01", "name": "Le Quartier Latin"}}, {"type": "node", "id": 826830634, "lat": 50.8333185, "lon": 4.3565909, "tags": {"amenity": "restaurant", "diet:vegetarian": "no", "name": "Belgo Nero"}}, {"type": "node", "id": 993030379, "lat": 50.8306047, "lon": 4.3560389, "tags": {"amenity": "restaurant", "contact:website": "http://www.babdar.be/", "cuisine": "moroccan", "diet:vegan": "no", "diet:vegetarian": "yes", "name": "Bab Dar", "opening_hours": "Mo-Fr 12:00-14:30,19:00-22:30; Sa 19:00-22:30", "wheelchair": "no"}}, {"type": "node", "id": 993031209, "lat": 50.8315803, "lon": 4.3563508, "tags": {"air_conditioning": "yes", "amenity": "restaurant", "cuisine": "lebanese", "diet:vegan": "yes", "diet:vegetarian": "yes", "indoor_seating": "yes", "name": "Le Prince", "opening_hours": "Mo-Su 11:00-23:59,00:00-02:00", "outdoor_seating": "yes", "smoking": "outside", "wheelchair": "limited"}}, {"type": "node", "id": 993032378, "lat": 50.831381, "lon": 4.356287, "tags": {"amenity": "restaurant", "diet:vegan": "yes", "diet:vegetarian": "yes", "name": "Zatar", "wheelchair": "no"}}, {"type": "node", "id": 1121797659, "lat": 50.822537, "lon": 4.3547235, "tags": {"amenity": "restaurant", "cuisine": "asian", "name": "Thai Cafe"}}, {"type": "node", "id": 1138938717, "lat": 50.8302393, "lon": 4.3589244, "tags": {"amenity": "restaurant", "contact:fax": "+32 2 538 23 78", "contact:phone": "+32 2 537 71 31", "cuisine": "lebanese", "name": "Mont Liban", "name:en": "Mount Leban", "opening_hours:signed": "no", "url": "http://www.montliban.be/"}}, {"type": "node", "id": 1138950172, "lat": 50.8294218, "lon": 4.359377, "tags": {"amenity": "restaurant", "check_date": "2025-09-29", "contact:email": "info@frasca.be", "contact:phone": "+32 2 735 50 65", "contact:website": "https://www.frasca.be/", "cuisine": "italian", "name": "Frasca", "opening_hours": "We-Sa 10:00-22:00", "start_date": "2021-10-07", "takeaway": "yes", "was:amenity": "fast_food", "was:cuisine": "mexican", "was:name": "couscous bourricot"}}, {"type": "node", "id": 1189927187, "lat": 50.8171005, "lon": 4.3678019, "tags": {"amenity": "restaurant", "contact:instagram": "lageneral.bxl", "contact:phone": "+32 2 280 36 04", "contact:website": "https://www.lageneral.be/", "cuisine": "mexican", "name": "Cantina La G\u00e9n\u00e9ral", "opening_hours": "Mo-Sa 18:30-23:00; Tu-Fr 12:00-15:00"}}, {"type": "node", "id": 1189927201, "lat": 50.8172833, "lon": 4.3667435, "tags": {"amenity": "restaurant", "contact:website": "https://www.oliban.be", "cuisine": "lebanese", "name": "O Liban", "name:fr": "O Liban", "opening_hours": "Tu-Sa 10:30-23:00; Su 10:30-22:30"}}, {"type": "node", "id": 1631358481, "lat": 50.8386114, "lon": 4.3646222, "tags": {"amenity": "restaurant", "contact:phone": "+32 2 511 84 35", "contact:website": "http://enotecadavalentino.com", "cuisine": "italian", "description": "Restaurant Wine bar", "name": "Enoteca da Valentino", "opening_hours": "Mo-Fr 12:00-15:00,18:00-22:00; Sa 18:30-23:00"}}, {"type": "node", "id": 1631412982, "lat": 50.8234525, "lon": 4.3586923, "tags": {"amenity": "restaurant", "contact:email": "info@nuevabuenosaires.be", "contact:phone": "+32 2 201 08 80", "contact:website": "https://www.nuevabuenosaires.be/", "cuisine": "argentinian", "name": "Nueva Buenos Aires", "opening_hours": "Mo-Th 18:30-23:30; Fr 18:30-00:30; Sa 12:00-14:30,18:30-00:30", "wheelchair": "limited"}}, {"type": "node", "id": 1631413162, "lat": 50.8188712, "lon": 4.3789652, "tags": {"alt_name": "Les Sept Saveurs", "amenity": "restaurant", "check_date:opening_hours": "2024-05-23", "indoor_seating": "yes", "name": "Les 7 Saveurs", "opening_hours:signed": "no", "outdoor_seating": "yes", "wheelchair": "no"}}, {"type": "node", "id": 1631976836, "lat": 50.829694, "lon": 4.3699366, "tags": {"amenity": "restaurant", "contact:phone": "+32 2 275 59 27", "cuisine": "sushi", "internet_access": "wlan", "internet_access:fee": "no", "name": "Rolling Sushi", "opening_hours": "Mo-Sa 12:00-14:00,18:30-22:00", "wheelchair": "no"}}, {"type": "node", "id": 1776158625, "lat": 50.8207458, "lon": 4.3767746, "tags": {"amenity": "restaurant", "check_date:opening_hours": "2024-05-23", "name": "Delicieux", "opening_hours": "Su-Fr 11:30-14:00, Mo-Su 17:00-22:30"}}, {"type": "node", "id": 1785214931, "lat": 50.8214022, "lon": 4.356428, "tags": {"amenity": "restaurant", "cuisine": "italian", "name": "La Locanda"}}, {"type": "node", "id": 1785216807, "lat": 50.8212817, "lon": 4.3567083, "tags": {"amenity": "restaurant", "contact:email": "info@philema.be", "contact:phone": "+32 2 344 58 76", "contact:website": "https://philema.be", "cuisine": "greek", "name": "Philema", "opening_hours": "Tu-Sa 12:00-14:30, 19:00-22:30+; Su 12:00-15:00", "opening_hours:kitchen": "Tu-Sa 12:00-14:30, 19:00-22:30; Su 12:00-15:00"}}, {"type": "node", "id": 2167729831, "lat": 50.8165419, "lon": 4.3535935, "tags": {"amenity": "restaurant", "cuisine": "sushi", "name": "Sushioui", "wheelchair": "limited"}}, {"type": "node", "id": 2167729845, "lat": 50.8197844, "lon": 4.3586795, "tags": {"amenity": "restaurant", "name": "Toucan sur Mer"}}, {"type": "node", "id": 2167729856, "lat": 50.8201468, "lon": 4.3592968, "tags": {"amenity": "restaurant", "name": "Toucan", "opening_hours": "Mo 10:00-14:30,19:00-22:30; Th-Su 10:00-14:30,19:00-22:30; Tu,We off"}}, {"type": "node", "id": 2183692520, "lat": 50.8360361, "lon": 4.3656667, "tags": {"amenity": "restaurant", "indoor_seating": "yes", "name": "The Green Pepper / Chez Malon", "outdoor_seating": "no"}}, {"type": "node", "id": 2302371944, "lat": 50.823753, "lon": 4.3741641, "tags": {"amenity": "restaurant", "check_date:opening_hours": "2024-05-23", "name": "Canterbury", "opening_hours:signed": "no"}}, {"type": "node", "id": 2322019410, "lat": 50.8170236, "lon": 4.350263, "tags": {"amenity": "restaurant", "name": "Chez H\u00e9l\u00e8ne"}}, {"type": "node", "id": 2338614351, "lat": 50.8230725, "lon": 4.3582685, "tags": {"amenity": "restaurant", "name": "Vall\u00e9e du Kashmir", "was:contact:website": "http://www.valleedukashmir.be/"}}, {"type": "node", "id": 2344380195, "lat": 50.8301919, "lon": 4.3863548, "tags": {"amenity": "restaurant", "check_date:opening_hours": "2023-03-13", "name": "Snack Saint-Antoine", "opening_hours": "Tu-Sa 11:30-24:00; Su 19:00-24:00", "opening_hours:signed": "no"}}, {"type": "node", "id": 2346724838, "lat": 50.8290528, "lon": 4.3906086, "tags": {"amenity": "restaurant", "cuisine": "chinese", "name": "Ying -Yang", "opening_hours": "Mo-Sa 11:15-14:30,17:00-22:30; We 11:15-14:30; Su 17:00-22:30", "takeaway": "yes"}}, {"type": "node", "id": 2358738936, "lat": 50.8207711, "lon": 4.3665733, "tags": {"amenity": "restaurant", "contact:phone": "+32 2 660 99 89", "cuisine": "thai", "name": "Poh Thai", "opening_hours": "Mo-Tu,Th-Sa 11:30-14:30,18:00-22:00; PH closed", "reservation": "yes", "takeaway": "yes"}}, {"type": "node", "id": 2360129722, "lat": 50.8183613, "lon": 4.3846897, "tags": {"amenity": "restaurant", "contact:mobile": "+32 487 32 75 02", "contact:phone": "+32 2 646 12 83", "cuisine": "vietnamese", "name": "Chao", "opening_hours": "We-Su,PH 12:00-14:30,18:00-23:00; Mo,Tu off"}}, {"type": "node", "id": 2364551571, "lat": 50.8234947, "lon": 4.3634013, "tags": {"amenity": "restaurant", "contact:email": "brussels@la-luck.com", "contact:mobile": "+32 476 17 45 28", "contact:website": "https://la-luck.com/", "name": "La Luck"}}, {"type": "node", "id": 2443572659, "lat": 50.8388893, "lon": 4.3708652, "tags": {"amenity": "restaurant", "indoor_seating": "yes", "name": "LUX/BXL", "outdoor_seating": "yes"}}, {"type": "node", "id": 2451973587, "lat": 50.8364634, "lon": 4.3635455, "tags": {"amenity": "restaurant", "check_date": "2024-01-01", "contact:email": "info@tadaopoke.cool", "contact:facebook": "https://www.facebook.com/Tadao-619654705173089", "contact:phone": "+32 2 356 32 20", "contact:website": "https://www.tadaopoke.cool", "cuisine": "poke", "diet:vegan": "yes", "diet:vegetarian": "yes", "name": "Tada\u014d", "opening_hours": "Mo-Fr 11:00-22:00; Sa 11:30-22:00; Su 17:00-22:00", "payment:maestro": "yes", "payment:mastercard": "yes", "payment:visa": "yes", "takeaway": "yes", "wheelchair": "yes"}}, {"type": "node", "id": 2451973589, "lat": 50.8365554, "lon": 4.3636588, "tags": {"amenity": "restaurant", "contact:website": "https://www.kneestochin.com/", "cuisine": "asian", "name": "Knees to Chin", "opening_hours": "Mo-Sa 11:30-22:00; Su off"}}, {"type": "node", "id": 2451989321, "lat": 50.8360778, "lon": 4.3646446, "tags": {"amenity": "restaurant", "end_date": "2025-05", "name": "Moutarde", "opening_hours": "12:00-01:00", "opening_hours:kitchen": "12:00-14:00,18:30-22:30"}}, {"type": "node", "id": 2451989322, "lat": 50.8361978, "lon": 4.3644354, "tags": {"amenity": "restaurant", "check_date:opening_hours": "2026-01-24", "contact:facebook": "https://www.facebook.com/littletokyobxl", "contact:instagram": "https://www.instagram.com/littletokyobxl/", "contact:phone": "+32 2 513 48 41", "contact:website": "http://www.littletokyo.be", "cuisine": "japanese", "name": "Little Tokyo", "opening_hours": "Tu-Th 12:00-14:30,18:30-22:30; Fr-Sa 12:00-14:30,18:30-23:00; Su 12:00-17:00", "takeaway": "yes"}}, {"type": "node", "id": 2451989324, "lat": 50.8363004, "lon": 4.3642278, "tags": {"amenity": "restaurant", "contact:website": "https://www.hana-resto.be", "cuisine": "japanese;korean", "name": "Hana"}}, {"type": "node", "id": 2451989334, "lat": 50.836297, "lon": 4.3637509, "tags": {"airconditioned": "no", "amenity": "restaurant", "catering": "yes", "contact:website": "https://deliziedellamamma.be/fr", "internet_access": "wlan", "lunch": "yes", "name": "Winehouse Osteria \u2013 Le Delizie", "opening_hours": "Mo-We 12:00 - 14:30, 18:30 - 22:30; Th-Sa 12:00 - 14:30, 18:30 - 22:30; Sa 12:00 - 14:30, 18:30 - 22:30; Su off", "outdoor_seating": "no", "payment:cash": "yes", "payment:maestro": "yes", "payment:mastercard": "yes", "payment:visa": "yes", "wheelchair": "no"}}, {"type": "node", "id": 2451989338, "lat": 50.8357931, "lon": 4.3646611, "tags": {"amenity": "restaurant", "contact:email": "info@manoamano.be", "contact:phone": "+32 2 502 08 01", "contact:website": "http://www.manoamano.be/#new-page-1", "cuisine": "italian", "name": "Mano \u00e0 Mano", "opening_hours": "Mo-We 12:00-14:30,18:30-23:30;Th-Sa 12:00-14:30, 18:30-00:00;Su 18:30-23:30"}}, {"type": "node", "id": 2452112918, "lat": 50.8364514, "lon": 4.3653857, "tags": {"amenity": "restaurant", "bar": "yes", "contact:mobile": "+32 465 41 50 18", "contact:website": "https://hope-house-african-restaurant.business.site", "cuisine": "african", "name": "Hope House", "outdoor_seating": "yes", "wheelchair": "limited"}}, {"type": "node", "id": 2452583805, "lat": 50.8327238, "lon": 4.3665415, "tags": {"amenity": "restaurant", "check_date": "2023-06-02", "contact:instagram": "https://www.instagram.com/artigiano_della_farina", "contact:mobile": "+32 499 64 62 69", "contact:website": "https://www.artigianodellafarina.be", "cuisine": "pizza", "name": "L'Artigiano della farina", "shop": "vacant", "was:name": "Mano Nera", "was:shop": "hairdresser"}}, {"type": "node", "id": 2456248422, "lat": 50.8333818, "lon": 4.3670788, "tags": {"amenity": "restaurant", "bar": "yes", "contact:instagram": "brasserievollegas", "contact:phone": "+32 2 502 89 17", "contact:website": "https://90folies.com/vollegas", "cuisine": "brasserie;belgian", "highchair": "no", "indoor_seating": "yes", "name": "Volle Gas", "opening_hours": "Mo-Su 12:00-24:00", "opening_hours:kitchen": "Mo-Su 12:00-22:30", "operator": "90 Folies", "operator:wikidata": "Q137780532", "outdoor_seating": "yes", "wheelchair": "no"}}, {"type": "node", "id": 2459867484, "lat": 50.829489, "lon": 4.3703813, "tags": {"amenity": "restaurant", "check_date:opening_hours": "2023-12-21", "contact:email": "info@humushortense.be", "contact:mobile": "+32 474 65 37 06", "contact:website": "https://humushortense.be/", "diet:vegan": "only", "diet:vegetarian": "only", "indoor_seating": "yes", "name": "Humus x Hortense", "opening_hours": "Mo,Tu off; We 18:00-23:00; Th-Sa 12:00-14:30,18:00-23:00; Su off", "opening_hours:signed": "no", "outdoor_seating": "no"}}, {"type": "node", "id": 2460607990, "lat": 50.8378331, "lon": 4.3611472, "tags": {"amenity": "restaurant", "check_date:opening_hours": "2025-10-31", "cuisine": "steak_house", "name": "Brussels Grill", "opening_hours:signed": "no", "toilets:wheelchair": "no", "wheelchair": "limited"}}, {"type": "node", "id": 2461604722, "lat": 50.8328257, "lon": 4.3753669, "tags": {"amenity": "restaurant", "cuisine": "moroccan", "indoor_seating": "yes", "name": "La M\u00e9dina", "outdoor_seating": "no"}}, {"type": "node", "id": 2462191324, "lat": 50.8283177, "lon": 4.3717732, "tags": {"amenity": "restaurant", "check_date": "2025-10-31", "check_date:opening_hours": "2025-10-31", "contact:phone": "+32 2 616 67 33", "contact:website": "https://prego.be/", "cuisine": "italian", "delivery": "yes", "delivery:deliveroo": "yes", "delivery:ubereats": "yes", "name": "Prego", "opening_hours": "Mo-Fr 11:00-20:00; Sa-Su 10:00-20:00", "start_date": "2023", "takeaway": "only"}}, {"type": "node", "id": 2463358678, "lat": 50.818401, "lon": 4.3842393, "tags": {"amenity": "restaurant", "cuisine": "japanese;vietnamese", "diet:vegetarian": "yes", "name": "Yakitori", "opening_hours": "We-Mo 17:30-23:00, Mo,Th-Sa 11:00-14:00", "wheelchair": "limited"}}, {"type": "node", "id": 2463358679, "lat": 50.8183553, "lon": 4.3842656, "tags": {"amenity": "restaurant", "contact:mobile": "+32 467 66 45 53", "contact:phone": "+32 2 648 51 17", "contact:website": "https://www.sumo-sushi.be", "cuisine": "sushi", "delivery": "yes", "name": "Sumo Sushi", "opening_hours": "Mo-Su 11:00-14:00; Tu off, Mo,Th-Sa 17:30-23:00", "outdoor_seating": "yes", "smoking": "no", "takeaway": "yes"}}, {"type": "node", "id": 2463358776, "lat": 50.8173437, "lon": 4.3883273, "tags": {"amenity": "restaurant", "contact:website": "https://yumyum.world/restaurant/sumsum/", "cuisine": "chinese", "delivery": "yes", "diet:gluten_free": "yes", "diet:vegan": "yes", "diet:vegetarian": "yes", "level": "0", "name": "SumSum", "opening_hours": "Tu 18:00-22:00; We-Su 12:00-14:30,18:00-22:00", "payment:cash": "no", "reservation": "yes", "takeaway": "yes"}}, {"type": "node", "id": 2466653916, "lat": 50.8265995, "lon": 4.373002, "tags": {"amenity": "restaurant", "check_date:opening_hours": "2024-02-08", "contact:phone": "+32 2 647 04 36", "contact:website": "https://www.levarietes.be/", "cuisine": "brasserie;r\u00f4tisserie", "indoor_seating": "yes", "name": "Le Vari\u00e9t\u00e9s", "opening_hours:signed": "no", "outdoor_seating": "yes", "self_service": "no", "wheelchair": "limited"}}, {"type": "node", "id": 2466682759, "lat": 50.823099, "lon": 4.367099, "tags": {"amenity": "restaurant", "cuisine": "asian", "name": "Phopho", "opening_hours": "Mo-Th 11:30-14:00,19:00-22:00, Fr,Sa 12:00-15:00,19:00-23:00", "website": "http://phopho.be/", "wheelchair": "no"}}, {"type": "node", "id": 2466932804, "lat": 50.8284439, "lon": 4.3603968, "tags": {"amenity": "restaurant", "cuisine": "pizza", "name": "Le XIX \u00e8me", "opening_hours": "Mo-Fr 10:00-24:00", "opening_hours:signed": "no", "wifi": "no"}}, {"type": "node", "id": 2468798099, "lat": 50.8187212, "lon": 4.3872804, "tags": {"amenity": "restaurant", "contact:phone": "+32 2 850 12 33", "cuisine": "asian", "name": "Issan"}}, {"type": "node", "id": 2468879166, "lat": 50.815884, "lon": 4.3895707, "tags": {"amenity": "restaurant", "check_date": "2026-01-31", "contact:website": "https://www.thai.cafe", "cuisine": "thai", "drive_through": "yes", "name": "Thai Cafe", "outdoor_seating": "yes", "payment:apple_pay": "yes", "payment:cash": "yes", "payment:contactless": "yes", "payment:credit_cards": "yes", "payment:debit_cards": "yes", "payment:google_pay": "yes", "wheelchair": "limited"}}, {"type": "node", "id": 2471016204, "lat": 50.8171241, "lon": 4.3815077, "tags": {"amenity": "restaurant", "check_date:opening_hours": "2024-05-23", "indoor_seating": "yes", "name": "Snack\u00f4p\u00e2tes", "opening_hours:signed": "no", "outdoor_seating": "no"}}, {"type": "node", "id": 2471872601, "lat": 50.8230655, "lon": 4.3814492, "tags": {"air_conditioning": "no", "amenity": "restaurant", "bar": "yes", "contact:phone": "+32 2 642 96 29", "contact:website": "https://www.emilebistro.be/", "cuisine": "belgian;breakfast;lunch;burger;regional;fish_and_chips;bistro", "diet:vegetarian": "yes", "name": "\u00c9mile Bistro", "opening_hours": "Mo-Fr 11:00-23:00, Sa 10:00-00:00, Su 09:00-22:00", "outdoor_seating": "sidewalk", "toilets": "yes", "toilets:access": "customers", "toilets:disposal": "flush", "toilets:fee": "no", "toilets:handwashing": "yes", "toilets:level": "-1", "toilets:paper_supplied": "yes", "toilets:wheelchair": "no", "wheelchair": "limited"}}, {"type": "node", "id": 2539275411, "lat": 50.8295108, "lon": 4.3899765, "tags": {"amenity": "restaurant", "cuisine": "portuguese", "name": "Au Cor de Chasse"}}, {"type": "node", "id": 2656942982, "lat": 50.839368, "lon": 4.3672461, "tags": {"amenity": "restaurant", "check_date:opening_hours": "2025-03-11", "contact:phone": "+32 2 513 47 81", "cuisine": "italian", "name": "Trattoria al dente", "opening_hours:signed": "no"}}, {"type": "node", "id": 2699716303, "lat": 50.811862, "lon": 4.3927774, "tags": {"amenity": "restaurant", "cuisine": "chinese", "name": "Orient Kitchen"}}, {"type": "node", "id": 2839619941, "lat": 50.837737, "lon": 4.3684091, "tags": {"amenity": "restaurant", "contact:phone": "+32 2 503 36 48", "contact:website": "https://elturco.be/", "cuisine": "mediterranean", "description": "Restaurant self service de type mediterran\u00e9en, d'influence ottomane", "diet:vegan": "yes", "diet:vegetarian": "yes", "internet_access": "wlan", "name": "El Turco", "opening_hours": "Mo-Fr 11:30-15:00; Tu-Fr 19:00-22:30", "outdoor_seating": "yes", "self_service": "yes", "takeaway": "yes", "wheelchair": "yes"}}, {"type": "node", "id": 3194961918, "lat": 50.8367918, "lon": 4.3638332, "tags": {"amenity": "restaurant", "cuisine": "international", "name": "Le Matonge"}}, {"type": "node", "id": 3317485994, "lat": 50.8100499, "lon": 4.3972273, "tags": {"amenity": "restaurant", "contact:mobile": "+32 488 31 10 30", "contact:phone": "+32 2 672 76 45", "contact:website": "https://www.ilnabucco.com/", "cuisine": "italian;indian", "diet:vegan": "yes", "diet:vegetarian": "yes", "internet_access": "wlan", "name": "Il Nabucco", "opening_hours": "Tu-Su 12:00-14:30,18:00-22:00"}}, {"type": "node", "id": 3321089465, "lat": 50.8245392, "lon": 4.3661905, "tags": {"amenity": "restaurant", "contact:website": "https://maisondistrie.be/", "cuisine": "mediterranean", "name": "Maison d'Istrie", "opening_hours": "Mo-Th 11:30-23:00; Fr 11:30-24:00; Sa 12:00-24:00", "outdoor_seating": "yes"}}, {"type": "node", "id": 3322996450, "lat": 50.8277901, "lon": 4.3680715, "tags": {"amenity": "restaurant", "contact:phone": "+32 2 361 56 59", "contact:website": "https://www.bapanddak.be/", "cuisine": "korean", "indoor_seating": "yes", "name": "Bap and Dak", "opening_hours": "Mo-Su 11:30-22:00", "outdoor_seating": "no"}}, {"type": "node", "id": 3322996453, "lat": 50.8276819, "lon": 4.3653862, "tags": {"amenity": "restaurant", "cuisine": "vietnamese", "indoor_seating": "yes", "name": "L'Escale au Vietnam", "opening_hours": "Mo,Tu,Th,Fr 11:30-14:30,18:30-22:30", "outdoor_seating": "no"}}, {"type": "node", "id": 3322996458, "lat": 50.8278049, "lon": 4.3683468, "tags": {"amenity": "restaurant", "contact:email": "itaewonbbq@gmail.com", "contact:mobile": "+32 492 07 80 94", "contact:website": "https://www.itaewon.be/", "cuisine": "asian;korean", "indoor_seating": "yes", "name": "Itaewon", "opening_hours": "Mo-Su 18:00-22:30", "outdoor_seating": "no"}}, {"type": "node", "id": 3347874354, "lat": 50.8186309, "lon": 4.3838984, "tags": {"amenity": "restaurant", "contact:phone": "+32 2 646 64 04", "contact:website": "https://tomyam.be", "cuisine": "thai", "delivery": "yes", "diet:vegetarian": "yes", "name": "Tom Yam", "opening_hours": "Mo-Fr 12:00-14:00,18:30-22:30; Sa-Su 18:30-22:30", "reservation": "yes", "takeaway": "yes", "wheelchair": "limited"}}, {"type": "node", "id": 3445558671, "lat": 50.8230682, "lon": 4.381087, "tags": {"amenity": "restaurant", "contact:phone": "+32 2 646 67 77", "contact:website": "https://www.ilclassico.be", "cuisine": "pizza;italian", "delivery": "no", "diet:vegetarian": "yes", "name": "Pizzeria il Classico", "opening_hours": "Mo-Fr 12:00-15:00, 18:00-23:00; Sa-Su 18:00-23:00", "outdoor_seating": "yes", "takeaway": "yes", "wheelchair": "no"}}, {"type": "node", "id": 3457024517, "lat": 50.8183513, "lon": 4.37912, "tags": {"amenity": "restaurant", "check_date:opening_hours": "2024-05-16", "contact:phone": "+32 2 647 13 62", "name": "La Tourelle", "opening_hours:signed": "no", "toilets:wheelchair": "no", "wheelchair": "limited"}}, {"type": "node", "id": 3705787249, "lat": 50.8351676, "lon": 4.3592408, "tags": {"amenity": "restaurant", "contact:facebook": "https://www.facebook.com/lusfiziu/", "contact:mobile": "+32 483 02 35 89", "cuisine": "italian", "name": "Lu Sfiziu"}}, {"type": "node", "id": 3898965584, "lat": 50.8165525, "lon": 4.3861344, "tags": {"amenity": "restaurant", "cuisine": "pizza", "delivery": "no", "name": "Pizzeria Vorrei", "opening_hours": "Mo,We 18:30-22:00, Th 18:30-22:30, Fr,Sa 12:30-22:30, Su 18:30-22:00, We,Th 12:00-14:30", "outdoor_seating": "yes", "takeaway": "yes"}}, {"type": "node", "id": 3977652798, "lat": 50.8276993, "lon": 4.3709456, "tags": {"amenity": "restaurant", "indoor_seating": "yes", "name": "Viandes d'Exception", "outdoor_seating": "no", "source": "local_knowledge"}}, {"type": "node", "id": 3991415854, "lat": 50.8397104, "lon": 4.3680492, "tags": {"amenity": "restaurant", "contact:phone": "+32 2 506 91 11", "contact:website": "https://www.thonhotels.com/fr/hotels/belgique/bruxelles/stanhope-hotel/brighton-restaurant/", "name": "Brighton Restaurant", "opening_hours": "Mo-Fr 07:00-10:00, 12:00-14:00, 19:00-22:00; Sa, Su 07:30-12:00", "outdoor_seating": "yes"}}, {"type": "node", "id": 4005545293, "lat": 50.8268818, "lon": 4.3571214, "tags": {"amenity": "restaurant", "check_date": "2024-08-28", "cuisine": "japanese", "name": "Sushi Roku", "opening_hours": "Mo-Su 11:00-23:30"}}, {"type": "node", "id": 4005546408, "lat": 50.8268849, "lon": 4.3578388, "tags": {"amenity": "restaurant", "check_date": "2024-08-28", "cuisine": "japanese", "name": "Sakura"}}, {"type": "node", "id": 4005591938, "lat": 50.8275335, "lon": 4.3589636, "tags": {"amenity": "restaurant", "cuisine": "french", "name": "Le Pavillon", "opening_hours": "Mo-Fr 12:00-15:00,18:00-23:00"}}, {"type": "node", "id": 4026937914, "lat": 50.8334686, "lon": 4.366824, "tags": {"amenity": "restaurant", "contact:phone": "+32 2 540 80 77", "contact:website": "https://www.restaurant-pizzeria-il-nobile-ixelles.be", "cuisine": "pizza", "indoor_seating": "yes", "name": "Il Nobile", "outdoor_seating": "yes", "wheelchair": "limited"}}, {"type": "node", "id": 4026937915, "lat": 50.8331522, "lon": 4.3676703, "tags": {"amenity": "restaurant", "name": "L'\u00eelot Corse", "shop": "wine"}}, {"type": "node", "id": 4026937924, "lat": 50.8334073, "lon": 4.3669866, "tags": {"amenity": "restaurant", "contact:mobile": "+32 484 22 34 57", "contact:website": "https://vinomaniabxl.be", "cuisine": "spanish;tapas", "currency:EUR": "yes", "description:fr": "Bar \u00e0 tapas espagnol", "internet_access": "wlan", "internet_access:fee": "no", "name": "Vinoman\u00eda", "opening_hours": "Tu-Sa 16:30-24:00", "outdoor_seating": "yes", "payment:cash": "yes", "payment:credit_cards": "yes", "payment:debit_cards": "yes", "payment:mastercard": "yes", "payment:meal_voucher": "yes", "payment:visa": "yes", "wheelchair": "limited"}}, {"type": "node", "id": 4026992225, "lat": 50.8338533, "lon": 4.3655293, "tags": {"amenity": "restaurant", "contact:phone": "+32 2 513 53 12", "cuisine": "japanese", "name": "Yamayu Santatsu", "opening_hours": "Tu-Sa 12:00-13:45,19:00-22:00; Su 19:00-22:00", "wheelchair": "limited"}}, {"type": "node", "id": 4030010490, "lat": 50.8325428, "lon": 4.3666438, "tags": {"amenity": "restaurant", "changing_table": "no", "entrance:kerb:height": "0.15", "entrance:ramp": "no", "entrance:step_count": "1", "entrance:width": "0.9", "name": "De Haus", "toilets:wheelchair": "no", "wheelchair:turning_circle": "yes"}}, {"type": "node", "id": 4030010491, "lat": 50.8324829, "lon": 4.3666695, "tags": {"amenity": "restaurant", "changing_table": "yes", "cuisine": "burger", "entrance:kerb:height": "0.09", "entrance:ramp": "no", "entrance:step_count": "1", "entrance:width": "1.75", "name": "L'Amour Fou", "wheelchair": "limited", "wheelchair:turning_circle": "yes"}}, {"type": "node", "id": 4101726707, "lat": 50.8368918, "lon": 4.3653746, "tags": {"amenity": "restaurant", "contact:phone": "+32 2 513 93 31", "cuisine": "italian", "name": "San Giacomo", "opening_hours": "Mo-Fr 12:00-15:00,18:00-23:00; Sa 12:00-15:00,18:00-23:30", "wheelchair": "no"}}, {"type": "node", "id": 4112667991, "lat": 50.8297854, "lon": 4.3791772, "tags": {"amenity": "restaurant", "contact:phone": "+32 2 649 41 19", "contact:website": "http://www.cafe-portugal.be/fr/", "cuisine": "portuguese", "name": "Caf\u00e9 Portugal", "opening_hours": "Su 09:00-00:00;Tu-Sa 07:00-00:00"}}, {"type": "node", "id": 4217199692, "lat": 50.8359312, "lon": 4.365295, "tags": {"amenity": "restaurant", "contact:phone": "+32 2 502 90 92", "cuisine": "italian;pizza", "delivery": "yes", "indoor_seating": "yes", "name": "La Cantinetta", "opening_hours": "11:30-14:30; 17:30-22:30", "outdoor_seating": "no", "payment:cash": "yes", "payment:credit_cards": "yes", "payment:debit_cards": "yes", "reservation": "yes", "smoking": "outside", "takeaway": "yes"}}, {"type": "node", "id": 4249014894, "lat": 50.8229425, "lon": 4.3603535, "tags": {"amenity": "restaurant", "contact:email": "info@saothaicuisine.be", "contact:website": "https://www.saothaicuisine.be/", "cuisine": "thai", "name": "SAO Thai Cuisine", "opening_hours": "Tu-Fr 12:00-14:30,18:00-22:00; Sa 18:00-22:30", "takeaway": "yes"}}, {"type": "node", "id": 4262247200, "lat": 50.8393345, "lon": 4.3713588, "tags": {"amenity": "restaurant", "cuisine": "thai", "indoor_seating": "yes", "name": "Thai Caf\u00e9", "outdoor_seating": "yes", "toilets:access": "customers"}}, {"type": "node", "id": 4262247203, "lat": 50.8394933, "lon": 4.3717484, "tags": {"amenity": "restaurant", "contact:website": "https://pokehouse.be", "cuisine": "hawaiian", "entrance:kerb:height": "0.11", "entrance:step_count": "1", "entrance:width": "0.92", "name": "Pok\u00e9 House", "takeaway": "yes", "toilets:access": "customers"}}, {"type": "node", "id": 4262247204, "lat": 50.8387621, "lon": 4.3726262, "tags": {"amenity": "restaurant", "comment": "terasse accessible for wheelchair", "entrance:kerb:height": "0.35", "entrance:step_count": "2", "entrance:width": "0.88", "indoor_seating": "yes", "name": "Surfside Pok\u00e9", "opening_hours": "Mo-Fr 11:00-22:00; Sa 11:00-15:00; Su off", "outdoor_seating": "yes", "toilets:access": "customers"}}, {"type": "node", "id": 4262247205, "lat": 50.8394642, "lon": 4.3718878, "tags": {"amenity": "restaurant", "cuisine": "mediterranean", "indoor_seating": "yes", "name": "Tourane", "outdoor_seating": "yes"}}, {"type": "node", "id": 4262247206, "lat": 50.8394781, "lon": 4.3718212, "tags": {"amenity": "restaurant", "contact:phone": "+32 2 230 01 18", "contact:website": "https://restoportofino.be/", "cuisine": "italian", "entrance:kerb:height": "0.27", "entrance:step_count": "1", "entrance:width": "2", "indoor_seating": "yes", "name": "Porto Fino", "opening_hours": "Mo-Su 12:00-15:00,18:00-23:00", "outdoor_seating": "yes", "ramp:wheelchair": "yes", "toilets:access": "customers"}}, {"type": "node", "id": 4262247207, "lat": 50.839542, "lon": 4.3730286, "tags": {"amenity": "restaurant", "bar": "yes", "brewery": "various", "capacity": "200", "comment": "terasse accessible without stairs", "contact:phone": "+32 2 280 25 52", "contact:website": "https://quartier-leopold.be/", "cuisine": "brasserie;french;burger", "entrance:kerb:height": "0.08", "entrance:step_count": "1", "entrance:width": "0.85", "name": "Quartier Leopold", "opening_hours": "Mo-Sa 12:00-23:00", "outdoor_seating": "yes", "reservation": "yes", "toilets:access": "customers"}}, {"type": "node", "id": 4268177837, "lat": 50.8393959, "lon": 4.3710728, "tags": {"amenity": "restaurant", "contact:phone": "+32 2 511 99 95", "contact:website": "https://maisonduluxembourg.be", "cuisine": "french", "name": "Maison du Luxembourg", "opening_hours": "Mo-Th 12:00-14:30, 19:00-22:00; Fr 12:00-14:30"}}, {"type": "node", "id": 4268177838, "lat": 50.8398539, "lon": 4.3735033, "tags": {"amenity": "restaurant", "contact:phone": "+32 2 280 65 40", "contact:website": "https://www.restaurantmediterraneobruxelles.be/", "cuisine": "italian", "name": "Mediterraneo"}}, {"type": "node", "id": 4268177840, "lat": 50.839973, "lon": 4.3735585, "tags": {"amenity": "restaurant", "contact:email": "info@piadabar.eu", "contact:phone": "+32 2 230 41 94", "contact:website": "https://www.piadabar.eu/", "cuisine": "italian", "name": "Piada Bar", "outdoor_seating": "yes"}}, {"type": "node", "id": 4268177842, "lat": 50.8393709, "lon": 4.3711925, "tags": {"amenity": "restaurant", "cuisine": "lebanese", "name": "The Lebanon"}}, {"type": "node", "id": 4268177843, "lat": 50.8395254, "lon": 4.3733347, "tags": {"amenity": "restaurant", "contact:phone": "+32 2 265 50 24", "contact:website": "https://www.sushibox.be", "cuisine": "sushi", "delivery": "yes", "name": "Sushi Box", "opening_hours": "Mo-Fr 11:30-15:00, 18:00-21:30;Sa 17:30-22:00", "takeaway": "yes"}}, {"type": "node", "id": 4268177844, "lat": 50.8399119, "lon": 4.3735248, "tags": {"amenity": "restaurant", "name": "Sowl"}}, {"type": "node", "id": 4309062992, "lat": 50.836163, "lon": 4.3678972, "tags": {"amenity": "restaurant", "contact:phone": "+32 2 513 63 61", "contact:website": "https://www.trattorialesans13.be/", "cuisine": "italian", "name": "Le Sans 13"}}, {"type": "node", "id": 4312281389, "lat": 50.8297537, "lon": 4.3795929, "tags": {"amenity": "restaurant", "contact:facebook": "https://www.facebook.com/Deas-Pizza-1618301825081169/", "contact:phone": "+32 2 647 67 50", "contact:website": "https://deas-pizza.com/", "cuisine": "pizza", "delivery": "yes", "diet:vegetarian": "yes", "name": "Dea's Pizza", "opening_hours": "Mo-Su 17:30-23:00", "takeaway": "only", "wheelchair": "yes"}}, {"type": "node", "id": 4318597510, "lat": 50.8362395, "lon": 4.379861, "tags": {"amenity": "restaurant", "check_date": "2024-06-28", "cuisine": "italian", "indoor_seating": "yes", "name": "Pasta di Leo", "outdoor_seating": "pedestrian_zone", "wheelchair": "no"}}, {"type": "node", "id": 4326816989, "lat": 50.8357285, "lon": 4.3647074, "tags": {"amenity": "restaurant", "brewery": "yes", "check_date": "2024-01-01", "contact:phone": "+32 2 502 00 08", "contact:website": "https://www.lesmarmitesdumonde.be", "cuisine": "mauritian", "name": "Les Marmites du Monde", "payment:maestro": "yes", "payment:mastercard": "yes", "payment:visa": "yes"}}, {"type": "node", "id": 4326816991, "lat": 50.8359765, "lon": 4.3647767, "tags": {"amenity": "restaurant", "check_date": "2026-01-24", "check_date:opening_hours": "2026-01-24", "contact:phone": "+32 2 511 53 66", "contact:website": "https://www.saintboniface.be/", "name": "Saint Boniface", "opening_hours": "Mo-Fr 12:00-14:00, Mo-Sa 19:00-22:00", "payment:cash": "yes", "payment:credit_cards": "yes", "payment:debit_cards": "yes"}}, {"type": "node", "id": 4326817089, "lat": 50.8358849, "lon": 4.3651516, "tags": {"amenity": "restaurant", "contact:phone": "+32 2 513 41 65", "contact:website": "https://www.savage.restaurant", "entrance:kerb:height": "0", "entrance:step_count": "0", "entrance:width": "0.88", "indoor_seating": "yes", "internet_access": "wlan", "internet_access:fee": "no", "name": "Savage", "opening_hours": "Tu-Sa 18:00-22:30; We-Fr 12:00-14:00; Su off", "outdoor_seating": "yes", "start_date": "2021", "toilets:wheelchair": "no", "wheelchair": "limited", "wheelchair:description": "Toilet on first floor.", "wheelchair:turning_circle": "yes"}}, {"type": "node", "id": 4388784730, "lat": 50.8172663, "lon": 4.372183, "tags": {"amenity": "restaurant", "check_date:opening_hours": "2024-02-14", "cuisine": "french", "name": "La Villa in the Sky", "opening_hours:signed": "no"}}, {"type": "node", "id": 4401051193, "lat": 50.8290992, "lon": 4.3592936, "tags": {"amenity": "restaurant", "check_date": "2025-09-29", "contact:phone": "+32 2 537 69 95", "contact:website": "https://www.lechoudebruxelles.be/", "cuisine": "local", "internet_access": "wlan", "name": "Le Chou de Bruxelles", "opening_hours": "Tu-Sa 12:00-14:00, 18:30-22:00"}}, {"type": "node", "id": 4404448189, "lat": 50.8317094, "lon": 4.356392, "tags": {"amenity": "restaurant", "contact:phone": "+32 2 538 22 39", "contact:website": "https://www.mafolledesoeur.be/", "cuisine": "french", "name": "Ma Folle De Soeur", "name:fr": "Ma Folle De Soeur", "opening_hours": "Mo-Sa 12:00-14:30,18:30-22:30"}}, {"type": "node", "id": 4413062557, "lat": 50.8303021, "lon": 4.3812005, "tags": {"amenity": "restaurant", "check_date": "2024-10-26", "cuisine": "vietnamese", "name": "O Banh Mi", "opening_hours": "Mo off;Tu-Fr 11:00-20:30;Sa-Su 12:00-20:30"}}, {"type": "node", "id": 4415110893, "lat": 50.8203651, "lon": 4.3850711, "tags": {"amenity": "restaurant", "brand": "Pizza Hut", "brand:wikidata": "Q191615", "brand:wikipedia": "en:Pizza Hut", "check_date": "2023-12-20", "cuisine": "pizza", "diet:vegetarian": "yes", "drive_through": "no", "name": "Pizza Hut Delivery", "opening_hours": "Mo-Th 11:30-22:00; Fr-Su 11:30-22:30", "wheelchair": "no"}}, {"type": "node", "id": 4415251355, "lat": 50.8208029, "lon": 4.386697, "tags": {"amenity": "restaurant", "contact:website": "https://restaurant-limprobable.be/", "cuisine": "international", "level": "0", "name": "L'Improbable", "opening_hours": "Tu-Fr 12:00-14:30,18:00-23:00; Sa 18:00-23:00", "payment:bancontact": "yes", "payment:cash": "yes", "payment:mastercard": "yes", "payment:payconiq": "yes", "payment:visa": "yes"}}, {"type": "node", "id": 4415282095, "lat": 50.827392, "lon": 4.3714111, "tags": {"amenity": "restaurant", "contact:email": "hello@nonalife.com", "cuisine": "pizza", "description": "Nona Pizza Flagey", "diet:vegetarian": "yes", "indoor_seating": "yes", "name": "Nona", "opening_hours": "Mo-Su 12:00+", "outdoor_seating": "yes", "takeaway": "yes", "website": "https://www.nonalife.com", "wheelchair": "no"}}, {"type": "node", "id": 4415645090, "lat": 50.8381477, "lon": 4.3683847, "tags": {"amenity": "restaurant", "check_date": "2024-10-10", "contact:email": "anciennepoissonnerie@gmail.com", "contact:phone": "+32 2 502 75 05", "contact:website": "http://www.anciennepoissonnerie.be", "cuisine": "italian", "name": "L'Ancienne Poissonnerie", "opening_hours": "Mo-Fr 12:00-15:00, 19:00-23:00; Sa 19:00-23:00", "wheelchair": "no"}}, {"type": "node", "id": 4416006590, "lat": 50.8260412, "lon": 4.3756093, "tags": {"amenity": "restaurant", "check_date": "2024-04-21", "contact:mobile": "+32 471 84 65 31", "contact:website": "https://www.lacampagnola.be/", "cuisine": "pizza", "name": "Le Vieux Ch\u00eane", "opening_hours": "Mo-Fr 12:00-15:00,18:00-23:00; Sa 18:00-23:00; Su off"}}, {"type": "node", "id": 4417780625, "lat": 50.820918, "lon": 4.3865685, "tags": {"amenity": "restaurant", "check_date": "2023-12-18", "cuisine": "pizza", "diet:vegetarian": "yes", "level": "0", "name": "Chez Valerio", "opening_hours": "Mo-Fr 12:00-15:00,18:00-23:00; Sa,Su 18:00-23:00", "wheelchair": "limited"}}, {"type": "node", "id": 4424621389, "lat": 50.8358017, "lon": 4.3661212, "tags": {"amenity": "restaurant", "brewery": "yes", "changing_table": "no", "check_date:opening_hours": "2025-02-05", "cuisine": "coffee_shop;international", "entrance:kerb:height": "0.12", "entrance:ramp": "no", "entrance:step_count": "1", "entrance:width": "0.94", "food": "regional", "indoor_seating": "yes", "name": "caleo cafe", "opening_hours:signed": "no", "outdoor_seating": "pedestrian_zone", "smoking": "outside", "wheelchair": "no", "wheelchair:turning_circle": "yes"}}, {"type": "node", "id": 4426245881, "lat": 50.8254014, "lon": 4.3551417, "tags": {"amenity": "restaurant", "contact:instagram": "https://www.instagram.com/mushu.brussels", "cuisine": "japanese", "name": "Mushu"}}, {"type": "node", "id": 4426898812, "lat": 50.8275918, "lon": 4.3681351, "tags": {"amenity": "restaurant", "cuisine": "vietnamese", "indoor_seating": "yes", "name": "Indochine", "outdoor_seating": "no", "wheelchair": "limited"}}, {"type": "node", "id": 4426898813, "lat": 50.8276104, "lon": 4.3683646, "tags": {"amenity": "restaurant", "cuisine": "tapas", "indoor_seating": "yes", "name": "Le Fabiola", "outdoor_seating": "no"}}, {"type": "node", "id": 4438541893, "lat": 50.8228515, "lon": 4.366914, "tags": {"amenity": "restaurant", "contact:email": "info@leverest.be", "contact:phone": "+32 2 647 57 77", "contact:website": "https://leverest.be/", "description": "Nepalese and indian cuisine.", "name": "L'Everest", "name:fr": "L'Everest", "opening_hours": "Mo-Sa 18:00-22:30"}}, {"type": "node", "id": 4665152946, "lat": 50.8219334, "lon": 4.3668765, "tags": {"amenity": "restaurant", "contact:instagram": "mauvaischoix_restaurant", "contact:website": "https://mauvaischoix.be/", "diet:vegetarian": "only", "name": "Mauvais Choix"}}, {"type": "node", "id": 4665152947, "lat": 50.8221556, "lon": 4.3669305, "tags": {"amenity": "restaurant", "cuisine": "vietnamese", "name": "Le Tournesol", "opening_hours": "Mo-Fr 11:00-16:00", "source": "survey"}}, {"type": "node", "id": 4665152948, "lat": 50.8218379, "lon": 4.3669283, "tags": {"amenity": "restaurant", "cuisine": "belgian", "name": "Le Bugatti", "opening_hours": "We-Su 18:30-22:30", "source": "survey"}}, {"type": "node", "id": 4665152949, "lat": 50.8216457, "lon": 4.3667967, "tags": {"amenity": "restaurant", "check_date:opening_hours": "2024-03-21", "cuisine": "indian", "name": "Ashok's", "opening_hours:signed": "no"}}, {"type": "node", "id": 4666814252, "lat": 50.8365614, "lon": 4.3655008, "tags": {"amenity": "restaurant", "check_date": "2024-08-02", "contact:mobile": "+32 486 30 26 40", "cuisine": "african;ethiopian", "description": "Ethiopian Restaurant", "diet:vegetarian": "yes", "name": "Soleil d'Afrique", "opening_hours": "Mo-Su 12:00-00:00", "outdoor_seating": "yes", "payment:cash": "yes", "payment:credit_cards": "yes"}}, {"type": "node", "id": 4761953842, "lat": 50.8276558, "lon": 4.3711709, "tags": {"amenity": "restaurant", "check_date": "2023-06-07", "contact:email": "info@umamido.be", "contact:phone": "+32 2 640 40 57", "contact:website": "https://www.umamido.be/locations-pages/umamido-flagey", "cuisine": "noodle", "full_name": "Umamido Flagey", "name": "Umam\u00ecdo", "wheelchair": "no"}}, {"type": "node", "id": 4762465234, "lat": 50.8350766, "lon": 4.3611588, "tags": {"amenity": "restaurant", "bar": "yes", "brewery": "various", "check_date": "2025-07-22", "check_date:diet:vegetarian": "2025-07-22", "contact:website": "http://www.lesbrassins.be/", "delivery": "no", "diet:vegetarian": "no", "level": "0", "name": "Les Brassins", "opening_hours": "Tu-Sa 11:00-24:00", "payment:cash": "yes", "payment:credit_cards": "yes", "payment:debit_cards": "yes", "reservation": "yes", "smoking": "no", "toilets:menstrual_products": "no"}}, {"type": "node", "id": 4762465959, "lat": 50.8359791, "lon": 4.3653321, "tags": {"amenity": "restaurant", "indoor_seating": "yes", "name": "La Signare", "opening_hours": "Mo-Su 11:30-23:59", "outdoor_seating": "no"}}, {"type": "node", "id": 4864707926, "lat": 50.8385969, "lon": 4.3643471, "tags": {"amenity": "restaurant", "check_date": "2023-08-07", "contact:email": "novusbruxelles@gmail.com", "contact:mobile": "+32 477 22 36 97", "contact:website": "https://www.novus-restaurant.be/", "name": "Novus", "note": "will become El Pulgarcito restaurant soon..", "opening_hours": "off"}}, {"type": "node", "id": 4864741401, "lat": 50.838009, "lon": 4.368126, "tags": {"amenity": "restaurant", "start_date": "2020"}}, {"type": "node", "id": 4864772015, "lat": 50.8386836, "lon": 4.3705756, "tags": {"amenity": "restaurant", "contact:email": "bxl.kroket@gmail.com", "contact:phone": "+32 2 580 16 30", "contact:website": "https://kroket.eatbu.com", "diet:vegan": "limited", "diet:vegetarian": "yes", "indoor_seating": "yes", "name": "Kroket", "opening_hours": "Mo, Tu 12:00-14:30; We-Fr 12:00-14:30, 19:00-21:30", "outdoor_seating": "yes", "payment:cards": "yes", "payment:cash": "yes", "service:electricity": "limited", "takeaway": "yes"}}, {"type": "node", "id": 4864777206, "lat": 50.838665, "lon": 4.3705045, "tags": {"amenity": "restaurant", "indoor_seating": "yes", "name": "Le Nouvel Artiste", "outdoor_seating": "yes"}}, {"type": "node", "id": 4874783128, "lat": 50.8380346, "lon": 4.3725479, "tags": {"amenity": "restaurant", "contact:phone": "+32 2 502 37 64", "contact:website": "https://starofasia.eu", "cuisine": "indian", "entrance:kerb:height": "0.03", "entrance:step_count": "2", "entrance:width": "0.85", "name": "Star of Asia", "opening_hours": "Mo-Fr 12:00-14:30; Sa-Su 18:30-23:30", "wheelchair": "no"}}, {"type": "node", "id": 4880247808, "lat": 50.8123754, "lon": 4.3709922, "tags": {"amenity": "restaurant", "check_date:opening_hours": "2024-05-07", "name": "La Patinoire", "opening_hours:signed": "no", "website": "https://www.brasseriedelapatinoire.be"}}, {"type": "node", "id": 4881826304, "lat": 50.8200375, "lon": 4.3822105, "tags": {"amenity": "restaurant", "check_date:opening_hours": "2024-02-08", "contact:phone": "+32 2 648 85 80", "cuisine": "pizza", "delivery": "yes", "name": "Avanti", "opening_hours:signed": "no", "takeaway": "yes"}}, {"type": "node", "id": 4885140473, "lat": 50.8274404, "lon": 4.3735166, "tags": {"amenity": "restaurant", "delivery": "no", "name": "L'architecte", "opening_hours": "Mo-Fr 12:00-14:00", "outdoor_seating": "no"}}, {"type": "node", "id": 4895361747, "lat": 50.8278725, "lon": 4.3704426, "tags": {"amenity": "restaurant", "cuisine": "mexican", "indoor_seating": "yes", "name": "La Taqueria", "outdoor_seating": "no", "was:name": "AMI"}}, {"type": "node", "id": 4895367259, "lat": 50.8346937, "lon": 4.3787545, "tags": {"amenity": "restaurant", "check_date": "2023-04-15", "contact:mobile": "+32 476 40 89 85", "diet:vegan": "yes", "diet:vegetarian": "only", "name": "Theatre Varia", "opening_hours": "Mo off; Tu-Sa 18:00-23:00; Su off", "wheelchair": "yes"}}, {"type": "node", "id": 4895392732, "lat": 50.8207773, "lon": 4.3610103, "tags": {"amenity": "restaurant", "check_date": "2023-01-16", "contact:phone": "+32 2 897 34 24", "contact:website": "https://lilboytakeaway.be/", "cuisine": "asian", "name": "Lilboy", "opening_hours": "18:00-21:30", "payment:cash": "no", "payment:mastercard": "yes", "payment:visa": "yes", "takeaway": "only"}}, {"type": "node", "id": 4903511028, "lat": 50.8095796, "lon": 4.3957328, "tags": {"amenity": "restaurant", "contact:email": "info@babam.be", "contact:instagram": "babam.bxl", "contact:phone": "+32 2 660 26 77", "contact:website": "https://babam.be/", "cuisine": "fine_dining", "diet:vegetarian": "yes", "name": "Babam", "opening_hours": "Mo-Fr 19:00-23:00; We-Fr 12:00-14:00; PH off", "opening_hours:kitchen": "Mo-Fr 19:00-22:00; We-Fr 12:00-14:00; PH off"}}, {"type": "node", "id": 4904866144, "lat": 50.8314147, "lon": 4.3560197, "tags": {"amenity": "restaurant", "cuisine": "african", "email": "seydiniang71@gmail.com", "name": "Le Doux Lounge", "self_service": "no", "website": "https://www.douxlounge.be/"}}, {"type": "node", "id": 4961202821, "lat": 50.8177058, "lon": 4.3881782, "tags": {"amenity": "restaurant", "check_date": "2023-12-12", "contact:phone": "+32 2 648 73 70", "cuisine": "japanese", "name": "Menma \u2013 Restaurant de ramen", "name:fr": "Menma - Restaurant de ramen", "opening_hours": "Mo-Fr 11:30-14:00, 18:00-21:30; Sa-Su 11:30-21:30"}}, {"type": "node", "id": 5046613063, "lat": 50.8254454, "lon": 4.3583595, "tags": {"amenity": "restaurant", "check_date": "2024-08-28", "cuisine": "chinese;asian", "delivery": "yes", "indoor_seating": "yes", "name": "Dam Sum", "opening_hours": "Tu-Su 18:30-22:00", "outdoor_seating": "yes", "takeaway": "yes", "url": "https://www.brusselskitchen.com/dam-sum/bruxelles/restaurant?lang=en"}}, {"type": "node", "id": 5092080803, "lat": 50.8202207, "lon": 4.3628078, "tags": {"amenity": "restaurant", "contact:website": "https://milanotorino.eu/bruxelles-brugmann/", "cuisine": "pizza", "name": "Milano Torino", "short_name": "MiTo", "wheelchair": "yes"}}, {"type": "node", "id": 5092082038, "lat": 50.8204222, "lon": 4.3628576, "tags": {"amenity": "restaurant", "contact:website": "http://cocina.be/", "cuisine": "italian", "name": "C\u014fc\u012bna"}}, {"type": "node", "id": 5092104510, "lat": 50.8193649, "lon": 4.3615191, "tags": {"amenity": "restaurant", "check_date:opening_hours": "2025-10-18", "contact:phone": "+32 2 648 78 48", "contact:website": "https://www.restaurant-kamo.be/", "cuisine": "japanese", "name": "Kamo", "opening_hours:signed": "no", "start_date": "2007-09-14", "wikidata": "Q65709088", "wikipedia": "fr:Kamo (restaurant)"}}, {"type": "node", "id": 5092107887, "lat": 50.8192787, "lon": 4.36173, "tags": {"amenity": "restaurant", "contact:phone": "+32 2 346 64 60", "contact:website": "https://carbon-traditional-restaurant.business.site/", "cuisine": "chinese", "name": "Car Bon", "opening_hours": "Mo-Su 12:00-14:30,18:00-22:00", "takeaway": "yes"}}, {"type": "node", "id": 5092120918, "lat": 50.8187922, "lon": 4.3627957, "tags": {"amenity": "restaurant", "name": "Le Fringant", "opening_hours": "Mo-Su 12:00-23:00"}}, {"type": "node", "id": 5092132797, "lat": 50.8191464, "lon": 4.3628172, "tags": {"alt_name": "Le resto fixe d'El Camion", "amenity": "restaurant", "contact:phone": "+32 2 880 67 74", "contact:website": "https://garage-a-manger.be/", "cuisine": "french;cafe", "entrance:kerb:height": "0", "entrance:step_count": "0", "entrance:width": "1", "name": "Le garage \u00e0 manger", "opening_hours": "Mo,We-Th 10:30-18:00; Tu off; Fr-Sa 10:30-20:00; Su 10:30-18:00", "toilets:wheelchair": "yes", "toilets:wheelchair:accessible_via": "ground floor", "wheelchair:turning_circle": "yes"}}, {"type": "node", "id": 5094716870, "lat": 50.8179102, "lon": 4.3930076, "tags": {"amenity": "restaurant", "name": "Nem Nem C\u00e0ph\u00ea"}}, {"type": "node", "id": 5110746338, "lat": 50.8358405, "lon": 4.3712513, "tags": {"air_conditioning": "no", "amenity": "restaurant", "contact:email": "info@horlogedusud.be", "contact:fax": "+32 2 503 09 11", "contact:phone": "+32 2 512 18 64", "contact:website": "https://www.horlogedusud.be/", "cuisine": "african", "diet:vegan": "no", "diet:vegetarian": "yes", "indoor_seating": "yes", "name": "L'Horloge du Sud", "opening_hours": "Mo-Fr 11:00-15:00,18:00-24:00; Sa 18:00-24:00; Su,PH off", "outdoor_seating": "yes", "smoking": "outside", "wheelchair": "no"}}, {"type": "node", "id": 5141054321, "lat": 50.8283059, "lon": 4.3758723, "tags": {"amenity": "restaurant", "name": "Kamoun"}}, {"type": "node", "id": 5174887914, "lat": 50.8369471, "lon": 4.3650431, "tags": {"airconditioned": "no", "amenity": "restaurant", "catering": "yes", "contact:website": "https://mumtaz.brussels/", "cuisine": "indian", "internet_access": "wlan", "lunch": "yes", "name": "Mumtaz", "opening_hours": "Mo off; Tu,We,Th 12:00 - 14:30, 18:00 - 22:00; Fr 18:00 - 23:00; Sa 12:00 - 15:00, 18:00 - 23:00; Su 12:00 - 14:30, 18:00 - 21:30", "outdoor_seating": "no", "payment:cash": "yes", "payment:maestro": "yes", "payment:mastercard": "yes", "payment:visa": "yes", "wheelchair": "no"}}, {"type": "node", "id": 5206653306, "lat": 50.8321714, "lon": 4.3565397, "tags": {"amenity": "restaurant", "contact:mobile": "+32 491 25 53 25", "contact:website": "https://www.sushiavenue.be/", "cuisine": "sushi", "name": "Sushi Avenue"}}, {"type": "node", "id": 5253920927, "lat": 50.8241047, "lon": 4.3588538, "tags": {"amenity": "restaurant", "contact:phone": "+32 2 537 87 87", "contact:website": "https://tanclub.org/", "name": "TAN"}}, {"type": "node", "id": 5338706956, "lat": 50.8170274, "lon": 4.3921686, "tags": {"amenity": "restaurant", "cuisine": "italian", "name": "Parma in Tavola"}}, {"type": "node", "id": 5338731366, "lat": 50.8216884, "lon": 4.3888034, "tags": {"amenity": "restaurant", "contact:phone": "+32 2 648 81 00", "cuisine": "pizza", "name": "Pavarotti", "opening_hours": "Mo-Su 17:30-23:00"}}, {"type": "node", "id": 5338749726, "lat": 50.8212855, "lon": 4.3892499, "tags": {"amenity": "restaurant", "cuisine": "portuguese", "name": "Chapeau", "opening_hours": "Tu-Sa 11:00-15:00,18:30-22:30; Su 11:30-15:00"}}, {"type": "node", "id": 5338752282, "lat": 50.8162522, "lon": 4.3828087, "tags": {"amenity": "restaurant", "contact:website": "https://atabaoburger.be/", "cuisine": "burger", "delivery": "yes", "indoor_seating": "yes", "internet_access": "no", "name": "ATA Bao & Burger", "opening_hours": "Mo-Fr 12:00-15:00,18:00-22:00, Sa-Su 12:00-22:00", "outdoor_seating": "no", "payment:cash": "yes", "payment:visa": "yes", "takeaway": "yes", "toilets:access": "customers"}}, {"type": "node", "id": 5340841321, "lat": 50.8271287, "lon": 4.3629712, "tags": {"amenity": "restaurant", "check_date": "2025-07-29", "contact:phone": "+32 2 640 45 50", "contact:website": "https://www.makisu.be/", "name": "Makisu", "opening_hours": "Mo-Su,PH 12:00-22:00", "toilets:wheelchair": "no", "wheelchair": "no"}}, {"type": "node", "id": 5340846921, "lat": 50.822989, "lon": 4.3674136, "tags": {"amenity": "restaurant", "contact:phone": "+32 2 649 90 13", "contact:website": "https://greenmango.be/en/vleurgat/", "delivery": "yes", "name": "Green Mango", "opening_hours": "Mo-Th 12:00-14:30, 18:30-22:00; Fr-Sa 12:00-14:30, 18:30-23:00, Su 18:30-22:00", "outdoor_seating": "no", "smoking": "no", "takeaway": "yes", "toilets:wheelchair": "no", "website:menu": "https://greenmango.be/en/product-category/menu-en/", "wheelchair": "limited"}}, {"type": "node", "id": 5362155498, "lat": 50.8274933, "lon": 4.3710227, "tags": {"amenity": "restaurant", "cuisine": "peruvian", "name": "Machu Picchu", "wheelchair": "no"}}, {"type": "node", "id": 5383729219, "lat": 50.8170603, "lon": 4.3890205, "tags": {"amenity": "restaurant", "contact:email": "asia2000@skynet.be", "contact:phone": "+32 2 547 56 21", "cuisine": "vietnamese", "delivery": "yes", "level": "0;1", "name": "L'orchid\u00e9e blanche", "opening_hours": "Mo-Su 12:00-14:30,19:00-23:00; Sa 19:00-23:00", "outdoor_seating": "yes"}}, {"type": "node", "id": 5435711640, "lat": 50.8361325, "lon": 4.365534, "tags": {"amenity": "restaurant"}}, {"type": "node", "id": 5442918058, "lat": 50.8116604, "lon": 4.3681618, "tags": {"amenity": "restaurant", "contact:email": "info@brasseriesgeorges.be", "contact:phone": "+32 2 347 21 00", "contact:website": "https://www.brasseriesgeorges.be", "cuisine": "seafood;fine_dining;friture;regional", "name": "Les Brasseries Georges", "opening_hours": "Su-We 12:00-23:00; Th-Sa 12:00-00:00"}}, {"type": "node", "id": 5478051471, "lat": 50.8293752, "lon": 4.362219, "tags": {"amenity": "restaurant", "name": "JeanBon", "opening_hours": "Mo-Fr 08:30-16:30; Sa 09:30-16:00"}}, {"type": "node", "id": 5535780107, "lat": 50.8286827, "lon": 4.3750834, "tags": {"amenity": "restaurant", "cuisine": "portuguese", "name": "O Campino"}}, {"type": "node", "id": 5567348794, "lat": 50.8341429, "lon": 4.3559073, "tags": {"amenity": "restaurant", "contact:phone": "+32 2 534 25 02", "contact:website": "https://www.mamylouise.be/", "indoor_seating": "yes", "name": "Mamy Louise Goulet Louise", "opening_hours": "Mo, Tu, Sa 10:00-18:00; We-Fr 10:00-22:00", "outdoor_seating": "yes"}}, {"type": "node", "id": 5645832475, "lat": 50.8251729, "lon": 4.370774, "tags": {"amenity": "restaurant", "check_date": "2024-06-26", "check_date:opening_hours": "2024-05-22", "name": "Kifkif", "opening_hours": "12:00-14:00,18:30-22:30", "outdoor_seating": "yes"}}, {"type": "node", "id": 5688864736, "lat": 50.8277572, "lon": 4.363885, "tags": {"amenity": "restaurant", "name": "Rouge tomate", "opening_hours": "Mo-Fr 12:00-14:30; Sa 19:00-22:30"}}, {"type": "node", "id": 5706636525, "lat": 50.8271597, "lon": 4.3707432, "tags": {"amenity": "restaurant", "check_date:opening_hours": "2023-03-16", "contact:phone": "+32 2 648 40 25", "contact:website": "http://aglioeolio.be/info.html", "name": "Aglio e Oglio", "opening_hours:signed": "no", "wheelchair": "limited"}}, {"type": "node", "id": 5737276640, "lat": 50.8183114, "lon": 4.3848053, "tags": {"amenity": "restaurant", "contact:website": "https://www.ninarestobar.be/", "cuisine": "italian", "indoor_seating": "yes", "name": "Nina", "opening_hours": "Tu-Th 18:00-22:00+; Fr,Sa 18:00-22:30+", "outdoor_seating": "yes", "was:name": "La Pagode d'Or"}}, {"type": "node", "id": 5749755356, "lat": 50.8181073, "lon": 4.3857075, "tags": {"amenity": "restaurant", "name": "Mili Asian Kitchen"}}, {"type": "node", "id": 5801705141, "lat": 50.8239961, "lon": 4.3592982, "tags": {"amenity": "restaurant", "cuisine": "european", "name": "Lou"}}, {"type": "node", "id": 5801705143, "lat": 50.8235656, "lon": 4.3588183, "tags": {"amenity": "restaurant", "contact:website": "https://lasagnatiramisu.com/", "cuisine": "italian", "name": "Lasagna Tiramisu"}}, {"type": "node", "id": 5801705144, "lat": 50.8201258, "lon": 4.3599274, "tags": {"amenity": "restaurant", "name": "Elise", "outdoor_seating": "yes"}}, {"type": "node", "id": 5801705146, "lat": 50.8239942, "lon": 4.3596671, "tags": {"amenity": "restaurant", "check_date": "2024-08-28", "cuisine": "italian", "name": "La Piola"}}, {"type": "node", "id": 5827349070, "lat": 50.820851, "lon": 4.3767899, "tags": {"amenity": "restaurant", "contact:email": "oishii.food.ixelles@gmail.com", "contact:phone": "+32 2 520 68 81", "contact:website": "https://www.oishii-food.be/", "cuisine": "japanese", "name": "Oishii Food", "opening_hours": "Tu-Fr 12:00-14:30,17:30-21:30; Sa,Su 17:30-21:30"}}, {"type": "node", "id": 5861369478, "lat": 50.8326769, "lon": 4.3745136, "tags": {"amenity": "restaurant", "name": "Au Bon Pain Plaisir"}}, {"type": "node", "id": 5901814490, "lat": 50.8311862, "lon": 4.3683857, "tags": {"amenity": "restaurant", "contact:phone": "+32 2 646 44 49", "contact:website": "https://www.restaurant-grec-ixelles.be/#restaurant-ouzerie-grecque", "cuisine": "greek", "name": "Ouzerie Mezedopolio", "opening_hours": "Mo-Sa 18:30-24:00"}}, {"type": "node", "id": 5903574552, "lat": 50.829485, "lon": 4.3789836, "tags": {"amenity": "restaurant", "contact:phone": "+32 2 852 24 22", "contact:website": "https://borsalino-djom.eatbu.com/", "cuisine": "italian", "indoor_seating": "yes", "name": "Borsalino Djom", "opening_hours": "09:00-23:00", "outdoor_seating": "yes"}}, {"type": "node", "id": 5907172885, "lat": 50.8200598, "lon": 4.3599932, "tags": {"amenity": "restaurant", "cuisine": "korean", "name": "Maru"}}, {"type": "node", "id": 5910235664, "lat": 50.8141888, "lon": 4.3674452, "tags": {"amenity": "restaurant", "contact:phone": "+32 2 344 59 61", "contact:website": "https://www.basculevillage.be/uccle/bascule/shop/Pizzeria_Pulcinella_99", "cuisine": "pizza", "name": "Il Pulcinella", "opening_hours": "Mo-Su 12:00-14:30,18:30-22:30"}}, {"type": "node", "id": 5910246941, "lat": 50.8143938, "lon": 4.3632717, "tags": {"amenity": "restaurant", "check_date:opening_hours": "2021-03-07", "contact:phone": "+32 2 344 07 13", "contact:website": "https://www.resto-cappello.com", "cuisine": "italian", "name": "Cappello", "opening_hours": "Tu-Sa 12:00-14:30,18:30-22:30; Su 12:00-14:30"}}, {"type": "node", "id": 5910290092, "lat": 50.8142595, "lon": 4.3599652, "tags": {"amenity": "restaurant", "contact:phone": "+32 2 347 57 97", "contact:website": "https://www.illionelo.be", "cuisine": "pizza", "name": "Il Lionelo"}}, {"type": "node", "id": 5912212085, "lat": 50.8138451, "lon": 4.3542645, "tags": {"amenity": "restaurant", "check_date:opening_hours": "2021-03-07", "contact:phone": "+32 2 219 49 93", "contact:website": "https://www.luca-bruxelles.com", "cuisine": "italian", "name": "Luca", "opening_hours": "Tu-Sa 10:00-23:00; Su 10:00-17:00"}}, {"type": "node", "id": 5933705785, "lat": 50.8365336, "lon": 4.3802228, "tags": {"amenity": "restaurant", "check_date": "2023-08-26", "contact:phone": "+32 2 230 01 31", "cuisine": "thai", "name": "Thai Hon", "opening_hours": "Mo-Sa 19:00-22:00"}}, {"type": "node", "id": 5951134953, "lat": 50.8208039, "lon": 4.3610839, "tags": {"amenity": "restaurant", "capacity": "50", "name": "Old Boy", "opening_hours": "Mo 18:30-21:15; Tu,Th-Sa 12:00-14:15,18:30-21:30", "wheelchair": "no"}}, {"type": "node", "id": 5961590266, "lat": 50.8227493, "lon": 4.3534194, "tags": {"amenity": "restaurant", "cuisine": "japanese", "delivery": "yes", "diet:vegetarian": "yes", "name": "Makisu", "opening_hours": "Mo-Su 12:00-22:00", "outdoor_seating": "no", "payment:cash": "no", "payment:credit_cards": "yes", "payment:maestro": "yes", "smoking": "no", "takeaway": "yes", "wheelchair": "yes"}}, {"type": "node", "id": 6060218217, "lat": 50.8279152, "lon": 4.3627033, "tags": {"alt_name": "65 degr\u00e9s", "amenity": "restaurant", "name": "65degr\u00e9s", "website": "https://www.65degres.be"}}, {"type": "node", "id": 6070536160, "lat": 50.8125622, "lon": 4.3916952, "tags": {"amenity": "restaurant", "cuisine": "italian", "name": "Il Perfetto", "opening_hours": "12:00-14:00, 18:00-23:00"}}, {"type": "node", "id": 6070797860, "lat": 50.81603, "lon": 4.3898193, "tags": {"amenity": "restaurant", "contact:email": "info@makisu.be", "contact:website": "https://makisu.be", "cuisine": "japanese", "name": "Makisu", "opening_hours": "Mo-Sa 12:00-22:00", "takeaway": "yes"}}, {"type": "node", "id": 6070797861, "lat": 50.8168273, "lon": 4.3888879, "tags": {"amenity": "restaurant", "contact:fax": "+32 2 640 71 58", "contact:phone": "+32 2 640 71 58", "contact:website": "https://poussieresdetoiles.be", "cuisine": "asian", "name": "Poussi\u00e8res d'Etoiles", "opening_hours": "Tu-Su 12:00-14:00, 19:00-22:30", "wheelchair": "no"}}, {"type": "node", "id": 6070797864, "lat": 50.8177052, "lon": 4.3923452, "tags": {"amenity": "restaurant", "contact:email": "resto@laverveine.be", "contact:phone": "+32 2 644 44 80", "contact:website": "http://restolaverveine.com/", "cuisine": "french", "name": "La verveine", "opening_hours": "Mo-Fr 12:00-14:30, 18:45-22:30; Sa 18:30-23:00", "wheelchair": "yes"}}, {"type": "node", "id": 6070797866, "lat": 50.8102958, "lon": 4.3861795, "tags": {"amenity": "restaurant", "contact:facebook": "https://www.facebook.com/RestoSolbosch", "contact:phone": "+32 2 640 13 60", "contact:website": "https://restosolbosch.be/", "cuisine": "french", "name": "Solbosch", "opening_hours": "Mo-Sa 11:00-22:00", "outdoor_seating": "yes", "takeaway": "yes", "wheelchair": "yes"}}, {"type": "node", "id": 6070797867, "lat": 50.8125618, "lon": 4.3891501, "tags": {"amenity": "restaurant", "contact:mobile": "+32 470 910 227", "contact:phone": "+32 2 267 35 74", "contact:website": "https://www.pizzaditalia-ixelles.be", "cuisine": "pizza", "delivery": "yes", "diet:vegetarian": "yes", "name": "Pizza D\u2019Italia", "opening_hours": "Mo-Sa 11:00 - 24:00", "takeaway": "only"}}, {"type": "node", "id": 6119928236, "lat": 50.8352541, "lon": 4.3633965, "tags": {"amenity": "restaurant", "cuisine": "indian", "name": "Indian Flavour", "opening_hours": "Mo,Tu,Th-Su 12:00-15:00,18:00-23:00; We 18:00-23:00"}}, {"type": "node", "id": 6167058859, "lat": 50.8179449, "lon": 4.386486, "tags": {"amenity": "restaurant", "contact:website": "https://tapasymas.be/", "cuisine": "spanish", "indoor_seating": "yes", "name": "Tapas Y Mas", "opening_hours": "Tu-Th 18:30-23:00; Fr,Sa 18:30-24:00", "outdoor_seating": "yes"}}, {"type": "node", "id": 6167058860, "lat": 50.8179807, "lon": 4.3863397, "tags": {"amenity": "restaurant", "contact:facebook": "https://www.facebook.com/KATITiBxl/", "cuisine": "greek", "name": "KATITi", "outdoor_seating": "yes"}}, {"type": "node", "id": 6167058862, "lat": 50.8196282, "lon": 4.3824081, "tags": {"amenity": "restaurant", "check_date": "2023-12-16", "contact:phone": "+32 2 640 52 59", "contact:website": "https://www.pacifiquerestaurant.com/", "cuisine": "vietnamese", "diet:vegetarian": "yes", "name": "Pacifique", "opening_hours": "Th-Mo 12:00-14:30,18:00-22:30; We 18:00-22:30", "wheelchair": "no"}}, {"type": "node", "id": 6170414348, "lat": 50.8166962, "lon": 4.3918935, "tags": {"amenity": "restaurant", "cuisine": "pizza", "name": "Bros"}}, {"type": "node", "id": 6222640488, "lat": 50.8252165, "lon": 4.360543, "tags": {"amenity": "restaurant", "check_date": "2024-08-28", "contact:phone": "+32 2 850 69 99", "contact:website": "https://chatelaineduliban.be", "cuisine": "arab", "name": "La Ch\u00e2telaine du Liban"}}, {"type": "node", "id": 6234407427, "lat": 50.8275155, "lon": 4.3815067, "tags": {"amenity": "restaurant", "contact:phone": "+32 2 203 00 14", "contact:website": "https://www.comptoir-rodin.be/", "indoor_seating": "yes", "name": "Comptoir Rodin", "opening_hours": "Tu-Fr 08:30-15:30; Sa, Su 10:30-13:00, 13:30-16:00", "outdoor_seating": "yes"}}, {"type": "node", "id": 6245160334, "lat": 50.8297882, "lon": 4.3561306, "tags": {"amenity": "restaurant", "check_date": "2025-02-24", "check_date:opening_hours": "2025-02-24", "contact:phone": "+32 2 850 87 13", "contact:website": "https://www.donki.be/", "cuisine": "mexican", "diet:vegan": "yes", "diet:vegetarian": "yes", "indoor_seating": "yes", "name": "Donki", "name:de": "Donki Louise", "opening_hours": "Mo-Su 11:30-21:30", "outdoor_seating": "yes", "payment:cash": "no"}}, {"type": "node", "id": 6245523385, "lat": 50.8339186, "lon": 4.3553826, "tags": {"amenity": "restaurant", "indoor_seating": "yes", "name": "Colonel", "outdoor_seating": "yes"}}, {"type": "node", "id": 6256217438, "lat": 50.8206596, "lon": 4.3872464, "tags": {"amenity": "restaurant", "name": "Les Caves d'Alex", "outdoor_seating": "yes"}}, {"type": "node", "id": 6267007741, "lat": 50.8275825, "lon": 4.3554255, "tags": {"amenity": "restaurant", "name": "Mojo lounge"}}, {"type": "node", "id": 6284575332, "lat": 50.8195426, "lon": 4.3829155, "tags": {"amenity": "restaurant", "changing_table": "no", "check_date": "2025-02-02", "contact:phone": "+32 2 437 95 31", "cuisine": "chinese", "diet:vegan": "yes", "diet:vegetarian": "yes", "level": "0", "name": "Huimian", "opening_hours": "Mo,We off; Tu,Th-Su 12:00-14:30,18:00-21:30", "outdoor_seating": "no", "toilets": "yes", "toilets:menstrual_products": "no", "toilets:wheelchair": "no", "wheelchair": "no"}}, {"type": "node", "id": 6284575333, "lat": 50.8191275, "lon": 4.3831592, "tags": {"amenity": "restaurant", "contact:phone": "+32 2 425 34 47", "cuisine": "vietnamese", "diet:vegan": "yes", "diet:vegetarian": "yes", "name": "Pho Diem Xuan", "opening_hours": "Mo-Su 11:00-15:00,18:00-22:00", "opening_hours:kitchen": "Fr-Su 11:00-22:00 \"non stop\"", "payment:cash": "yes", "takeaway": "yes", "toilets": "yes", "toilets:access": "customers", "toilets:disposal": "flush", "toilets:fee": "no", "toilets:handwashing": "yes", "toilets:num_chambers": "2", "toilets:number": "2", "toilets:paper_supplied": "yes", "toilets:position": "seated", "toilets:wheelchair": "no", "wheelchair": "limited"}}, {"type": "node", "id": 6284575334, "lat": 50.8185651, "lon": 4.3843245, "tags": {"amenity": "restaurant", "contact:email": "guiming.brussels@gmail.com", "contact:phone": "+32 2 476 05 62", "contact:website": "https://www.chezmonsieuryang.com/", "cuisine": "asian;sichuan", "diet:vegetarian": "yes", "name": "Chez Monsieur Yang", "opening_hours": "Mo,We-Su 11:30-14:00,18:30-22:00", "wheelchair": "limited"}}, {"type": "node", "id": 6301082291, "lat": 50.8235482, "lon": 4.3687041, "tags": {"amenity": "restaurant", "contact:phone": "+32 2 611 06 22", "contact:website": "https://www.kokuban.be/", "cuisine": "japanese", "name": "Kokuban", "opening_hours": "Mo-Sa 12:00-14:00,19:00-22:00", "wikidata": "Q1919689", "wikipedia": "nl:Kokuban"}}, {"type": "node", "id": 6325197787, "lat": 50.83636, "lon": 4.3655378, "tags": {"amenity": "restaurant", "cuisine": "african", "name": "Soho", "wheelchair": "no"}}, {"type": "node", "id": 6377569696, "lat": 50.8283721, "lon": 4.3608075, "tags": {"amenity": "restaurant", "contact:website": "https://www.jacqstoastery.com/", "cuisine": "sandwich;coffee;pastry", "description": "Toastery that prepares grilled american sandwitches", "drink:beer": "no", "indoor_seating": "yes", "name": "Jacq's Toastery", "opening_hours": "Mo-Fr 08:00-16:00; Sa 09:00-18:00; Su 10:00-17:00; PH closed", "outdoor_seating": "sidewalk", "takeaway": "yes", "wheelchair": "no"}}, {"type": "node", "id": 6405140427, "lat": 50.8167856, "lon": 4.3889169, "tags": {"amenity": "restaurant", "contact:phone": "+32 2 649 06 62", "cuisine": "thai", "name": "Naly", "opening_hours": "Mo-Sa 12:00-15:00, 18:00-23:30", "wheelchair": "limited"}}, {"type": "node", "id": 6409534291, "lat": 50.82305, "lon": 4.3674097, "tags": {"amenity": "restaurant", "check_date:opening_hours": "2024-02-22", "name": "Qahwah", "opening_hours:signed": "no"}}, {"type": "node", "id": 6504827974, "lat": 50.8254386, "lon": 4.3756539, "tags": {"amenity": "restaurant", "contact:phone": "+32 2 342 09 75", "contact:website": "https://brutfood.be/", "name": "Brut", "opening_hours": "Th,Fr 12:00-14:30,19:30-22:00; Su 13:00-14:30"}}, {"type": "node", "id": 6524745157, "lat": 50.8358938, "lon": 4.3579764, "tags": {"airconditioned": "yes", "amenity": "restaurant", "catering": "yes", "contact:phone": "+32 2 511 20 78", "contact:website": "https://confucius.be", "cuisine": "chinese", "internet_access": "wlan", "lunch": "yes", "name": "Le Confucius", "opening_hours": "Su,Mo,We,Th 12:00-14:00, 18:30-22:00; Fr 12:00-14:00, 18:30-22:10; Sa 18:30 - 22:15", "outdoor_seating": "no", "payment:cash": "yes", "payment:maestro": "yes", "payment:mastercard": "yes", "payment:visa": "yes", "takeaway": "yes", "wheelchair": "no"}}, {"type": "node", "id": 6533611953, "lat": 50.8279721, "lon": 4.3732529, "tags": {"amenity": "restaurant", "name": "Sushi Wa", "opening_hours": "We-Mo 11:30-22:30"}}, {"type": "node", "id": 6571098200, "lat": 50.8287197, "lon": 4.3719524, "tags": {"amenity": "restaurant", "check_date": "2023-03-27", "contact:mobile": "+32 484 48 88 08", "cuisine": "asian;indian", "diet:vegan": "yes", "diet:vegetarian": "yes", "internet_access": "no", "name": "Wok Minute", "opening_hours": "Mo-Su 11:00-23:00", "outdoor_seating": "yes", "payment:cards": "no", "payment:credit_cards": "no", "payment:debit_cards": "no", "takeaway": "yes", "wheelchair": "limited"}}, {"type": "node", "id": 6584884287, "lat": 50.8362687, "lon": 4.3659756, "tags": {"amenity": "restaurant", "cuisine": "african", "indoor_seating": "yes", "name": "Malewa", "opening_hours": "Mo-Sa 11:00-21:00", "outdoor_seating": "sidewalk"}}, {"type": "node", "id": 6669868163, "lat": 50.8397981, "lon": 4.3734653, "tags": {"amenity": "restaurant", "contact:website": "https://can-tho.business.site/", "cuisine": "vietnamese", "delivery": "yes", "diet:vegetarian": "yes", "name": "Can Tho", "opening_hours": "Mo-We, Fr 11:30-15:00; Th 11:30-15:00, 19:00-22:30, Sa-Su off", "outdoor_seating": "yes", "payment:cash": "no", "takeaway": "yes", "wheelchair": "yes"}}, {"type": "node", "id": 6691305334, "lat": 50.8324435, "lon": 4.3566267, "tags": {"amenity": "restaurant", "cuisine": "korean", "name": "Seoul"}}, {"type": "node", "id": 6757387186, "lat": 50.8346793, "lon": 4.3726665, "tags": {"amenity": "restaurant", "contact:phone": "+32 2 512 50 03", "cuisine": "pizza", "diet:halal": "yes", "diet:vegetarian": "yes", "name": "Pizzeria di Napoli"}}, {"type": "node", "id": 6757619016, "lat": 50.8271118, "lon": 4.3706912, "tags": {"amenity": "restaurant", "name": "Le Bar \u00c0 Vins", "opening_hours": "Mo,Tu 11:30-23:00, We,Th 11:30-23:00, Fr 10:30-24:00, Sa 15:00-01:00, Su 15:00-22:30", "wheelchair": "no"}}, {"type": "node", "id": 6780405145, "lat": 50.8162473, "lon": 4.3765389, "tags": {"amenity": "restaurant", "check_date:opening_hours": "2024-02-22", "indoor_seating": "yes", "name": "La Truffe Noire", "opening_hours:signed": "no", "outdoor_seating": "no"}}, {"type": "node", "id": 6780405156, "lat": 50.8193014, "lon": 4.3712876, "tags": {"amenity": "restaurant", "check_date:opening_hours": "2024-02-15", "name": "Ayda", "opening_hours:signed": "no"}}, {"type": "node", "id": 6815837996, "lat": 50.8247474, "lon": 4.357327, "tags": {"amenity": "restaurant", "check_date": "2024-08-28", "description": "Gastro/pub", "name": "Clair/Obscur"}}, {"type": "node", "id": 6815861331, "lat": 50.8250456, "lon": 4.3570333, "tags": {"amenity": "restaurant", "cuisine": "mediterranean", "name": "Couscous At Home"}}, {"type": "node", "id": 6815869046, "lat": 50.8243747, "lon": 4.359281, "tags": {"amenity": "restaurant", "contact:phone": "+32 2 539 32 99", "contact:website": "http://www.unjourapeyrassol.com/bruxelles/", "cuisine": "mediterranean", "name": "Un jour \u00e0 Peyrassol", "opening_hours": "Mo-Sa 12:00-14:30,19:00-22:30; Su 12:00-14:30", "operator": "Un jour \u00e0 Peyrassol", "wheelchair": "limited"}}, {"type": "node", "id": 6818337097, "lat": 50.8294281, "lon": 4.3699139, "tags": {"amenity": "restaurant", "contact:mobile": "+32 485 63 61 15", "contact:phone": "+32 2 646 20 44", "cuisine": "chinese", "description": "Resto traiteur chinois", "indoor_seating": "yes", "name": "China Express", "opening_hours": "We-Su 12:00-14:30,18:00-23:00", "operator": "Teng sprl", "outdoor_seating": "no", "wheelchair": "no"}}, {"type": "node", "id": 6876037485, "lat": 50.8337836, "lon": 4.3772752, "tags": {"amenity": "restaurant", "check_date": "2023-04-15", "name": "Refresh Brussels"}}, {"type": "node", "id": 6917868743, "lat": 50.8214269, "lon": 4.3950863, "tags": {"amenity": "restaurant", "cuisine": "bread;sandwich;pasta", "level": "1", "name": "Opinio broodjes", "opening_hours": "closed", "takeaway": "only"}}, {"type": "node", "id": 6966406042, "lat": 50.8302299, "lon": 4.3629777, "tags": {"amenity": "restaurant", "contact:phone": "+32 2 647 68 03", "name": "Le local", "opening_hours": "Tu-Fr 12:00 - 14:00; We-Sa 19:00-22:00; Sa 11:00-15:00"}}, {"type": "node", "id": 6968287541, "lat": 50.8260103, "lon": 4.3700677, "tags": {"amenity": "restaurant", "bar": "yes", "contact:facebook": "https://facebook.com/bistrococina/", "contact:instagram": "https://www.instagram.com/explore/locations/150871355601941/bistro-nazionale/", "contact:phone": "+32 2 657 09 75", "contact:website": "https://www.squadracocina.com/bistro-nazionale", "cuisine": "italian", "indoor_seating": "yes", "name": "Bistro Nazionale", "opening_hours": "Mo-Su 12:00-14:30, 18:30-22:30", "outdoor_seating": "yes", "wheelchair": "limited"}}, {"type": "node", "id": 6975721290, "lat": 50.8322284, "lon": 4.3565579, "tags": {"amenity": "restaurant", "check_date": "2023-12-16", "contact:phone": "+32 2 537 44 47", "contact:website": "https://www.premiercomptoir.be", "cuisine": "thai", "diet:vegan": "yes", "diet:vegetarian": "yes", "name": "Premier Comptoir Thai", "opening_hours": "Mo-Sa 19:00-22:30; Tu -Th 12:00-14:00,19:00-22:30", "wheelchair": "limited"}}, {"type": "node", "id": 6989944071, "lat": 50.840575, "lon": 4.3724789, "tags": {"amenity": "restaurant", "breakfast": "Mo-Fr 07:30-11:00", "check_date": "2024-09-29", "contact:email": "chezteo.be63@gmail.com", "contact:mobile": "+32 476 21 51 46", "description": "An international food offer designed to provide a healthy and balanced choice. The selection of contemporary menus features a sustainable and seasonal ingredients, enriched by local products. A take-away option with biodegradable boxes is available.", "dinner": "Mo-Fr 18:00-22:00", "lunch": "Mo-Fr 11:00-17:00", "lunch:menu:takeaway": "yes", "lunch:specials": "yes", "name": "Chez Teo", "opening_hours": "Mo-Fr 07:30-17:00,18:00-22:00", "takeaway": "yes", "wheelchair": "yes"}}, {"type": "node", "id": 7023473449, "lat": 50.826223, "lon": 4.3614514, "tags": {"amenity": "restaurant", "contact:email": "hello@tigermilkgroup.com", "contact:facebook": "https://www.facebook.com/tigermilkrestaurants", "contact:instagram": "https://www.instagram.com/tigermilkrestaurants", "contact:phone": "+32 2 537 37 73", "cuisine": "latin_american", "diet:gluten_free": "yes", "diet:vegetarian": "yes", "name": "Tigermilk", "opening_hours": "Mo-Fr 11:45-14:00, 18:45-22:00; Sa-Su 12:00-14:30, 18:45-22:30", "reservation": "no"}}, {"type": "node", "id": 7071765164, "lat": 50.8181555, "lon": 4.3845396, "tags": {"amenity": "restaurant", "cuisine": "thai", "diet:vegan": "yes", "name": "Issan"}}, {"type": "node", "id": 7074387733, "lat": 50.8280249, "lon": 4.3714857, "tags": {"alt_name": "Ellis Gourmet Burger", "amenity": "restaurant", "check_date": "2025-05-23", "contact:phone": "+32 2 486 15 00", "contact:website": "https://ellis.be/fr-be/restaurants/", "cuisine": "burger", "delivery": "yes", "diet:gluten_free": "yes", "indoor_seating": "yes", "name": "Ellis Burger", "opening_hours": "Su-Th 11:30-22:00; Fr-Sa 11:30-22:30", "outdoor_seating": "yes", "takeaway": "yes", "wheelchair": "limited"}}, {"type": "node", "id": 7074397028, "lat": 50.8283214, "lon": 4.3711431, "tags": {"amenity": "restaurant", "indoor_seating": "yes", "name": "Mondday", "outdoor_seating": "no"}}, {"type": "node", "id": 7074433207, "lat": 50.8287208, "lon": 4.3707877, "tags": {"amenity": "restaurant", "name": "Yemeni", "website": "https://www.yemenirestaurant-ixelles.be"}}, {"type": "node", "id": 7074885213, "lat": 50.8320642, "lon": 4.3674255, "tags": {"amenity": "restaurant", "contact:email": "resto@o-roots.com", "contact:phone": "+32 2 513 05 45", "contact:website": "http://o-roots.com", "cuisine": "syrian", "name": "O\u2019Roots", "opening_hours": "Mo-Fr 11:00-15:00,18:00-23:00; Sa 18:00-23:00"}}, {"type": "node", "id": 7081967029, "lat": 50.8298699, "lon": 4.3697785, "tags": {"amenity": "restaurant", "contact:website": "https://cambalhotas-restaurante-portugues.negocio.site", "cuisine": "portuguese", "name": "O Cambalhotas", "opening_hours": "Mo-Sa 07:00-23:00; Tu off; Su 08:00-18:00"}}, {"type": "node", "id": 7081967642, "lat": 50.8297394, "lon": 4.3699017, "tags": {"amenity": "restaurant", "cuisine": "thai", "description": "Thai street food", "name": "Odesu", "was:amenity": "bar", "was:name": "California"}}, {"type": "node", "id": 7082039071, "lat": 50.8382306, "lon": 4.3630461, "tags": {"amenity": "restaurant", "contact:website": "https://www.sushiria.be/", "cuisine": "japanese", "delivery": "yes", "name": "Sushiria", "opening_hours": "Mo-Sa 11:30-15:30,17:30-22:30", "takeaway": "yes"}}, {"type": "node", "id": 7099504885, "lat": 50.8196874, "lon": 4.3713681, "tags": {"amenity": "restaurant", "check_date:opening_hours": "2024-03-14", "contact:phone": "+32 2 648 34 76", "diet:vegan": "yes", "name": "CHYL", "opening_hours:signed": "no"}}, {"type": "node", "id": 7124200596, "lat": 50.821784, "lon": 4.3564252, "tags": {"amenity": "restaurant", "contact:phone": "+32 2 538 77 29", "name": "Da Claudio"}}, {"type": "node", "id": 7136756886, "lat": 50.8359648, "lon": 4.3711136, "tags": {"amenity": "restaurant", "cuisine": "thai", "name": "Thai Chiangmai"}}, {"type": "node", "id": 7142339596, "lat": 50.8363656, "lon": 4.3645933, "tags": {"amenity": "restaurant", "contact:email": "info@lesyrtaki.net", "contact:phone": "+32 2 512 32 70", "contact:website": "http://www.lesyrtaki.net/", "cuisine": "greek", "name": "Le Syrtaki", "opening_hours": "Mo-Su 12:00-15:00,18:30-23:00; Tu 12:00-15:00", "takeaway": "yes"}}, {"type": "node", "id": 7142339597, "lat": 50.8361249, "lon": 4.3641176, "tags": {"amenity": "restaurant", "contact:email": "info@lesyrtaki.net", "contact:phone": "+32 2 512 32 70", "contact:website": "http://www.lesyrtaki.net/", "cuisine": "greek", "name": "Le Syrtaki", "opening_hours": "Mo-Su 12:00-15:00,18:30-23:00; Tu 12:00-15:00", "takeaway": "yes"}}, {"type": "node", "id": 7154159184, "lat": 50.835875, "lon": 4.3640072, "tags": {"amenity": "restaurant", "check_date": "2025-08-05", "contact:website": "https://www.voltasupperclub.com/", "cuisine": "pizza", "diet:non-vegetarian": "yes", "diet:vegan": "yes", "diet:vegetarian": "yes", "name": "Volta Supper Club", "opening_hours": "Su-We 18:30-23:00; Th-Sa 18:30-23:30"}}, {"type": "node", "id": 7154181518, "lat": 50.8359491, "lon": 4.3641136, "tags": {"amenity": "restaurant", "contact:email": "info@lesyrtaki.net", "contact:phone": "+32 2 512 32 70", "cuisine": "greek", "name": "Le Syrtaki", "opening_hours": "Mo-Su 12:00-15:00,18:30-23:00; Tu 12:00-15:00", "takeaway": "yes"}}, {"type": "node", "id": 7179059886, "lat": 50.8224397, "lon": 4.3666523, "tags": {"amenity": "restaurant", "contact:phone": "+32 2 647 88 02", "contact:website": "https://dolcerestaurant.be", "cuisine": "italian", "delivery": "yes", "name": "Dolce", "opening_hours": "Mo-Fr 12:00-14:30, 19:00-22:30; Sa 19:00-22:45", "takeaway": "yes"}}, {"type": "node", "id": 7185348285, "lat": 50.8240817, "lon": 4.3634218, "tags": {"amenity": "restaurant", "contact:phone": "+32 2 649 30 01", "contact:website": "https://laregina.be/", "cuisine": "pizza", "diet:meat": "yes", "diet:vegan": "yes", "diet:vegetarian": "yes", "name": "Pizzeria La Regina", "opening_hours": "We-Fr 11:30-14:30, Tu-Sa 18:00-22:00"}}, {"type": "node", "id": 7194064685, "lat": 50.8254873, "lon": 4.3596124, "tags": {"amenity": "restaurant", "brewery": "Kirin;Uijin", "contact:instagram": "mendo.ixelles", "contact:phone": "+32 2 770 76 66", "cuisine": "japanese;ramen", "indoor_seating": "yes", "name": "Mendo", "opening_hours": "We-Su 12:30-14:30,18:00-22:30", "outdoor_seating": "yes", "was:name": "Ganesh"}}, {"type": "node", "id": 7196938789, "lat": 50.8225194, "lon": 4.3580229, "tags": {"amenity": "restaurant", "name": "L'\u00e9picerie \u2013 Cuisine du March\u00e9", "opening_hours": "Mo-Sa 11:30-15:00"}}, {"type": "node", "id": 7216168185, "lat": 50.8285626, "lon": 4.3630914, "tags": {"amenity": "restaurant", "contact:website": "https://www.manhattns.com/location/avenue-louise", "cuisine": "burger", "diet:vegetarian": "yes", "name": "Manhattn's Burgers", "opening_hours": "Mo-Su 11:30-22:30"}}, {"type": "node", "id": 7241787660, "lat": 50.8292865, "lon": 4.3724921, "tags": {"amenity": "restaurant", "contact:phone": "+32 2 259 49 11", "contact:website": "https://dimyum.be/", "cuisine": "asian", "delivery": "yes", "delivery:deliveroo": "yes", "delivery:ubereats": "yes", "description": "dim sums", "diet:vegetarian": "yes", "name": "Dim Yum", "opening_hours": "Mo 18:30-22:00; Tu-Sa 12:00-14:30,18:30-22:00; PH off", "takeaway": "yes", "wheelchair": "limited"}}, {"type": "node", "id": 7254803699, "lat": 50.818666, "lon": 4.3838297, "tags": {"amenity": "restaurant", "diet:vegetarian": "yes", "name": "Le grenier d'Elvire", "opening_hours": "Tu-Fr 12:00-14:30, Tu-Su 19:00-24:00", "wheelchair": "limited"}}, {"type": "node", "id": 7254813151, "lat": 50.818528, "lon": 4.3840395, "tags": {"amenity": "restaurant", "contact:phone": "+32 2 647 07 18", "cuisine": "vietnamese", "diet:vegan": "yes", "diet:vegetarian": "yes", "name": "Apocalypse", "opening_hours:signed": "no", "wheelchair": "limited"}}, {"type": "node", "id": 7254852555, "lat": 50.8275221, "lon": 4.3710683, "tags": {"amenity": "restaurant", "contact:email": "otacos.bruxellesflagey@resto-tacos.com", "contact:phone": "+32 2 346 70 95", "contact:website": "https://o-tacos.com/be-fr/", "name": "O\u2019Tacos Flagey - Ixelles", "opening_hours": "Mo-Th 11:00-23:00; Fr 11:00-24:00; Sa 00:00-01:00,12:00-24:00; Su 00:00-01:00,12:00-23:00", "wheelchair": "no"}}, {"type": "node", "id": 7254870118, "lat": 50.8279665, "lon": 4.359324, "tags": {"amenity": "restaurant", "contact:email": "restaurantshrimps@gmail.com", "contact:mobile": "+32 490 44 53 67", "contact:website": "https://restaurantshrimps.be/", "delivery": "yes", "name": "Shrimp's Brussels", "opening_hours": "Mo-Sa 12:00-15:00, 18:30-22:00", "takeaway": "yes"}}, {"type": "node", "id": 7272635042, "lat": 50.8286986, "lon": 4.371984, "tags": {"amenity": "restaurant", "name": "Bambini"}}, {"type": "node", "id": 7324789619, "lat": 50.828677, "lon": 4.3706089, "tags": {"amenity": "restaurant", "contact:email": "PokiPoke.be@gmail.com", "contact:phone": "+32 2 705 22 14", "contact:website": "https://www.pokipoke.net/", "cuisine": "hawaiian", "name": "PokiPok\u00e9", "opening_hours": "Mo-Sa 11:30-15:00,18:00-22:00; Su 18:00-22:00", "wheelchair": "no"}}, {"type": "node", "id": 7324815285, "lat": 50.8281689, "lon": 4.3710607, "tags": {"amenity": "restaurant", "check_date": "2026-02-01", "contact:phone": "+32 2 642 95 90", "contact:website": "https://www.racinesbruxelles.com", "cuisine": "italian", "name": "Racines"}}, {"type": "node", "id": 7324824824, "lat": 50.8277265, "lon": 4.3711825, "tags": {"amenity": "restaurant", "contact:facebook": "https://www.facebook.com/lecomptoiracroquer/", "contact:mobile": "+32 493 46 84 11", "cuisine": "italian;pasta", "diet:vegetarian": "yes", "name": "Baracca Boy\u2019s", "takeaway": "only", "wheelchair": "yes"}}, {"type": "node", "id": 7330062336, "lat": 50.8354939, "lon": 4.3694823, "tags": {"amenity": "restaurant", "check_date": "2024-10-13", "check_date:diet:halal": "2024-10-13", "check_date:diet:vegan": "2024-10-13", "check_date:diet:vegetarian": "2024-10-13", "contact:phone": "+32 2 512 49 29", "contact:website": "https://kitchen.onefiveone.be", "cuisine": "mediterranean", "diet:halal": "no", "diet:vegan": "no", "diet:vegetarian": "yes", "indoor_seating": "yes", "name": "Kitchen 151", "note": "Opening hours taken from the front door (as of September 2020); they differ from their website", "opening_hours": "We-Sa 11:00-16:00", "outdoor_seating": "yes", "takeaway": "yes", "wheelchair": "limited"}}, {"type": "node", "id": 7358367405, "lat": 50.8185249, "lon": 4.384366, "tags": {"amenity": "restaurant", "contact:mobile": "+32 472 77 59 11", "cuisine": "lebanese", "description": "snack, traiteur, petit resto sp\u00e9cialit\u00e9s libanaises", "diet:vegetarian": "yes", "name": "Le Liban", "opening_hours": "Mo-Fr 12:00-22:30; Sa 13:00-22:30", "outdoor_seating": "yes", "smoking": "outside", "takeaway": "yes", "wheelchair": "limited"}}, {"type": "node", "id": 7638821885, "lat": 50.8232088, "lon": 4.3587914, "tags": {"amenity": "restaurant", "cuisine": "mexican", "name": "V\u00e9rigoud", "opening_hours": "Tu 18:00-22:00; We-Fr 12:00-14:00,18:00-22:00"}}, {"type": "node", "id": 7640820485, "lat": 50.8273509, "lon": 4.3632692, "tags": {"amenity": "restaurant", "check_date": "2025-07-29", "contact:instagram": "https://www.instagram.com/youwok", "contact:twitter": "https://twitter.com/youwok", "contact:website": "https://youwok.be/fr/restaurants/bruxelles-louise/", "cuisine": "noodle;thai;wok", "delivery": "yes", "diet:gluten_free": "yes", "diet:vegetarian": "yes", "full_name": "YouWok Bruxelles Louise", "indoor_seating": "yes", "name": "YouWok", "opening_hours": "Mo-Fr 11:00-22:00; Sa, Su 12:00-22:00", "outdoor_seating": "no", "takeaway": "yes", "wheelchair": "no"}}, {"type": "node", "id": 7687706685, "lat": 50.8262664, "lon": 4.3609474, "tags": {"amenity": "restaurant", "name": "Le Livre Jaune Chez Rachid"}}, {"type": "node", "id": 7704369886, "lat": 50.8276753, "lon": 4.3708743, "tags": {"amenity": "restaurant", "contact:email": "info@takumi.be", "contact:phone": "+32 2 523 84 73", "cuisine": "japanese", "indoor_seating": "yes", "name": "Takumi", "opening_hours": "Mo-Su 12:00-15:00, 18:00-21:00", "outdoor_seating": "yes", "website": "https://takumiramennoodles.com/be/brussels-flagey/"}}, {"type": "node", "id": 7725569385, "lat": 50.8223332, "lon": 4.3574444, "tags": {"amenity": "restaurant", "name": "Chez Jacky", "website": "https://chezjackybrussels.com/"}}, {"type": "node", "id": 7729067779, "lat": 50.8302834, "lon": 4.3736807, "tags": {"amenity": "restaurant", "contact:email": "contacter@arpaije.be", "contact:phone": "+32 2 644 59 57", "contact:website": "http://www.arpaije.be/contactez-nous/", "cuisine": "regional", "name": "Arpaije"}}, {"type": "node", "id": 7729067780, "lat": 50.826402, "lon": 4.375624, "tags": {"amenity": "restaurant", "check_date": "2026-02-01", "name": "Arpaije", "opening_hours": "Tu-Fr 12:00-13:45"}}, {"type": "node", "id": 7825703285, "lat": 50.8265258, "lon": 4.3623664, "tags": {"amenity": "restaurant", "check_date": "2025-07-29", "name": "Knees to Chin"}}, {"type": "node", "id": 7833848685, "lat": 50.8233652, "lon": 4.3589659, "tags": {"amenity": "restaurant", "contact:instagram": "malmo.ixelles", "contact:mobile": "+32 476 07 14 57", "cuisine": "seafood", "name": "Malm\u00f6"}}, {"type": "node", "id": 7865233585, "lat": 50.8234919, "lon": 4.361464, "tags": {"amenity": "restaurant", "contact:phone": "+32 2 647 09 04", "contact:website": "https://tatar-restaurant.be/", "cuisine": "belgian", "description": "bar a tartar", "name": "Tatar", "opening_hours": "Tu-Sa 12:00-15:00,19:00-00:00", "wheelchair": "no"}}, {"type": "node", "id": 7881849985, "lat": 50.8288621, "lon": 4.3720417, "tags": {"amenity": "restaurant", "check_date": "2023-04-15", "indoor_seating": "yes", "name": "Les P\u00e9nates", "outdoor_seating": "yes", "wheelchair": "limited"}}, {"type": "node", "id": 7910206785, "lat": 50.8276338, "lon": 4.3692861, "tags": {"amenity": "restaurant", "cuisine": "thai", "indoor_seating": "yes", "name": "Walkin' Tha\u00ef", "opening_hours": "Mo,Tu,Th 12:00-14:30,18:30-22:00; Fr 12:00-14:30,18:30-22:30; Sa 18:30-22:30; Su 18:00-22:00", "outdoor_seating": "no"}}, {"type": "node", "id": 7918400185, "lat": 50.8364384, "lon": 4.3805112, "tags": {"alt_name": "La cuisine de Maman !", "amenity": "restaurant", "check_date": "2024-06-24", "cuisine": "lebanese;mediterranean", "indoor_seating": "yes", "name": "Tamy", "opening_hours": "Tu-Fr 12:00-15:00,18:00-22:00; Su 11:00-16:00", "outdoor_seating": "yes"}}, {"type": "node", "id": 7930693912, "lat": 50.8360258, "lon": 4.3646886, "tags": {"amenity": "restaurant", "check_date": "2024-11-09", "contact:facebook": "https://www.facebook.com/kokuramen/", "contact:instagram": "https://www.instagram.com/koku.ramen/", "contact:phone": "+32 2 361 75 41", "contact:tiktok": "https://www.tiktok.com/@koku_ramen", "contact:website": "https://iekeikokuramen.com/", "cuisine": "ramen", "delivery": "no", "name": "Koku Ramen", "opening_hours": "Tu 12:00-14:00; We-Fr 12:00-14:00,19:00-21:00; Sa 12:00-14:00,19:00-21:30; Mo,Su off", "payment:cash": "yes", "payment:credit_cards": "yes", "payment:debit_cards": "yes", "reservation": "no", "takeaway": "no"}}, {"type": "node", "id": 7943279487, "lat": 50.8227989, "lon": 4.3601191, "tags": {"amenity": "restaurant", "check_date": "2025-07-17", "cuisine": "pizza", "name": "Al Bacio"}}, {"type": "node", "id": 7959416485, "lat": 50.8267791, "lon": 4.3627666, "tags": {"amenity": "restaurant", "check_date": "2026-01-30", "cuisine": "japanese", "name": "Umamido Bailli", "payment:cash": "no"}}, {"type": "node", "id": 7970582388, "lat": 50.8268302, "lon": 4.3629252, "tags": {"amenity": "restaurant", "cuisine": "italian", "name": "Nona", "opening_hours": "Fr,Sa 12:00-22:00; Su-Th 12:00-21:30", "wheelchair": "no"}}, {"type": "node", "id": 7978455585, "lat": 50.8276889, "lon": 4.3707687, "tags": {"amenity": "restaurant", "check_date": "2026-01-31", "name": "Cocina pizza"}}, {"type": "node", "id": 8013258685, "lat": 50.8388365, "lon": 4.3675236, "tags": {"amenity": "restaurant", "contact:mobile": "+32 494 52 62 59", "contact:website": "https://vkous.com/", "cuisine": "hawaiian", "entrance:kerb:height": "0.15", "entrance:step_count": "2", "entrance:width": "0.9", "name": "Vkous", "opening_hours": "Mo 11:00-15:00; Tu-Fr 11:00-15:00,18:30-21:30", "toilets:wheelchair": "yes", "toilets:wheelchair:accessible_via": "stairs", "wheelchair:turning_circle": "yes"}}, {"type": "node", "id": 8017428183, "lat": 50.8257512, "lon": 4.3553454, "tags": {"amenity": "restaurant", "check_date": "2024-08-28", "contact:phone": "+32 2 808 25 20", "contact:website": "https://www.thai-sate.be/", "cuisine": "thai", "name": "Tha\u00ef Sat\u00e9"}}, {"type": "node", "id": 8049638279, "lat": 50.8356977, "lon": 4.3666669, "tags": {"amenity": "restaurant", "check_date:opening_hours": "2025-02-05", "contact:mobile": "+32 473 49 64 93", "contact:website": "https://www.certo.me/", "cuisine": "italian", "indoor_seating": "yes", "name": "Certo", "opening_hours:signed": "no", "outdoor_seating": "sidewalk", "wheelchair": "no"}}, {"type": "node", "id": 8118974586, "lat": 50.8269434, "lon": 4.3548685, "tags": {"amenity": "restaurant", "check_date": "2025-02-20", "contact:website": "https://www.majolie.brussels", "name": "Ma Jolie", "opening_hours:covid19": "closed", "outdoor_seating": "yes"}}, {"type": "node", "id": 8146585903, "lat": 50.8291672, "lon": 4.3727234, "tags": {"amenity": "restaurant", "check_date": "2024-08-25", "check_date:opening_hours": "2022-09-06", "contact:phone": "+32 2 648 03 06", "cuisine": "pizza", "delivery": "yes", "diet:halal": "yes", "name": "Pizzeria Istanbul", "opening_hours": "Tu-Su 11:00-23:00", "takeaway": "yes", "wheelchair": "limited"}}, {"type": "node", "id": 8146599927, "lat": 50.8293409, "lon": 4.3728232, "tags": {"air_conditioning": "yes", "amenity": "restaurant", "contact:mobile": "+32 484 07 71 71", "contact:website": "http://www.royale-pizza.be", "cuisine": "pizza", "delivery": "yes", "delivery:deliveroo": "yes", "delivery:takeaway.com": "yes", "delivery:ubereats": "yes", "diet:halal": "yes", "diet:vegan": "no", "diet:vegetarian": "yes", "entrance:kerb:height": "0.07", "entrance:step_count": "1", "entrance:width": "0.88", "indoor_seating": "yes", "name": "Royale Pizza", "opening_hours": "Mo-Su 12:00-24:00; Fr 15:00-24:00", "outdoor_seating": "no", "payment:cash": "yes", "payment:credit_cards": "yes", "payment:debit_cards": "yes", "payment:maestro": "yes", "smoking": "no", "takeaway": "yes", "toilets:wheelchair": "no", "wheelchair": "no", "wheelchair:turning_circle": "yes"}}, {"type": "node", "id": 8151683605, "lat": 50.8346801, "lon": 4.3638129, "tags": {"amenity": "restaurant", "contact:instagram": "thefiftyonebrussels", "cuisine": "mediterranean", "diet:vegetarian": "yes", "indoor_seating": "yes", "name": "The Fifty One", "opening_hours": "Tu-Sa 15:00-23:00", "outdoor_seating": "pedestrian_zone", "website:menu": "https://www.thefork.com/restaurant/the-fifty-one-tapas-sharing-plates-bistro-r660315/menu", "wheelchair": "yes"}}, {"type": "node", "id": 8213819190, "lat": 50.821838, "lon": 4.3568923, "tags": {"amenity": "restaurant", "check_date": "2023-01-15", "contact:website": "https://www.luluhomeinterior.be/en/cafe-lulu-chatelain-en/", "cuisine": "coffee_shop", "internet_access": "wlan", "internet_access:fee": "no", "name": "Caf\u00e9 LuLu Ch\u00e2telain", "opening_hours": "Mo off; Tu-Su 10:30-18:00", "payment:cash": "yes", "payment:maestro": "yes", "payment:mastercard": "yes", "payment:visa": "yes", "wheelchair": "yes"}}, {"type": "node", "id": 8401880789, "lat": 50.8329728, "lon": 4.3751469, "tags": {"amenity": "restaurant", "check_date:opening_hours": "2025-10-17", "name": "Pizza Punto Pasta", "opening_hours": "PH,Mo-Su 12:00-24:00", "opening_hours:signed": "no"}}, {"type": "node", "id": 8401880797, "lat": 50.835615, "lon": 4.3697697, "tags": {"alt_name": "La Marraine", "amenity": "restaurant", "cuisine": "african", "indoor_seating": "yes", "membership": "yes", "name": "La Mandibule", "opening_hours": "11:00-sunrise", "outdoor_seating": "yes"}}, {"type": "node", "id": 8585333035, "lat": 50.8277649, "lon": 4.3745675, "tags": {"amenity": "restaurant", "check_date": "2023-12-15", "cuisine": "japanese;sushi", "name": "Maki Maki"}}, {"type": "node", "id": 8617596345, "lat": 50.8376929, "lon": 4.3680319, "tags": {"amenity": "restaurant", "cuisine": "soup;salads;coffee", "name": "IKI", "opening_hours:covid19": "Mo-Fr 11:30-15:00; Sa-Su off"}}, {"type": "node", "id": 8617596347, "lat": 50.8375985, "lon": 4.3681618, "tags": {"amenity": "restaurant", "contact:phone": "+32 2 502 22 32", "contact:website": "https://www.restaurantchou.eu", "name": "Chou", "opening_hours:covid19": "Mo-Fr 12:00-14:00,18:30-22:00; Sa 18:30-22:00; Su off"}}, {"type": "node", "id": 8717880376, "lat": 50.8236155, "lon": 4.3611294, "tags": {"amenity": "restaurant", "contact:email": "info@educazionenapoletana.be", "contact:phone": "+32 2 245 15 40", "contact:website": "https://www.educazionenapoletana.be/", "cuisine": "pizza", "name": "Educazione napoletana", "opening_hours": "Mo off; Tu 18:30-22:30; We-Su 12:00-14:30,18:30-22:30; Fr-Sa 12:00-14:30,18:30-23:00"}}, {"type": "node", "id": 8892988084, "lat": 50.831303, "lon": 4.358002, "tags": {"amenity": "restaurant", "contact:instagram": "https://www.instagram.com/eaterskitchens/", "contact:website": "https://www.eaters-louise.com/", "cuisine": "fast_food;asian", "delivery": "yes", "description": "Asian Street Food", "name": "Eaters", "outdoor_seating": "yes"}}, {"type": "node", "id": 8920694534, "lat": 50.8239492, "lon": 4.3571002, "tags": {"amenity": "restaurant", "name": "Baci"}}, {"type": "node", "id": 9236093620, "lat": 50.8211728, "lon": 4.3607477, "tags": {"amenity": "restaurant", "contact:instagram": "le17.45bruxelles.ixl", "contact:website": "https://le17-45.be/", "cuisine": "deli;cheese", "indoor_seating": "yes", "name": "Le 17.45", "outdoor_seating": "yes", "ref:vatin": "BE1007089731"}}, {"type": "node", "id": 9236136849, "lat": 50.8217006, "lon": 4.3589363, "tags": {"amenity": "restaurant", "contact:phone": "+32 2 538 84 76", "contact:website": "https://seino-restaurant.be", "cuisine": "french;japanese", "internet_access": "yes", "internet_access:fee": "no", "name": "Seino", "opening_hours": "Mo-Sa 12:00-14:00,19:00-21:00; Tu off; We 19:00-21:00"}}, {"type": "node", "id": 9237781673, "lat": 50.8228562, "lon": 4.3606182, "tags": {"amenity": "restaurant", "contact:facebook": "https://www.facebook.com/classicolabrasserie/", "contact:instagram": "https://www.instagram.com/CLASSICO_BRASSERIE/", "contact:phone": "+32 2 537 90 39", "contact:website": "https://classico-la-brasserie.com", "level": "0", "name": "Classico La Brasserie", "opening_hours": "Tu-Th 12:00-14:30,19:00-22:30; Fr 12:00-14:30,19:00-23:00; Sa 19:00-23:00"}}, {"type": "node", "id": 9238625768, "lat": 50.8182276, "lon": 4.3635018, "tags": {"amenity": "restaurant", "contact:website": "https://www.meni.brussels/", "name": "meni", "opening_hours": "Mo-Sa 09:00-15:00", "takeaway": "only"}}, {"type": "node", "id": 9238671727, "lat": 50.8209098, "lon": 4.3613154, "tags": {"amenity": "restaurant", "contact:website": "https://www.lunesiamoise.be", "cuisine": "thai", "name": "Lune Siamoise", "opening_hours": "Mo-Fr 12:00-14:30, 18:30-22:00; Sa 18:30-22:30", "was:name": "Le Fruit D\u00e9fendu"}}, {"type": "node", "id": 9239664727, "lat": 50.817419, "lon": 4.3555085, "tags": {"amenity": "restaurant", "contact:email": "info@ausavoy.be", "contact:phone": "+32 2 344 32 10", "contact:website": "https://ausavoy.be/", "cuisine": "regional", "name": "Au Savoy", "opening_hours": "Mo-Su 10:00-23:00", "outdoor_seating": "yes"}}, {"type": "node", "id": 9239844695, "lat": 50.8170039, "lon": 4.3519284, "tags": {"amenity": "restaurant", "contact:email": "info@amen.restaurant", "contact:phone": "+32 2 217 10 19", "contact:website": "https://amen.restaurant", "cuisine": "mediterranean", "name": "Amen", "opening_hours": "Tu-Sa 12:00-14:00, 19:00-22:00", "reservation": "recommended"}}, {"type": "node", "id": 9239881258, "lat": 50.8090883, "lon": 4.3700273, "tags": {"amenity": "restaurant", "contact:email": "contact@bagheerarestaurant.com", "contact:phone": "+32 2 320 50 00", "contact:website": "https://www.bagheerarestaurant.com", "cuisine": "international", "name": "Bagheera", "opening_hours": "Tu-Fr 12:00-14:00, 19:00-23:00; Sa 19:00-23:00"}}, {"type": "node", "id": 9366220883, "lat": 50.8360831, "lon": 4.3657352, "tags": {"amenity": "restaurant", "indoor_seating": "yes", "name": "Les 2 Orients", "outdoor_seating": "no"}}, {"type": "node", "id": 9366220886, "lat": 50.8363409, "lon": 4.3660592, "tags": {"amenity": "restaurant", "contact:phone": "+32 2 608 51 54", "contact:website": "https://osteriabolognese.be", "cuisine": "italian", "delivery": "no", "name": "Osteria Bolognese", "opening_hours": "Tu-Fr 12:00-14:00,19:00-22:15", "outdoor_seating": "yes", "takeaway": "yes"}}, {"type": "node", "id": 9550667177, "lat": 50.8337112, "lon": 4.3738774, "tags": {"amenity": "restaurant", "contact:phone": "+32 2 315 58 08", "contact:website": "http://sushime.be/", "cuisine": "sushi", "delivery": "yes", "name": "Sushi Me", "opening_hours": "Mo-Th 11:00-15:00,17:00-23:30; Fr 11:00-15:00,17:00-24:00; Sa 11:00-24:00; Su 11:00-23:00", "takeaway": "only"}}, {"type": "node", "id": 9607457001, "lat": 50.8342161, "lon": 4.3781239, "tags": {"amenity": "restaurant", "check_date:opening_hours": "2023-02-06", "contact:facebook": "https://www.facebook.com/people/En-Tout-K/100082900434683/", "name": "En tout K'", "opening_hours:signed": "no"}}, {"type": "node", "id": 9631749174, "lat": 50.8225983, "lon": 4.3581109, "tags": {"amenity": "restaurant", "contact:website": "https://nikolaskoulepis.com/pitasserie/", "cuisine": "greek", "name": "Pitasserie"}}, {"type": "node", "id": 9713094717, "lat": 50.826329, "lon": 4.3618288, "tags": {"amenity": "restaurant", "contact:phone": "+32 2 478 07 13", "contact:website": "https://nyyorestaurant.com/", "cuisine": "vietnamese", "name": "NYY\u00d3", "opening_hours": "Mo-Sa 12:00-14:00, 18:00-22:00"}}, {"type": "node", "id": 9718090081, "lat": 50.8176686, "lon": 4.3538531, "tags": {"amenity": "restaurant", "contact:email": "mitobrugmann@milanotorino.eu", "contact:phone": "+32 2 511 87 31", "contact:website": "https://milanotorino.eu/bruxelles-brugmann/", "cuisine": "italian", "name": "Mito", "opening_hours": "Mo-Su,PH 18:30-22:30, Fr-Su,PH 12:00-14:30", "wheelchair": "limited"}}, {"type": "node", "id": 9741381509, "lat": 50.8363699, "lon": 4.3605252, "tags": {"amenity": "restaurant", "contact:phone": "+32 2 502 90 98", "cuisine": "persian", "name": "Shuka", "opening_hours": "Mo-We 12:00-19:00; Th-Sa 12:00-20:30; Su off; PH off"}}, {"type": "node", "id": 9881777070, "lat": 50.8156589, "lon": 4.3711922, "tags": {"amenity": "restaurant", "check_date": "2023-01-27", "contact:email": "info@osteriaromana.be", "contact:instagram": "osteriaromanabruxelles", "contact:phone": "+32 2 648 13 95", "contact:website": "https://www.osteriaromana.be/", "cuisine": "italian", "currency:XBT": "yes", "name": "Osteria Romana", "opening_hours": "Tu-Sa 18:30-00:30", "payment:lightning": "yes", "payment:lightning_contactless": "no", "payment:onchain": "no", "reservation": "recommended", "takeaway": "yes"}}, {"type": "node", "id": 10022903519, "lat": 50.8231081, "lon": 4.3590449, "tags": {"amenity": "restaurant", "contact:website": "http://ilovegringo.com/", "cuisine": "mexican", "name": "Gringo"}}, {"type": "node", "id": 10182206965, "lat": 50.8229302, "lon": 4.3673675, "tags": {"amenity": "restaurant", "contact:phone": "+32 2 411 87 57", "contact:website": "https://verdo.brussels/", "description": "Plant-based house", "diet:vegan": "only", "name": "Verd\u014d", "opening_hours": "Mo-We 11:00-14:00; Th,Fr 11:00-14:00,19:00-23:00"}}, {"type": "node", "id": 10271198468, "lat": 50.8144663, "lon": 4.3512558, "tags": {"amenity": "restaurant", "contact:website": "https://traiteur-vedat.be/", "delivery": "yes", "name": "Vedat", "takeaway": "yes"}}, {"type": "node", "id": 10275186648, "lat": 50.832491, "lon": 4.376006, "tags": {"amenity": "restaurant", "contact:website": "https://refreshbxl.com/", "name": "refresh", "opening_hours": "We-Fr 12:00-14:30", "panoramax": "aa314f74-57a0-4da4-a55b-5bd0f9ac3ceb"}}, {"type": "node", "id": 10276671405, "lat": 50.8075907, "lon": 4.3708242, "tags": {"amenity": "restaurant", "contact:email": "hello@metplaizier.be", "contact:phone": "+32 2 882 21 20", "contact:website": "https://www.metplaizier.be/", "name": "Met Plaizier", "opening_hours": "Mo-Fr 08:00-17:00"}}, {"type": "node", "id": 10291572457, "lat": 50.8353649, "lon": 4.3647729, "tags": {"amenity": "restaurant", "contact:mobile": "+32 485 39 61 01", "cuisine": "asian", "delivery": "yes", "delivery:partner": "takeaway.com", "description": "Dim Sum and Veggies", "name": "May Flower", "opening_hours": "Tu-Sa 12:00-14:30,18:00-22:00"}}, {"type": "node", "id": 10550625011, "lat": 50.8230967, "lon": 4.3591289, "tags": {"amenity": "restaurant", "contact:phone": "+32 2 534 63 30", "contact:website": "https://chezwawa.com/", "cuisine": "mexican", "name": "CHEZWaWa", "opening_hours": "Tu-Sa 12:00-14:30, Tu-Th 17:30-21:00, Su 17:30-21:00; Mo off, Fr,Sa 17:30-21:30"}}, {"type": "node", "id": 10565268288, "lat": 50.8362522, "lon": 4.3675514, "tags": {"amenity": "restaurant", "cuisine": "african", "name": "\u00d4 111", "operator": "Chez Malou"}}, {"type": "node", "id": 10601763362, "lat": 50.8227502, "lon": 4.3667689, "tags": {"amenity": "restaurant", "check_date": "2023-02-02", "contact:phone": "+32 2 726 96 76", "contact:website": "https://sunnybao.be", "cuisine": "asian", "name": "Sunny Bao", "opening_hours": "Mo-Fr 11:00-19:00; Sa 12:00-18:00; Su off", "payment:mastercard": "yes", "payment:visa": "yes"}}, {"type": "node", "id": 10617088399, "lat": 50.8181225, "lon": 4.3637049, "tags": {"amenity": "restaurant", "cuisine": "indian;nepalese", "name": "Taste of Raaj", "opening_hours": "Mo-Su 12:00-14:30,18:00-22:30"}}, {"type": "node", "id": 10620763931, "lat": 50.8253913, "lon": 4.358846, "tags": {"amenity": "restaurant", "branch": "Ixelles", "contact:website": "https://bavet.eu/", "cuisine": "pasta", "description": "Spaghetti Bar", "indoor_seating": "yes", "name": "Bavet", "opening_hours": "Mo-Su 11:30-14:30, PH,Mo-Su 17:30-22:00", "outdoor_seating": "yes", "payment:cash": "no", "takeaway": "yes"}}, {"type": "node", "id": 10648690282, "lat": 50.8180257, "lon": 4.3639334, "tags": {"amenity": "restaurant", "panoramax": "00929035-0ffe-4626-8fbc-7a85ef9cb02f"}}, {"type": "node", "id": 10686624243, "lat": 50.8269171, "lon": 4.3552128, "tags": {"amenity": "restaurant", "contact:instagram": "soif_de_faim", "name": "Soif de Faim", "opening_hours": "Mo-Th 10:30-15:30; Fr 19:30-21:30"}}, {"type": "node", "id": 10722398520, "lat": 50.8137735, "lon": 4.3566188, "tags": {"amenity": "restaurant", "contact:instagram": "https://www.instagram.com/seven.brussels/", "contact:website": "https://www.seven-brussels.com/", "name": "Seven", "opening_hours": "Mo,We-Fr 08:00-17:00; Sa, Su 10:00-18:00", "opening_hours:kitchen": "Mo,We-Fr 08:00-15:00; Sa, Su 10:00-16:00", "reservation": "no"}}, {"type": "node", "id": 10739057542, "lat": 50.8362212, "lon": 4.365914, "tags": {"amenity": "restaurant", "cuisine": "sushi", "indoor_seating": "yes", "name": "Makifornia", "opening_hours": "Mo-Fr 11:00-23:00; Sa,Su 11:30-23:00", "outdoor_seating": "no"}}, {"type": "node", "id": 10739057543, "lat": 50.8363905, "lon": 4.3657036, "tags": {"amenity": "restaurant", "contact:mobile": "+32 465 85 44 94", "contact:website": "https://laakam.be", "cuisine": "african", "name": "Le Laakam"}}, {"type": "node", "id": 10792703405, "lat": 50.8231851, "lon": 4.3536672, "tags": {"amenity": "restaurant", "contact:email": "orientalia.traiteur@gmail.com", "contact:phone": "+32 2 520 75 75", "contact:website": "https://orientalia.be/", "name": "Orientalia", "opening_hours": "Tu-Fr 09:00-15:00"}}, {"type": "node", "id": 10809018894, "lat": 50.8160662, "lon": 4.3903287, "tags": {"air_conditioning": "yes", "amenity": "restaurant", "changing_table": "no", "contact:mobile": "+32 488 16 54 77", "contact:website": "https://logroup.be/mylene", "diet:vegan": "no", "diet:vegetarian": "yes", "indoor_seating": "yes", "name": "Myl\u00e8ne", "opening_hours": "12:00-23:00", "outdoor_seating": "yes", "toilets": "yes", "toilets:wheelchair": "no", "wheelchair": "limited"}}, {"type": "node", "id": 10816203718, "lat": 50.8233133, "lon": 4.3528073, "tags": {"amenity": "restaurant", "contact:website": "https://at-lebanese.com/", "cuisine": "lebanese", "name": "At Lebanese"}}, {"type": "node", "id": 10820182144, "lat": 50.828877, "lon": 4.3719756, "tags": {"amenity": "restaurant", "check_date": "2023-04-17", "indoor_seating": "yes", "name": "La Loire", "outdoor_seating": "yes", "wheelchair": "no"}}, {"type": "node", "id": 10820218906, "lat": 50.8289472, "lon": 4.3718415, "tags": {"amenity": "restaurant", "check_date": "2023-04-17", "cuisine": "portuguese", "indoor_seating": "yes", "name": "Beirao", "outdoor_seating": "yes"}}, {"type": "node", "id": 10842099584, "lat": 50.8345565, "lon": 4.3616829, "tags": {"amenity": "restaurant", "contact:mobile": "+32 479 40 06 07", "contact:website": "https://epicerie-nomad.be/", "cuisine": "fusion", "indoor_seating": "yes", "name": "L'\u00e9picerie Nomad", "opening_hours": "Tu-Sa 11:00-15:00,18:00-22:00", "outdoor_seating": "yes"}}, {"type": "node", "id": 10861013671, "lat": 50.8364594, "lon": 4.37983, "tags": {"amenity": "restaurant", "name": "Le Schievelavabo", "opening_hours": "Mo 12:00-14:30,18:30-22:00; Tu-Fr 12:00-14:30,18:30-23:00; Sa 18:30-23:00; Su 18:30-22:00", "website": "https://schievelavabo.com/restaurants/jourdan", "wheelchair": "limited"}}, {"type": "node", "id": 10903524224, "lat": 50.8395202, "lon": 4.3731355, "tags": {"amenity": "restaurant", "bar": "yes", "contact:website": "https://londonbrasserie.be/", "cuisine": "french", "entrance:kerb:height": "0.09", "entrance:step_count": "1", "entrance:width": "0.8", "name": "London Brasserie", "outdoor_seating": "veranda", "payment:cash": "yes", "payment:debit_cards": "yes", "payment:mastercard": "yes", "payment:payconiq": "yes", "payment:visa": "yes", "toilets:access": "customers", "wheelchair": "yes"}}, {"type": "node", "id": 10914493605, "lat": 50.8199826, "lon": 4.3522321, "tags": {"amenity": "restaurant", "name": "Brugmann"}}, {"type": "node", "id": 10931921413, "lat": 50.8271069, "lon": 4.3552735, "tags": {"amenity": "restaurant", "contact:email": "info@kaijurestaurant.be", "contact:phone": "+32 2 537 10 05", "cuisine": "asian", "description": "Asian street food", "name": "Kaiju", "opening_hours": "Mo-Sa 19:00-23:00"}}, {"type": "node", "id": 11040120892, "lat": 50.8292702, "lon": 4.370367, "tags": {"amenity": "restaurant", "contact:website": "https://missionmasala.be/", "cuisine": "indian", "diet:vegetarian": "yes", "name": "Bombay BBQ"}}, {"type": "node", "id": 11081106361, "lat": 50.8159469, "lon": 4.3900203, "tags": {"amenity": "restaurant", "check_date": "2026-01-31", "contact:email": "ciao@grandepiazza.com", "contact:instagram": "grande_piazza", "contact:phone": "+32 2 777 70 85", "contact:website": "https://www.grandepiazza.com/", "cuisine": "italian", "diet:vegan": "no", "diet:vegetarian": "yes", "name": "Grande Piazza", "opening_hours": "Mo-Su 11:30-24:00", "opening_hours:kitchen": "Mo-We,Su 12:00-14:30,18:30-22:30; Th-Sa 12:00-14:30,18:30-23:00", "reservation": "yes", "start_date": "2025-04-11"}}, {"type": "node", "id": 11108197389, "lat": 50.8363583, "lon": 4.3801602, "tags": {"amenity": "restaurant", "check_date": "2023-08-11", "check_date:opening_hours": "2023-08-11", "contact:phone": "+32 2 644 25 52", "cuisine": "sushi", "name": "Espace sushi", "opening_hours:signed": "no", "wheelchair": "no"}}, {"type": "node", "id": 11136010305, "lat": 50.8274651, "lon": 4.3653865, "tags": {"amenity": "restaurant", "contact:mobile": "+32 484 57 08 40", "contact:website": "https://www.greenhouse-brussels.be/", "cuisine": "international", "diet:vegan": "only", "diet:vegetarian": "only", "name": "Green House", "opening_hours": "Sa-We 12:00-15:00, 18:00-22:00; Th 17:00-21:00"}}, {"type": "node", "id": 11152830251, "lat": 50.8269833, "lon": 4.3578371, "tags": {"amenity": "restaurant", "contact:email": "pozbrussels@gmail.com", "contact:mobile": "+32 484 27 58 95", "cuisine": "coffee", "opening_hours": "Mo-Su 09:00-18:00", "payment:cards": "yes", "payment:cash": "yes", "payment:qr_code": "no", "reservation": "no"}}, {"type": "node", "id": 11200735749, "lat": 50.8362882, "lon": 4.3645205, "tags": {"amenity": "restaurant", "contact:website": "https://www.konchu.eu/", "cuisine": "japanese", "name": "Konchu", "official_name": "Konch\u016b", "opening_hours": "Tu-Sa 12:00-14:30,19:00-22:00"}}, {"type": "node", "id": 11244653188, "lat": 50.8375363, "lon": 4.3719467, "tags": {"amenity": "restaurant", "cuisine": "sandwich;coffee_shop;salad", "name": "So Lunch"}}, {"type": "node", "id": 11273709447, "lat": 50.8378886, "lon": 4.3686954, "tags": {"amenity": "restaurant", "contact:phone": "+32 2 502 52 05", "contact:website": "https://hinodeya.jimdofree.com/", "cuisine": "japanese", "name": "Hinodeya", "opening_hours": "Mo,Tu,Th,Fr 12:00-13:30,19:00-21:30; We 12:00-13:30"}}, {"type": "node", "id": 11298155729, "lat": 50.8172877, "lon": 4.380657, "tags": {"amenity": "restaurant", "contact:phone": "+32 2 649 21 49", "contact:website": "https://nonbedaigaku.be", "cuisine": "japanese", "indoor_seating": "yes", "name": "Nonbe Daigaku", "opening_hours": "Tu-Sa 12:00-14:00,19:00-22:00", "outdoor_seating": "no", "wheelchair": "no"}}, {"type": "node", "id": 11298203496, "lat": 50.8175761, "lon": 4.380216, "tags": {"amenity": "restaurant", "check_date:opening_hours": "2024-04-17", "cuisine": "indian", "name": "Punjab", "opening_hours:signed": "no"}}, {"type": "node", "id": 11298203502, "lat": 50.8177331, "lon": 4.3804999, "tags": {"amenity": "restaurant", "check_date:opening_hours": "2024-05-23", "name": "Pho 799", "opening_hours:signed": "no"}}, {"type": "node", "id": 11346698583, "lat": 50.835603, "lon": 4.3664314, "tags": {"amenity": "restaurant", "contact:mobile": "+32 455 11 85 68", "contact:website": "https://lelonguevie.be/", "cuisine": "tapas", "indoor_seating": "yes", "name": "Le Longue Vie", "opening_hours": "Tu-Sa 18:30-00:30", "outdoor_seating": "sidewalk"}}, {"type": "node", "id": 11392689191, "lat": 50.8354873, "lon": 4.3607027, "tags": {"amenity": "restaurant", "check_date": "2024-01-01", "contact:website": "https://www.bogartfoodiescorner.be", "cuisine": "mediterranean", "name": "Bogart Foodies Corner", "opening_hours": "Mo-Fr 12:00-13:30,19:00-21:30; Sa 19:00-21:30; PH off"}}, {"type": "node", "id": 11396718377, "lat": 50.8389546, "lon": 4.3708495, "tags": {"amenity": "restaurant", "contact:phone": "+32 2 512 62 52", "contact:website": "http://www.ilpasticcio.be", "cuisine": "italian", "name": "Il Pasticcio", "opening_hours": "Mo-Sa 12:00-14:30, We 19:00-22:30", "wheelchair": "no"}}, {"type": "node", "id": 11406505571, "lat": 50.8184652, "lon": 4.3844954, "tags": {"amenity": "restaurant", "contact:fax": "+32 2 644 16 00", "contact:phone": "+32 2 640 04 69", "contact:website": "https://www.chezfleur.be", "cuisine": "vietnamese;thai", "delivery": "Mo-Su 18:00-22:30", "diet:vegetarian": "yes", "name": "Chez Fleur", "opening_hours": "Mo-Fr 12:00-14:00,18:00-23:30; Sa-Su 18:00-23:30", "takeaway": "yes", "wheelchair": "limited"}}, {"type": "node", "id": 11420202669, "lat": 50.8279019, "lon": 4.3744256, "tags": {"amenity": "restaurant", "name": "Keuft\u00e9", "opening_hours": "Mo-We 11:00-23:00, Th-Su 11:00-01:00"}}, {"type": "node", "id": 11420202770, "lat": 50.8279781, "lon": 4.3747171, "tags": {"amenity": "restaurant", "cuisine": "indian", "name": "Le petit Flagey"}}, {"type": "node", "id": 11420844942, "lat": 50.8277829, "lon": 4.3746538, "tags": {"amenity": "restaurant", "cuisine": "asian;thai;vietnamese", "name": "Yummy Food", "opening_hours": "Mo-Fr 11:00-21:00"}}, {"type": "node", "id": 11423323344, "lat": 50.835644, "lon": 4.3696892, "tags": {"amenity": "restaurant", "contact:website": "https://restaurantletournant.com", "cuisine": "french", "indoor_seating": "yes", "name": "Le Tournant", "opening_hours:signed": "no", "outdoor_seating": "no", "wheelchair": "limited"}}, {"type": "node", "id": 11502834659, "lat": 50.8376852, "lon": 4.3676446, "tags": {"amenity": "restaurant", "contact:email": "info.grilledandtoasty@gmail.com", "contact:mobile": "+32 470 55 70 31", "contact:website": "https://grilledandtoasty.com/", "cuisine": "sandwich", "delivery": "yes", "indoor_seating": "yes", "name": "Grilled & Toasty", "opening_hours": "Mo-Su 12:00-15:00,17:00-23:00", "outdoor_seating": "no", "payment:cash": "yes", "payment:credit_cards": "yes", "payment:debit_cards": "yes", "reservation": "yes", "takeaway": "yes"}}, {"type": "node", "id": 11516580185, "lat": 50.8386874, "lon": 4.3711685, "tags": {"amenity": "restaurant", "cuisine": "vietnamese", "name": "H\u00f4ng Loan", "wheelchair": "no"}}, {"type": "node", "id": 11528546370, "lat": 50.8340891, "lon": 4.3638082, "tags": {"amenity": "restaurant", "check_date": "2024-11-15", "cuisine": "asian", "indoor_seating": "yes", "name": "A-MUI Taiwanese Lunch Box", "opening_hours": "Mo,Sa-Su off; Tu-Th 11:30-14:00; Fr 11:30-14:00,17:30-20:00", "outdoor_seating": "no", "short_name": "A-MUI"}}, {"type": "node", "id": 11581984241, "lat": 50.8365539, "lon": 4.3670517, "tags": {"amenity": "restaurant", "check_date": "2024-02-03", "cuisine": "african", "name": "Mpoko Bazar", "payment:cash": "yes", "payment:credit_cards": "yes", "payment:debit_cards": "yes", "wheelchair": "no"}}, {"type": "node", "id": 11583139773, "lat": 50.8283112, "lon": 4.3601125, "tags": {"amenity": "restaurant", "contact:email": "info@loscharros.be", "contact:website": "https://loscharros.be/", "cuisine": "mexican", "name": "Los Charros", "opening_hours": "Tu-Th,Su 18:30-22:30; Fr-Sa 18:30-23:00; PH closed", "takeaway": "yes", "wheelchair": "no"}}, {"type": "node", "id": 11583139776, "lat": 50.8289523, "lon": 4.3582545, "tags": {"amenity": "restaurant", "contact:phone": "+32 2 538 57 17", "cuisine": "italian", "name": "Ciao Bella", "opening_hours": "Mo-Fr 12:00-15:00,19:00-22:30; Sa 19:00-22:30; PH closed"}}, {"type": "node", "id": 11594654023, "lat": 50.8343224, "lon": 4.3590023, "tags": {"amenity": "restaurant", "cuisine": "tibetan", "name": "Bodja"}}, {"type": "node", "id": 11594991769, "lat": 50.8295309, "lon": 4.3758023, "tags": {"amenity": "restaurant", "contact:mobile": "+32 477 52 79 82", "cuisine": "portuguese", "name": "C.A.D IXELLES"}}, {"type": "node", "id": 11606542970, "lat": 50.8090666, "lon": 4.3696699, "tags": {"alt_name": "Nozomi Sushi", "amenity": "restaurant", "contact:email": "info@nozomisushi.be", "contact:phone": "+32 2 259 17 10", "contact:website": "https://nozomisushi.be/", "cuisine": "japanese;ramen;poke", "name": "Nozomi", "opening_hours": "Mo-Sa 11:30-14:30,17:30-22:30", "takeaway": "yes"}}, {"type": "node", "id": 11736437026, "lat": 50.8159758, "lon": 4.3827626, "tags": {"amenity": "restaurant", "name": "Le Pickwick", "opening_hours": "Mo-Fr 10:00-24:00,10:30-23:30"}}, {"type": "node", "id": 11736437027, "lat": 50.8160166, "lon": 4.3826973, "tags": {"amenity": "restaurant", "check_date:opening_hours": "2024-03-15", "name": "La Braisi\u00e8re", "opening_hours:signed": "no"}}, {"type": "node", "id": 11834674554, "lat": 50.825508, "lon": 4.3758172, "tags": {"amenity": "restaurant", "check_date": "2024-04-21", "name": "Dyossa"}}, {"type": "node", "id": 11862171743, "lat": 50.8365606, "lon": 4.366922, "tags": {"amenity": "restaurant", "contact:website": "https://www.chezmaloubomboka.com/", "cuisine": "african", "name": "Chez Malou"}}, {"type": "node", "id": 11896686069, "lat": 50.8346731, "lon": 4.3556133, "tags": {"amenity": "restaurant", "contact:phone": "+32 2 538 12 07", "contact:website": "https://la-vigne.be/", "cuisine": "mediterranean", "name": "La Vigne", "opening_hours": "Mo-Sa 12:00-23:00", "wheelchair": "no"}}, {"type": "node", "id": 11906755001, "lat": 50.8204297, "lon": 4.3561802, "tags": {"amenity": "restaurant", "contact:email": "info@quartzrestaurant.be", "contact:website": "https://quartzrestaurant.be/", "name": "Quartz", "start_date": "2024"}}, {"type": "node", "id": 11906881510, "lat": 50.8157404, "lon": 4.3895001, "tags": {"amenity": "restaurant", "cuisine": "regional", "name": "La Bastoche", "opening_hours": "12:00-03:00", "outdoor_seating": "yes", "wheelchair": "no"}}, {"type": "node", "id": 11951887613, "lat": 50.8140448, "lon": 4.350043, "tags": {"amenity": "restaurant", "contact:phone": "+32 2 770 28 63", "cuisine": "pizza", "indoor_seating": "yes", "name": "Pizzeria Nom\u00e8a", "outdoor_seating": "yes"}}, {"type": "node", "id": 11964649361, "lat": 50.8174293, "lon": 4.3927114, "tags": {"amenity": "restaurant", "indoor_seating": "yes", "name": "Ricardo's", "outdoor_seating": "no"}}, {"type": "node", "id": 12050736669, "lat": 50.8362331, "lon": 4.3576258, "tags": {"amenity": "restaurant", "contact:website": "https://www.cocobrussels.com/", "name": "Coco Brussels", "opening_hours": "We-Sa 19:00-02:30"}}, {"type": "node", "id": 12064917419, "lat": 50.8389847, "lon": 4.3655354, "tags": {"amenity": "restaurant", "club": "social", "contact:fax": "+32 2 513 64 11", "contact:phone": "+32 2 545 04 00", "contact:website": "https://universityfoundation.be/", "name": "Fondation Universitaire - Universitaire Stichting", "name:en": "University Foundation", "name:fr": "Fondation Universitaire", "name:nl": "Universitaire Stichting", "office": "foundation", "ref:vatin": "BE0536049813", "start_date": "1920-07-06", "tourism": "hotel", "wikidata": "Q7894696"}}, {"type": "node", "id": 12072050101, "lat": 50.8364108, "lon": 4.3803905, "tags": {"amenity": "restaurant", "cuisine": "vietnamese", "name:signed": "no"}}, {"type": "node", "id": 12088899659, "lat": 50.8241749, "lon": 4.3631487, "tags": {"amenity": "restaurant", "cuisine": "sushi", "name": "Sushiria"}}, {"type": "node", "id": 12135994288, "lat": 50.8187173, "lon": 4.3794805, "tags": {"amenity": "restaurant", "contact:mobile": "+32 471 97 58 64", "cuisine": "syrian", "name": "Damascus House"}}, {"type": "node", "id": 12168695097, "lat": 50.8217284, "lon": 4.3958518, "tags": {"air_conditioning": "yes", "alt_name": "Resto", "amenity": "restaurant", "contact:email": "vubrestaurant@vub.be", "contact:phone": "+32 2 629 33 53", "contact:website": "https://www.vub.be/nl/dienstverlening-op-de-vub-campus-etterbeek-en-jette/lekker-eten-op-de-vub-campus/vub-resto-op-campus-etterbeek", "delivery": "no", "diet:vegan": "yes", "diet:vegetarian": "yes", "indoor_seating": "yes", "name": "VUB-restaurant", "opening_hours": "Mo-Fr 07:30-15:45", "opening_hours:kitchen": "Mo-Fr 11:30-13:45", "outdoor_seating": "no", "payment:bancontact": "yes", "payment:coins": "yes", "payment:maestro": "yes", "payment:mastercard": "yes", "payment:meal_voucher": "yes", "payment:monizze": "yes", "payment:notes": "yes", "payment:payconiq": "yes", "payment:pluxee": "yes", "payment:visa": "yes", "reservation": "no", "reusable_packaging:accept": "yes", "smoking": "no", "takeaway": "yes"}}, {"type": "node", "id": 12172287367, "lat": 50.8231282, "lon": 4.3583306, "tags": {"amenity": "restaurant", "bar": "yes", "contact:email": "info@quincaillerie.be", "contact:facebook": "LaQuincaillerieBrussels", "contact:instagram": "laquincaillerie.be", "contact:phone": "+32 2 533 98 33", "contact:website": "https://quincaillerie.be/", "cuisine": "belgian", "highchair": "yes", "name": "La Quincaillerie", "opening_hours": "Tu-Su 12:00-14:30,18:30-22:30; Sa 18:30-22:30", "outdoor_seating": "yes", "ref:vatin": "BE0460228673", "reservation": "yes", "toilets": "yes", "website:menu": "https://quincaillerie.be/menu"}}, {"type": "node", "id": 12173735214, "lat": 50.8261566, "lon": 4.3701608, "tags": {"amenity": "restaurant", "contact:website": "https://www.cicciomatto.com", "cuisine": "painza", "name": "Ciccio", "opening_hours": "Tu-Sa 12:00-14:00, 18:30-22:00"}}, {"type": "node", "id": 12181771787, "lat": 50.8384406, "lon": 4.3727543, "tags": {"amenity": "restaurant", "comment": "terasse accessible for wheelchair", "diet:vegan": "no", "diet:vegetarian": "yes", "entrance:kerb:height": "0.2", "entrance:step_count": "2", "entrance:width": "0.9", "name": "Spuntino", "opening_hours": "Mo-We 07:30-14:30; Th 07:30-14:30,17:00-23:00; Fr 11:00-14:30", "toilets:access": "customers", "wheelchair:turning_circle": "yes"}}, {"type": "node", "id": 12181800660, "lat": 50.8398329, "lon": 4.372283, "tags": {"amenity": "restaurant", "changing_table": "no", "changing_table:adult": "no", "created_by": "On Wheels 44", "diet:vegan": "no", "diet:vegetarian": "no", "entrance:kerb:height": "0.5", "entrance:step_count": "3", "entrance:width": "0.78", "name": "Asia Extra", "ramp:wheelchair": "no", "wheelchair:turning_circle": "no"}}, {"type": "node", "id": 12186595947, "lat": 50.8159212, "lon": 4.3991239, "tags": {"amenity": "restaurant", "name": "Tasty"}}, {"type": "node", "id": 12206642525, "lat": 50.8072217, "lon": 4.3920744, "tags": {"amenity": "restaurant", "contact:website": "https://www.boisdelacambre.be/index.php/le-restaurant", "cuisine": "french", "name": "Restaurant Tennis Club du Bois de la Cambre"}}, {"type": "node", "id": 12224005969, "lat": 50.8329532, "lon": 4.3567824, "tags": {"amenity": "restaurant", "contact:website": "https://www.frank.brussels/", "name": "Frank St\u00e9phanie"}}, {"type": "node", "id": 12271484640, "lat": 50.8262605, "lon": 4.3546282, "tags": {"amenity": "restaurant", "contact:instagram": "https://www.instagram.com/seedbaracouscous", "cuisine": "tunisian", "full_name": "Seed Bar \u00e0 Couscous", "name": "Seed", "opening_hours": "Mo-Fr 11:30-15:00", "takeaway": "yes"}}, {"type": "node", "id": 12292784001, "lat": 50.835825, "lon": 4.363919, "tags": {"amenity": "restaurant", "contact:mobile": "+32 483 08 01 07", "cuisine": "chinese", "name": "Yangguofu Malatang", "name:zh-Latn-pinyin": "\u6768\u56fd\u798f\u9ebb\u8fa3\u70eb", "opening_hours": "Tu-Fr 11:30-14:30,18:00-21:30; Sa-Su 11:30-21:30", "self_service": "only"}}, {"type": "node", "id": 12309549642, "lat": 50.8117012, "lon": 4.3572662, "tags": {"amenity": "restaurant", "name": "Le Pilea", "website": "https://lepilea.be"}}, {"type": "node", "id": 12362346405, "lat": 50.8222422, "lon": 4.3545582, "tags": {"amenity": "restaurant", "cuisine": "french;mediterranean", "name": "Moro"}}, {"type": "node", "id": 12484239272, "lat": 50.807454, "lon": 4.3843706, "tags": {"amenity": "restaurant", "contact:mobile": "+32 476 81 17 70", "contact:website": "https://refoodgees.eu/", "cuisine": "syrian", "name": "Refoodgees Villa Empain", "opening_hours": "We-Su 11:30-17:30"}}, {"type": "node", "id": 12558789532, "lat": 50.832722, "lon": 4.3636837, "tags": {"amenity": "restaurant", "contact:phone": "+32 2 503 01 80", "cuisine": "italian", "indoor_seating": "yes", "name": "L'Angolo", "outdoor_seating": "no", "wheelchair": "no"}}, {"type": "node", "id": 12558834783, "lat": 50.8357788, "lon": 4.3665205, "tags": {"amenity": "restaurant", "cuisine": "african", "indoor_seating": "yes", "name": "thieyp", "opening_hours": "Mo-Fr 12:00-14:30,18:00-22:00", "outdoor_seating": "no"}}, {"type": "node", "id": 12558864301, "lat": 50.8354094, "lon": 4.3663902, "tags": {"air_conditioning": "yes", "amenity": "restaurant", "contact:instagram": "zouzoubrussels", "contact:mobile": "+32 472 10 21 28", "contact:website": "https://zouzoubrussels.be/", "cuisine": "brunch;burger", "drink:beer": "no", "indoor_seating": "yes", "name": "ZouZou", "opening_hours": "Mo-Su 10:00-18:00", "outdoor_seating": "veranda", "payment:credit_cards": "yes", "payment:debit_cards": "yes", "pets": "yes", "takeaway": "yes", "website:menu": "https://drive.google.com/file/d/1P0wCz39nDpML9iCkrG2_zUV-3Gj3hNtt/view"}}, {"type": "node", "id": 12558877187, "lat": 50.8358951, "lon": 4.3654846, "tags": {"amenity": "restaurant", "indoor_seating": "yes", "name": "l'Archipel", "outdoor_seating": "no"}}, {"type": "node", "id": 12558889360, "lat": 50.836163, "lon": 4.365591, "tags": {"amenity": "restaurant", "name": "Django's"}}, {"type": "node", "id": 12568927406, "lat": 50.8191871, "lon": 4.3697108, "tags": {"amenity": "restaurant", "contact:phone": "+32 2 318 18 58", "contact:website": "https://www.lavillaemily.be/", "name": "La Villa Emily", "opening_hours": "Tu-Fr 12:00-14:00,19:00-22:00; Sa 19:00-22:00", "wikidata": "Q66381148", "wikipedia": "fr:La Villa Emily"}}, {"type": "node", "id": 12610630257, "lat": 50.8064974, "lon": 4.3875098, "tags": {"amenity": "restaurant", "cuisine": "lebanese", "level": "0", "name": "Excellence Ixelles", "opening_hours": "Mo-Tu 11:00-21:00, We 11:00-19:30, Th-Fr 11:00-21:00, Sa 12:00-21:00, Su 11:30-17:00", "outdoor_seating": "no", "takeaway": "yes", "wheelchair": "no"}}, {"type": "node", "id": 12610669839, "lat": 50.807452, "lon": 4.3922113, "tags": {"amenity": "restaurant", "name": "So'Square", "opening_hours": "Mo-Fr 12:00-18:00", "opening_hours:kitchen": "Mo-Fr 12:00-15:00"}}, {"type": "node", "id": 12792321896, "lat": 50.8276377, "lon": 4.3591675, "tags": {"amenity": "restaurant", "contact:instagram": "https://www.instagram.com/kartouche_bistrot", "name": "Kartouche"}}, {"type": "node", "id": 12924826110, "lat": 50.8313152, "lon": 4.3603449, "tags": {"amenity": "restaurant", "contact:website": "https://samourai-bruxelles.com/", "cuisine": "japanese", "name": "Samourai", "opening_hours": "Su,Mo off; Tu-Sa 12:00-14:00,19:00-21:30"}}, {"type": "node", "id": 12926451892, "lat": 50.839855, "lon": 4.3739154, "tags": {"amenity": "restaurant", "name": "Chaba Thai"}}, {"type": "node", "id": 13006913165, "lat": 50.8203682, "lon": 4.3696611, "tags": {"amenity": "restaurant", "bar": "yes", "name": "The Avenue"}}, {"type": "node", "id": 13007200519, "lat": 50.8229637, "lon": 4.3602097, "tags": {"amenity": "restaurant", "name": "Fico"}}, {"type": "node", "id": 13009736248, "lat": 50.8239414, "lon": 4.3592657, "tags": {"amenity": "restaurant"}}, {"type": "node", "id": 13009740467, "lat": 50.823149, "lon": 4.3589606, "tags": {"amenity": "restaurant", "contact:email": "info@damamma.be", "contact:phone": "+32 2 681 16 28", "contact:website": "https://www.damamma.be/", "cuisine": "italian", "name": "Da Mamma", "opening_hours": "Mo 12:00-14:30; Tu-Sa 12:00-14:30,18:30-22:30"}}, {"type": "node", "id": 13009741522, "lat": 50.8234302, "lon": 4.3589976, "tags": {"amenity": "restaurant", "name": "El Vasco"}}, {"type": "node", "id": 13009745816, "lat": 50.823946, "lon": 4.3595858, "tags": {"amenity": "restaurant", "cuisine": "japanese", "name": "R\u00e2le-Bol"}}, {"type": "node", "id": 13018949598, "lat": 50.8202805, "lon": 4.3856279, "tags": {"amenity": "restaurant", "name": "Umi no Sachi"}}, {"type": "node", "id": 13034262781, "lat": 50.8268081, "lon": 4.3628539, "tags": {"amenity": "restaurant", "check_date": "2026-01-30", "cuisine": "sushi", "name": "Roru"}}, {"type": "node", "id": 13283290839, "lat": 50.8133495, "lon": 4.3818118, "tags": {"amenity": "restaurant", "contact:website": "https://www.ulb.be/fr/vie-sur-les-campus/alimentation-commerces-et-marches", "cuisine": "regional", "name": "Chez Th\u00e8o", "opening_hours": "Mo-Fr 11:30-14:15"}}, {"type": "node", "id": 13291360522, "lat": 50.8364549, "lon": 4.3673832, "tags": {"amenity": "restaurant", "check_date": "2025-11-09", "contact:facebook": "chckntikka", "contact:mobile": "+32 484 59 22 21", "cuisine": "indian", "name": "Shezan", "opening_hours": "Tu-Su 12:00-15:00,18:00-23:00"}}, {"type": "node", "id": 13389576615, "lat": 50.8369469, "lon": 4.3795354, "tags": {"amenity": "restaurant", "contact:housenumber": "17", "contact:mobile": "+32 499 47 49 17", "contact:street": "Avenue du Maelbeek - Maalbeeklaan", "contact:website": "https://giua-pizzerie.com/", "cuisine": "pizza", "name": "Giu\u00e1", "opening_hours": "Mo off; Tu-Fr 12:00-14:30,18:30-22:00; Sa,Su 18:00-22:00; PH off"}}, {"type": "node", "id": 13418547798, "lat": 50.8361197, "lon": 4.3680156, "tags": {"amenity": "restaurant"}}, {"type": "node", "id": 13473395006, "lat": 50.8156658, "lon": 4.3716957, "tags": {"air_conditioning": "yes", "amenity": "restaurant", "bar": "yes", "branch": "Bruxelles Legrand", "brand": "HUGGYS", "changing_table": "yes", "contact:email": "h6@huggys.be", "contact:phone": "+32 2 344 87 95", "contact:website": "https://www.huggys.be/restaurants/bruxelles-1-legrand", "cuisine": "burger", "delivery": "yes", "diet:chicken": "yes", "diet:fish": "yes", "diet:gluten_free": "yes", "diet:halal": "yes", "diet:local": "yes", "diet:meat": "yes", "diet:vegan": "yes", "diet:vegetarian": "yes", "highchair": "yes", "name": "Huggys Bruxelles Legrand", "opening_hours": "Mo-Su 12:00-22:00", "outdoor_seating": "yes", "payment:cards": "yes", "payment:cash": "yes", "payment:contactless": "yes", "payment:credit_cards": "yes", "payment:debit_cards": "yes", "payment:maestro": "yes", "payment:mastercard": "yes", "payment:visa": "yes", "reservation": "recommended", "stroller": "yes", "takeaway": "yes", "toilets": "yes", "website:menu": "https://www.huggys.be/menus/menu-bx", "wheelchair": "yes"}}, {"type": "node", "id": 13473963149, "lat": 50.8088744, "lon": 4.3866989, "tags": {"amenity": "restaurant", "contact:phone": "+32 2 850 46 41", "contact:website": "https://dalelo.be/", "cuisine": "pizza", "delivery": "yes", "name": "Pizza Pasta Da Lelo", "opening_hours": "Mo-Fr 11:30-14:30,17:30-22:30; Sa,Su 17:30-22:30", "takeaway": "only", "wheelchair": "yes"}}, {"type": "node", "id": 13482755744, "lat": 50.811907, "lon": 4.3927051, "tags": {"amenity": "restaurant", "contact:phone": "+32 2 527 24 95", "contact:website": "https://pizza-pulcinella.com/", "cuisine": "pizza", "name": "Pulcinella", "opening_hours": "Mo-Su 11:30-23:00"}}, {"type": "node", "id": 13517921858, "lat": 50.8311347, "lon": 4.3604268, "tags": {"amenity": "restaurant", "contact:instagram": "https://www.instagram.com/mimirestaurant106", "contact:website": "https://mimirestaurant.be", "cuisine": "italian", "name": "Mimi"}}]}