{"version": 0.6, "generator": "Overpass API 0.7.62.10 2d4cfc48", "osm3s": {"timestamp_osm_base": "2026-02-03T08:42:30Z", "copyright": "The data included in this document is from www.openstreetmap.org. The data is made available under ODbL."}, "elements": [{"type": "node", "id": 518678928, "lat": 50.8318842, "lon": 4.3445572, "tags": {"amenity": "cafe", "contact:email": "info@nomad-community.be", "contact:website": "https://www.nomad-community.be/", "internet_access": "wlan", "name": "Nomad Community", "opening_hours": "Mo-Fr 09:00-18:00; Sa 10:00-18:00"}}, {"type": "node", "id": 4973897088, "lat": 50.8372787, "lon": 4.3405709, "tags": {"amenity": "cafe", "name": "Caf\u00e9 Midi"}}, {"type": "node", "id": 5691531519, "lat": 50.8324138, "lon": 4.3454356, "tags": {"amenity": "cafe", "check_date": "2025-08-12", "name": "Bj caf\u00e9"}}, {"type": "node", "id": 6137720604, "lat": 50.8352345, "lon": 4.3381677, "tags": {"amenity": "cafe", "changing_table": "no", "changing_table:adult": "no", "check_date": "2026-02-01", "comment": "geen toegankelijk toilet", "diet:vegetarian": "no", "entrance:kerb:height": "0.02", "entrance:step_count": "1", "entrance:width": "0.86", "indoor_seating": "yes", "name": "Sas Caf\u00e9", "outdoor_seating": "yes", "ramp:wheelchair": "no", "wheelchair": "limited", "wheelchair:turning_circle": "no"}}, {"type": "node", "id": 6815948717, "lat": 50.8302055, "lon": 4.3443745, "tags": {"amenity": "cafe", "check_date": "2025-02-12", "indoor_seating": "yes", "name": "La Bierco", "outdoor_seating": "yes"}}, {"type": "node", "id": 6815951938, "lat": 50.8307417, "lon": 4.345505, "tags": {"amenity": "cafe", "check_date": "2025-08-05", "indoor_seating": "yes", "name": "Flora", "outdoor_seating": "yes", "website": "https://cafeflora.be"}}, {"type": "node", "id": 7174918160, "lat": 50.831312, "lon": 4.3460366, "tags": {"amenity": "cafe", "contact:email": "robertetmarla@gmail.com", "contact:facebook": "https://www.facebook.com/pardonbrussels", "contact:instagram": "https://www.instagram.com/pardonbrussels", "contact:mobile": "+32 479 16 40 17", "contact:website": "https://www.pardonbrussels.com", "cuisine": "coffee_shop;waffle", "diet:vegan": "yes", "diet:vegetarian": "yes", "indoor_seating": "yes", "internet_access": "wlan", "name": "Pardon", "opening_hours": "Mo-Su 10:30-17:30; PH closed", "outdoor_seating": "no", "payment:cash": "yes", "payment:credit_cards": "yes", "payment:debit_cards": "yes", "payment:maestro": "yes", "takeaway": "yes"}}, {"type": "node", "id": 10246337606, "lat": 50.8325851, "lon": 4.3427783, "tags": {"amenity": "cafe", "name": "Le passage"}}, {"type": "node", "id": 10630190726, "lat": 50.8332421, "lon": 4.3400616, "tags": {"amenity": "cafe", "check_date": "2024-08-31", "name": "Caf\u00e9 Fontainas"}}, {"type": "node", "id": 10630190727, "lat": 50.8347516, "lon": 4.3389375, "tags": {"amenity": "cafe", "indoor_seating": "yes", "name": "Quartier G\u00e9n\u00e9ral Chez Fifi", "outdoor_seating": "yes"}}, {"type": "node", "id": 10872164148, "lat": 50.8300441, "lon": 4.3390792, "tags": {"amenity": "cafe", "name": "Au Vieux Chemin"}}, {"type": "node", "id": 10872164149, "lat": 50.8308422, "lon": 4.3383215, "tags": {"amenity": "cafe", "entrance:kerb:height": "0.1", "entrance:step_count": "1", "entrance:width": "1.1", "indoor_seating": "yes", "name": "Caf\u00e9 Bethleem", "outdoor_seating": "yes", "toilets:access": "yes"}}, {"type": "node", "id": 10872164150, "lat": 50.8308619, "lon": 4.3384382, "tags": {"amenity": "cafe", "entrance:kerb:height": "0.15", "entrance:step_count": "1", "indoor_seating": "yes", "name": "Bylis Cafe", "outdoor_seating": "yes", "toilets:wheelchair": "no", "wheelchair:turning_circle": "yes"}}, {"type": "node", "id": 10872164152, "lat": 50.8309123, "lon": 4.3386656, "tags": {"amenity": "cafe", "check_date": "2023-10-03", "indoor_seating": "yes", "internet_access": "no", "name": "Caf\u00e9 R\u00e9gua", "outdoor_seating": "yes", "smoking": "outside"}}, {"type": "node", "id": 10872164153, "lat": 50.83089, "lon": 4.3385887, "tags": {"amenity": "cafe", "name": "Cafe Balux", "outdoor_seating": "yes"}}, {"type": "node", "id": 11563981259, "lat": 50.8315062, "lon": 4.3366542, "tags": {"amenity": "cafe", "cuisine": "gyros;greek", "name": "Kozani", "phone": "+32 2 850 04 22"}}, {"type": "node", "id": 13236025238, "lat": 50.8370766, "lon": 4.3403652, "tags": {"amenity": "cafe", "check_date": "2025-10-16", "name": "Caf\u00e9 de l'Argonne"}}]}