{"version": 0.6, "generator": "Overpass API 0.7.62.10 2d4cfc48", "osm3s": {"timestamp_osm_base": "2026-02-03T11:53:15Z", "copyright": "The data included in this document is from www.openstreetmap.org. The data is made available under ODbL."}, "elements": [{"type": "node", "id": 866333004, "lat": 50.8752174, "lon": 4.3296063, "tags": {"amenity": "restaurant", "contact:email": "stephanpeemans@gmail.com", "contact:facebook": "https://www.facebook.com/RestaurantPatagaf/", "contact:phone": "+32 2 426 90 93", "contact:website": "https://restaurant-patagaf-jette.be/", "cuisine": "french", "name": "Patagaf", "opening_hours": "Mo-Th 18:30-22:30; Fr-Sa 18:30-23:00", "wheelchair": "limited"}}, {"type": "node", "id": 867597685, "lat": 50.8740206, "lon": 4.3231949, "tags": {"amenity": "restaurant", "capacity": "45", "contact:facebook": "https://www.facebook.com/pages/category/Italian-Restaurant/Ristorante-la-penisola-201742084045068/", "contact:phone": "+32 2 426 14 05", "cuisine": "italian", "name": "La Penisola", "opening_hours": "Tu-Su 12:00-15:00, 18:00-23:00", "outdoor_seating": "street", "takeaway": "yes"}}, {"type": "node", "id": 2323720718, "lat": 50.8728361, "lon": 4.3236816, "tags": {"amenity": "restaurant", "contact:phone": "+32 2 203 17 68", "name": "Peppermint Park", "opening_hours": "Mo-Su 09:00-22:30", "toilets:wheelchair": "no", "wheelchair": "limited"}}, {"type": "node", "id": 2324639470, "lat": 50.8730656, "lon": 4.3247473, "tags": {"amenity": "restaurant", "name": "Il Cappuccino", "wheelchair": "limited"}}, {"type": "node", "id": 2329200784, "lat": 50.8769681, "lon": 4.3266331, "tags": {"amenity": "restaurant", "contact:phone": "+32 2 427 41 58", "contact:website": "https://www.ninjarestaurant.be/", "cuisine": "japanese", "delivery": "yes", "name": "Ninja Restaurant"}}, {"type": "node", "id": 2329221572, "lat": 50.8771224, "lon": 4.3261201, "tags": {"amenity": "restaurant", "contact:phone": "+32 2 426 72 34", "contact:website": "https://lecentral-jette.be/", "cuisine": "bistro", "name": "Le Central", "opening_hours": "Su-Mo 12:00-15:00,18:00-23:00", "toilets:wheelchair": "no", "wheelchair": "limited"}}, {"type": "node", "id": 4220692989, "lat": 50.8729252, "lon": 4.3269783, "tags": {"amenity": "restaurant", "contact:email": "info@restaurantfrenchkiss.com", "contact:phone": "+32 2 425 22 93", "contact:website": "https://www.restaurantfrenchkiss.com/", "cuisine": "french", "name": "French Kiss", "opening_hours": "Tu-Su 12:00-14:30,18:30-22:00; Fr 12:00-14:30,18:30-22:30"}}, {"type": "node", "id": 4515079790, "lat": 50.8723253, "lon": 4.3241377, "tags": {"amenity": "restaurant", "contact:email": "info@wineinthecity.be", "contact:phone": "+32 2 420 09 20", "contact:website": "https://www.wineinthecity.be/", "name": "Wine in the City", "stars": "1", "wikidata": "Q86680204"}}, {"type": "node", "id": 4607599756, "lat": 50.8795151, "lon": 4.3294136, "tags": {"amenity": "restaurant", "contact:email": "contact@yerevan-restaurant.be", "contact:website": "https://yerevan-restaurant.be/", "cuisine": "armenian", "name": "Yerevan"}}, {"type": "node", "id": 4607599758, "lat": 50.8797273, "lon": 4.3294881, "tags": {"amenity": "restaurant", "contact:phone": "+32 2 427 89 73", "cuisine": "chinese", "name": "Mei Wei Cheng", "takeaway": "yes"}}, {"type": "node", "id": 4607599761, "lat": 50.8801282, "lon": 4.3293867, "tags": {"amenity": "restaurant", "contact:email": "jette@schievelavabo.com", "contact:facebook": "https://www.facebook.com/schievelavabojette/", "contact:phone": "+32 2 311 81 49", "contact:website": "https://schievelavabo.com/restaurants/jette", "cuisine": "belgian", "delivery": "yes", "name": "Schievelavabo", "opening_hours": "12:00-14:00,18:30-23:00; Sa 18:30-23:00", "outdoor_seating": "yes", "takeaway": "yes", "wheelchair": "no"}}, {"type": "node", "id": 4607600370, "lat": 50.8768564, "lon": 4.328358, "tags": {"amenity": "restaurant", "contact:phone": "+32 2 427 88 85", "contact:website": "https://www.chez-yu-jin.be/", "cuisine": "chinese", "name": "Chez Yu Jin", "opening_hours": "Tu-Su 17:30-21:00", "takeaway": "yes"}}, {"type": "node", "id": 4607614930, "lat": 50.8764008, "lon": 4.3280373, "tags": {"amenity": "restaurant", "contact:facebook": "https://www.facebook.com/people/La-Conca-doro-jette/100063519492884/", "contact:phone": "+32 2 428 35 64", "contact:website": "https://www.concadoro.be", "cuisine": "italian", "delivery": "yes", "name": "La Conca d'Oro", "opening_hours": "Mo-Sa 12:00-14:30,18:30-23:00", "takeaway": "yes"}}, {"type": "node", "id": 4607673828, "lat": 50.8738363, "lon": 4.3260204, "tags": {"amenity": "restaurant", "contact:email": "zhiyongc58@gmail.com", "contact:mobile": "+32 484 91 40 47", "contact:phone": "+32 2 597 51 29", "contact:website": "https://www.sushi-tokyo.be/", "cuisine": "sushi", "name": "Sushi Tokyo", "opening_hours": "Mo 18:00-21:15; Tu-Fr 11:30-14:00,18:00-21:15; Sa,Su 18:00-21:30"}}, {"type": "node", "id": 4929638524, "lat": 50.8805847, "lon": 4.329749, "tags": {"amenity": "restaurant", "contact:facebook": "https://www.facebook.com/people/Tour-du-Monde/100059758875939/", "contact:phone": "+32 2 426 02 00", "contact:website": "https://tourdumondejette.be/", "cuisine": "international", "name": "Tour Du Monde", "opening_hours": "12:00-15:00,18:00-22:00; Tu off; Sa 18:00-22:00", "outdoor_seating": "yes", "wheelchair": "no"}}, {"type": "node", "id": 6417809455, "lat": 50.8741092, "lon": 4.323016, "tags": {"amenity": "restaurant", "contact:instagram": "1090braceria", "contact:mobile": "+32 480 61 84 98", "contact:phone": "+32 2 449 59 96", "cuisine": "steak_house", "name": "Braceria 1090", "opening_hours": "Su, We-Th 18:30-23:00; Fr-Sa 18:30-23:30"}}, {"type": "node", "id": 6419337932, "lat": 50.8722888, "lon": 4.3256943, "tags": {"amenity": "restaurant", "check_date:opening_hours": "2023-04-09", "contact:mobile": "+32 469 16 85 33", "contact:website": "https://www.bruxellessteakhouse.com/", "name": "BXL Steakhouse", "opening_hours:signed": "no", "start_date": "2023-02-10", "was:name": "Bun's Restaurant"}}, {"type": "node", "id": 6447361856, "lat": 50.8732167, "lon": 4.3288273, "tags": {"amenity": "restaurant", "brand": "Pizza Hut", "brand:wikidata": "Q191615", "brand:wikipedia": "en:Pizza Hut", "cuisine": "pizza", "name": "Pizza Hut"}}, {"type": "node", "id": 9646081199, "lat": 50.8723852, "lon": 4.3243649, "tags": {"amenity": "restaurant", "contact:mobile": "+32 468 47 77 81", "name": "O'Tweat", "opening_hours": "Mo-Th 08:30-21:30; Fr 15:00-22:30; Sa 09:00-22:30; Su 09:00-21:00", "website:menu": "https://drive.google.com/file/d/1TDKPj8C0VoJHt9MDsuxwglQohxU0pahe/view"}}, {"type": "node", "id": 9646081211, "lat": 50.8736416, "lon": 4.3253478, "tags": {"amenity": "restaurant", "contact:email": "snack.castello@gmail.com", "contact:mobile": "+32 499 91 01 55", "contact:phone": "+32 2 681 15 49", "contact:website": "https://www.pizza-castello.be/", "cuisine": "pizza", "name": "Castello"}}, {"type": "node", "id": 9672086381, "lat": 50.8721095, "lon": 4.3260278, "tags": {"access": "no", "amenity": "restaurant", "name": "La Grande Terrasse", "opening_hours": "off \"Has been closed for months (info June 2025)\""}}, {"type": "node", "id": 9688363580, "lat": 50.8801378, "lon": 4.3288716, "tags": {"amenity": "restaurant", "contact:email": "barapaot@gmail.com", "contact:facebook": "https://www.facebook.com/Barapaot/", "contact:phone": "+32 2 219 29 96", "name": "Barapaot", "opening_hours": "We-Sa 18:00-23:00; Su 12:00-15:00,18:00-23:00"}}, {"type": "node", "id": 9688387838, "lat": 50.8801388, "lon": 4.3287706, "tags": {"amenity": "restaurant", "contact:facebook": "https://www.facebook.com/LeBreugel", "contact:phone": "+32 2 428 28 30", "contact:website": "https://www.lebreughel.be/", "name": "Le Breughel", "opening_hours": "Mo-Su 10:00-22:30", "outdoor_seating": "yes", "takeaway": "yes"}}, {"type": "node", "id": 9889410313, "lat": 50.8721624, "lon": 4.3239783, "tags": {"amenity": "restaurant", "contact:email": "contact@happytherapy.vip", "contact:facebook": "https://www.facebook.com/happily.brussels/", "contact:mobile": "+32 497 79 58 08", "contact:website": "https://happily.brussels/", "diet:vegetarian": "only", "name": "Happily", "opening_hours": "Tu-Su 08:30-14:30"}}, {"type": "node", "id": 10198025692, "lat": 50.8805428, "lon": 4.3296882, "tags": {"amenity": "restaurant", "contact:facebook": "https://www.facebook.com/people/Les-petits-os/100057626702585/", "contact:phone": "+32 2 427 63 31", "contact:website": "https://www.lespetitsos.be", "name": "Les Petits Os", "opening_hours": "Mo-Sa 18:00-24:00; Su 12:00-15:00,18:00-24:00", "outdoor_seating": "yes", "takeaway": "yes"}}, {"type": "node", "id": 10199218257, "lat": 50.8800292, "lon": 4.3295829, "tags": {"amenity": "restaurant", "contact:phone": "+32 2 420 28 46", "contact:website": "https://www.delicepizzaetpasta.be/", "cuisine": "pizza;pasta;burger;panini", "delivery": "yes", "name": "Pizza D\u00e9lice", "takeaway": "yes"}}, {"type": "node", "id": 10199268960, "lat": 50.8799036, "lon": 4.3293227, "tags": {"amenity": "restaurant", "contact:email": "thecousins.bxl@gmail.com", "contact:facebook": "https://www.facebook.com/people/The-Cousins/100076442674852/", "contact:mobile": "+32 468 45 41 89", "contact:website": "https://www.thecousins-jette.be/", "cuisine": "turkish", "delivery": "yes", "name": "The Cousin's", "opening_hours": "10:00-22:00; Tu off", "takeaway": "yes"}}, {"type": "node", "id": 10746733625, "lat": 50.8779074, "lon": 4.3235352, "tags": {"amenity": "restaurant", "contact:email": "ferme.wilg@gmail.com", "contact:facebook": "https://www.facebook.com/people/La-Ferme-du-Wilg/100067192062209/", "contact:phone": "+32 2 420 56 10", "contact:website": "https://la-ferme-du-wilg.business.site/", "name": "La Ferme du Wilg", "opening_hours": "Tu-Su 12:00-15:00,18:00-23:00", "outdoor_seating": "yes"}}, {"type": "node", "id": 11280011728, "lat": 50.8728919, "lon": 4.3240219, "tags": {"amenity": "restaurant", "cuisine": "sushi", "name": "Sensei"}}, {"type": "node", "id": 11711143162, "lat": 50.8720619, "lon": 4.3240459, "tags": {"amenity": "restaurant", "contact:email": "info@ozashi.be", "contact:facebook": "https://www.facebook.com/people/Ozashibe/61551844501273/", "contact:mobile": "+32 470 80 05 71", "contact:website": "https://ozashi.be/", "name": "Ozashi Sushi Bar", "opening_hours": "Tu-Su 11:30-22:30; Fr,Sa 11:30-23:00"}}, {"type": "node", "id": 12039909134, "lat": 50.8736162, "lon": 4.3258704, "tags": {"amenity": "restaurant", "name": "Nour al Shaam"}}, {"type": "node", "id": 12051076905, "lat": 50.8764291, "lon": 4.3278089, "tags": {"amenity": "restaurant", "cuisine": "moroccan", "name": "Aux D\u00e9lices De Fes"}}, {"type": "node", "id": 12944830548, "lat": 50.8732944, "lon": 4.3232254, "tags": {"amenity": "restaurant", "contact:mobile": "+32 466 58 13 00", "cuisine": "syrian", "name": "Almas Alsham", "opening_hours": "Mo-Sa 12:00-00:00; Tu off; Su 12:00-23:00", "outdoor_seating": "yes"}}, {"type": "node", "id": 12945088838, "lat": 50.8757378, "lon": 4.3196623, "tags": {"amenity": "restaurant", "contact:email": "lapizzeriadeschnus@gmail.com", "contact:facebook": "https://www.facebook.com/leschnus/", "contact:phone": "+32 2 427 24 38", "contact:website": "https://lapizzeriadeschnus.com/", "cuisine": "italian;pizza", "name": "La Pizzeria des Chnus"}}, {"type": "node", "id": 13246215870, "lat": 50.8732403, "lon": 4.3280286, "tags": {"amenity": "restaurant", "name": "Rawabi Al-Yemen", "origin": "yemeni"}}, {"type": "node", "id": 13517203435, "lat": 50.871846, "lon": 4.3245088, "tags": {"amenity": "restaurant", "cuisine": "indian", "name": "Jalebi"}}]}