{"version": 0.6, "generator": "Overpass API 0.7.62.10 2d4cfc48", "osm3s": {"timestamp_osm_base": "2026-02-02T19:14:58Z", "copyright": "The data included in this document is from www.openstreetmap.org. The data is made available under ODbL."}, "elements": [{"type": "node", "id": 234494737, "lat": 50.8240271, "lon": 4.3593328, "tags": {"amenity": "restaurant", "contact:email": "chatelain@mammaroma.be", "contact:phone": "+32 2 544 14 02", "contact:website": "https://www.mammaroma.be/", "cuisine": "pizza", "diet:vegan": "no", "diet:vegetarian": "yes", "name": "Mamma Roma", "opening_hours": "Su-We 12:00-22:00; Th-Sa 12:00-22:30", "operator": "Mamma Roma"}}, {"type": "node", "id": 826830634, "lat": 50.8333185, "lon": 4.3565909, "tags": {"amenity": "restaurant", "diet:vegetarian": "no", "name": "Belgo Nero"}}, {"type": "node", "id": 993030379, "lat": 50.8306047, "lon": 4.3560389, "tags": {"amenity": "restaurant", "contact:website": "http://www.babdar.be/", "cuisine": "moroccan", "diet:vegan": "no", "diet:vegetarian": "yes", "name": "Bab Dar", "opening_hours": "Mo-Fr 12:00-14:30,19:00-22:30; Sa 19:00-22:30", "wheelchair": "no"}}, {"type": "node", "id": 993031209, "lat": 50.8315803, "lon": 4.3563508, "tags": {"air_conditioning": "yes", "amenity": "restaurant", "cuisine": "lebanese", "diet:vegan": "yes", "diet:vegetarian": "yes", "indoor_seating": "yes", "name": "Le Prince", "opening_hours": "Mo-Su 11:00-23:59,00:00-02:00", "outdoor_seating": "yes", "smoking": "outside", "wheelchair": "limited"}}, {"type": "node", "id": 993032378, "lat": 50.831381, "lon": 4.356287, "tags": {"amenity": "restaurant", "diet:vegan": "yes", "diet:vegetarian": "yes", "name": "Zatar", "wheelchair": "no"}}, {"type": "node", "id": 1138938717, "lat": 50.8302393, "lon": 4.3589244, "tags": {"amenity": "restaurant", "contact:fax": "+32 2 538 23 78", "contact:phone": "+32 2 537 71 31", "cuisine": "lebanese", "name": "Mont Liban", "name:en": "Mount Leban", "opening_hours:signed": "no", "url": "http://www.montliban.be/"}}, {"type": "node", "id": 1138950172, "lat": 50.8294218, "lon": 4.359377, "tags": {"amenity": "restaurant", "check_date": "2025-09-29", "contact:email": "info@frasca.be", "contact:phone": "+32 2 735 50 65", "contact:website": "https://www.frasca.be/", "cuisine": "italian", "name": "Frasca", "opening_hours": "We-Sa 10:00-22:00", "start_date": "2021-10-07", "takeaway": "yes", "was:amenity": "fast_food", "was:cuisine": "mexican", "was:name": "couscous bourricot"}}, {"type": "node", "id": 1631412982, "lat": 50.8234525, "lon": 4.3586923, "tags": {"amenity": "restaurant", "contact:email": "info@nuevabuenosaires.be", "contact:phone": "+32 2 201 08 80", "contact:website": "https://www.nuevabuenosaires.be/", "cuisine": "argentinian", "name": "Nueva Buenos Aires", "opening_hours": "Mo-Th 18:30-23:30; Fr 18:30-00:30; Sa 12:00-14:30,18:30-00:30", "wheelchair": "limited"}}, {"type": "node", "id": 2338614351, "lat": 50.8230725, "lon": 4.3582685, "tags": {"amenity": "restaurant", "name": "Vall\u00e9e du Kashmir", "was:contact:website": "http://www.valleedukashmir.be/"}}, {"type": "node", "id": 2364551571, "lat": 50.8234947, "lon": 4.3634013, "tags": {"amenity": "restaurant", "contact:email": "brussels@la-luck.com", "contact:mobile": "+32 476 17 45 28", "contact:website": "https://la-luck.com/", "name": "La Luck"}}, {"type": "node", "id": 2466682759, "lat": 50.823099, "lon": 4.367099, "tags": {"amenity": "restaurant", "cuisine": "asian", "name": "Phopho", "opening_hours": "Mo-Th 11:30-14:00,19:00-22:00, Fr,Sa 12:00-15:00,19:00-23:00", "website": "http://phopho.be/", "wheelchair": "no"}}, {"type": "node", "id": 2466932804, "lat": 50.8284439, "lon": 4.3603968, "tags": {"amenity": "restaurant", "cuisine": "pizza", "name": "Le XIX \u00e8me", "opening_hours": "Mo-Fr 10:00-24:00", "opening_hours:signed": "no", "wifi": "no"}}, {"type": "node", "id": 3321089465, "lat": 50.8245392, "lon": 4.3661905, "tags": {"amenity": "restaurant", "contact:website": "https://maisondistrie.be/", "cuisine": "mediterranean", "name": "Maison d'Istrie", "opening_hours": "Mo-Th 11:30-23:00; Fr 11:30-24:00; Sa 12:00-24:00", "outdoor_seating": "yes"}}, {"type": "node", "id": 4005545293, "lat": 50.8268818, "lon": 4.3571214, "tags": {"amenity": "restaurant", "check_date": "2024-08-28", "cuisine": "japanese", "name": "Sushi Roku", "opening_hours": "Mo-Su 11:00-23:30"}}, {"type": "node", "id": 4005546408, "lat": 50.8268849, "lon": 4.3578388, "tags": {"amenity": "restaurant", "check_date": "2024-08-28", "cuisine": "japanese", "name": "Sakura"}}, {"type": "node", "id": 4005591938, "lat": 50.8275335, "lon": 4.3589636, "tags": {"amenity": "restaurant", "cuisine": "french", "name": "Le Pavillon", "opening_hours": "Mo-Fr 12:00-15:00,18:00-23:00"}}, {"type": "node", "id": 4249014894, "lat": 50.8229425, "lon": 4.3603535, "tags": {"amenity": "restaurant", "contact:email": "info@saothaicuisine.be", "contact:website": "https://www.saothaicuisine.be/", "cuisine": "thai", "name": "SAO Thai Cuisine", "opening_hours": "Tu-Fr 12:00-14:30,18:00-22:00; Sa 18:00-22:30", "takeaway": "yes"}}, {"type": "node", "id": 4401051193, "lat": 50.8290992, "lon": 4.3592936, "tags": {"amenity": "restaurant", "check_date": "2025-09-29", "contact:phone": "+32 2 537 69 95", "contact:website": "https://www.lechoudebruxelles.be/", "cuisine": "local", "internet_access": "wlan", "name": "Le Chou de Bruxelles", "opening_hours": "Tu-Sa 12:00-14:00, 18:30-22:00"}}, {"type": "node", "id": 4404448189, "lat": 50.8317094, "lon": 4.356392, "tags": {"amenity": "restaurant", "contact:phone": "+32 2 538 22 39", "contact:website": "https://www.mafolledesoeur.be/", "cuisine": "french", "name": "Ma Folle De Soeur", "name:fr": "Ma Folle De Soeur", "opening_hours": "Mo-Sa 12:00-14:30,18:30-22:30"}}, {"type": "node", "id": 4426245881, "lat": 50.8254014, "lon": 4.3551417, "tags": {"amenity": "restaurant", "contact:instagram": "https://www.instagram.com/mushu.brussels", "cuisine": "japanese", "name": "Mushu"}}, {"type": "node", "id": 4438541893, "lat": 50.8228515, "lon": 4.366914, "tags": {"amenity": "restaurant", "contact:email": "info@leverest.be", "contact:phone": "+32 2 647 57 77", "contact:website": "https://leverest.be/", "description": "Nepalese and indian cuisine.", "name": "L'Everest", "name:fr": "L'Everest", "opening_hours": "Mo-Sa 18:00-22:30"}}, {"type": "node", "id": 4665152946, "lat": 50.8219334, "lon": 4.3668765, "tags": {"amenity": "restaurant", "contact:instagram": "mauvaischoix_restaurant", "contact:website": "https://mauvaischoix.be/", "diet:vegetarian": "only", "name": "Mauvais Choix"}}, {"type": "node", "id": 4665152947, "lat": 50.8221556, "lon": 4.3669305, "tags": {"amenity": "restaurant", "cuisine": "vietnamese", "name": "Le Tournesol", "opening_hours": "Mo-Fr 11:00-16:00", "source": "survey"}}, {"type": "node", "id": 4904866144, "lat": 50.8314147, "lon": 4.3560197, "tags": {"amenity": "restaurant", "cuisine": "african", "email": "seydiniang71@gmail.com", "name": "Le Doux Lounge", "self_service": "no", "website": "https://www.douxlounge.be/"}}, {"type": "node", "id": 5046613063, "lat": 50.8254454, "lon": 4.3583595, "tags": {"amenity": "restaurant", "check_date": "2024-08-28", "cuisine": "chinese;asian", "delivery": "yes", "indoor_seating": "yes", "name": "Dam Sum", "opening_hours": "Tu-Su 18:30-22:00", "outdoor_seating": "yes", "takeaway": "yes", "url": "https://www.brusselskitchen.com/dam-sum/bruxelles/restaurant?lang=en"}}, {"type": "node", "id": 5206653306, "lat": 50.8321714, "lon": 4.3565397, "tags": {"amenity": "restaurant", "contact:mobile": "+32 491 25 53 25", "contact:website": "https://www.sushiavenue.be/", "cuisine": "sushi", "name": "Sushi Avenue"}}, {"type": "node", "id": 5253920927, "lat": 50.8241047, "lon": 4.3588538, "tags": {"amenity": "restaurant", "contact:phone": "+32 2 537 87 87", "contact:website": "https://tanclub.org/", "name": "TAN"}}, {"type": "node", "id": 5340841321, "lat": 50.8271287, "lon": 4.3629712, "tags": {"amenity": "restaurant", "check_date": "2025-07-29", "contact:phone": "+32 2 640 45 50", "contact:website": "https://www.makisu.be/", "name": "Makisu", "opening_hours": "Mo-Su,PH 12:00-22:00", "toilets:wheelchair": "no", "wheelchair": "no"}}, {"type": "node", "id": 5478051471, "lat": 50.8293752, "lon": 4.362219, "tags": {"amenity": "restaurant", "name": "JeanBon", "opening_hours": "Mo-Fr 08:30-16:30; Sa 09:30-16:00"}}, {"type": "node", "id": 5567348794, "lat": 50.8341429, "lon": 4.3559073, "tags": {"amenity": "restaurant", "contact:phone": "+32 2 534 25 02", "contact:website": "https://www.mamylouise.be/", "indoor_seating": "yes", "name": "Mamy Louise Goulet Louise", "opening_hours": "Mo, Tu, Sa 10:00-18:00; We-Fr 10:00-22:00", "outdoor_seating": "yes"}}, {"type": "node", "id": 5688864736, "lat": 50.8277572, "lon": 4.363885, "tags": {"amenity": "restaurant", "name": "Rouge tomate", "opening_hours": "Mo-Fr 12:00-14:30; Sa 19:00-22:30"}}, {"type": "node", "id": 5801705141, "lat": 50.8239961, "lon": 4.3592982, "tags": {"amenity": "restaurant", "cuisine": "european", "name": "Lou"}}, {"type": "node", "id": 5801705143, "lat": 50.8235656, "lon": 4.3588183, "tags": {"amenity": "restaurant", "contact:website": "https://lasagnatiramisu.com/", "cuisine": "italian", "name": "Lasagna Tiramisu"}}, {"type": "node", "id": 5801705146, "lat": 50.8239942, "lon": 4.3596671, "tags": {"amenity": "restaurant", "check_date": "2024-08-28", "cuisine": "italian", "name": "La Piola"}}, {"type": "node", "id": 6060218217, "lat": 50.8279152, "lon": 4.3627033, "tags": {"alt_name": "65 degr\u00e9s", "amenity": "restaurant", "name": "65degr\u00e9s", "website": "https://www.65degres.be"}}, {"type": "node", "id": 6122930912, "lat": 50.8347691, "lon": 4.3553903, "tags": {"amenity": "restaurant", "cuisine": "japanese", "name": "Pok\u00e9 House", "opening_hours": "Mo-Fr 11:30-21:30; Sa 12:00-21:30; Mo 18:00-21:30", "outdoor_seating": "yes", "wheelchair": "no"}}, {"type": "node", "id": 6222640488, "lat": 50.8252165, "lon": 4.360543, "tags": {"amenity": "restaurant", "check_date": "2024-08-28", "contact:phone": "+32 2 850 69 99", "contact:website": "https://chatelaineduliban.be", "cuisine": "arab", "name": "La Ch\u00e2telaine du Liban"}}, {"type": "node", "id": 6245160334, "lat": 50.8297882, "lon": 4.3561306, "tags": {"amenity": "restaurant", "check_date": "2025-02-24", "check_date:opening_hours": "2025-02-24", "contact:phone": "+32 2 850 87 13", "contact:website": "https://www.donki.be/", "cuisine": "mexican", "diet:vegan": "yes", "diet:vegetarian": "yes", "indoor_seating": "yes", "name": "Donki", "name:de": "Donki Louise", "opening_hours": "Mo-Su 11:30-21:30", "outdoor_seating": "yes", "payment:cash": "no"}}, {"type": "node", "id": 6245523385, "lat": 50.8339186, "lon": 4.3553826, "tags": {"amenity": "restaurant", "indoor_seating": "yes", "name": "Colonel", "outdoor_seating": "yes"}}, {"type": "node", "id": 6267007741, "lat": 50.8275825, "lon": 4.3554255, "tags": {"amenity": "restaurant", "name": "Mojo lounge"}}, {"type": "node", "id": 6377569696, "lat": 50.8283721, "lon": 4.3608075, "tags": {"amenity": "restaurant", "contact:website": "https://www.jacqstoastery.com/", "cuisine": "sandwich;coffee;pastry", "description": "Toastery that prepares grilled american sandwitches", "drink:beer": "no", "indoor_seating": "yes", "name": "Jacq's Toastery", "opening_hours": "Mo-Fr 08:00-16:00; Sa 09:00-18:00; Su 10:00-17:00; PH closed", "outdoor_seating": "sidewalk", "takeaway": "yes", "wheelchair": "no"}}, {"type": "node", "id": 6557948385, "lat": 50.8346402, "lon": 4.3555358, "tags": {"air_conditioning": "yes", "amenity": "restaurant", "bar": "yes", "branch": "Bruxelles Louise", "brand": "HUGGYS", "changing_table": "yes", "contact:email": "h7@huggys.be", "contact:phone": "+32 2 268 79 36", "contact:website": "https://www.huggys.be/restaurants/bruxelles-2-louise", "cuisine": "burger", "delivery": "yes", "diet:chicken": "yes", "diet:fish": "yes", "diet:gluten_free": "yes", "diet:halal": "yes", "diet:local": "yes", "diet:meat": "yes", "diet:vegan": "yes", "diet:vegetarian": "yes", "highchair": "yes", "indoor_seating": "yes", "name": "Huggys Bruxelles Louise", "opening_hours": "Mo-Su 12:00-22:00", "outdoor_seating": "yes", "payment:cards": "yes", "payment:cash": "yes", "payment:contactless": "yes", "payment:credit_cards": "yes", "payment:debit_cards": "yes", "payment:mastercard": "yes", "payment:visa": "yes", "reservation": "recommended", "smoking": "outside", "takeaway": "yes", "toilets": "yes", "website:menu": "https://www.huggys.be/menus/nouveau-menu-bx", "wheelchair": "no"}}, {"type": "node", "id": 6691305334, "lat": 50.8324435, "lon": 4.3566267, "tags": {"amenity": "restaurant", "cuisine": "korean", "name": "Seoul"}}, {"type": "node", "id": 6815837996, "lat": 50.8247474, "lon": 4.357327, "tags": {"amenity": "restaurant", "check_date": "2024-08-28", "description": "Gastro/pub", "name": "Clair/Obscur"}}, {"type": "node", "id": 6815861331, "lat": 50.8250456, "lon": 4.3570333, "tags": {"amenity": "restaurant", "cuisine": "mediterranean", "name": "Couscous At Home"}}, {"type": "node", "id": 6815869046, "lat": 50.8243747, "lon": 4.359281, "tags": {"amenity": "restaurant", "contact:phone": "+32 2 539 32 99", "contact:website": "http://www.unjourapeyrassol.com/bruxelles/", "cuisine": "mediterranean", "name": "Un jour \u00e0 Peyrassol", "opening_hours": "Mo-Sa 12:00-14:30,19:00-22:30; Su 12:00-14:30", "operator": "Un jour \u00e0 Peyrassol", "wheelchair": "limited"}}, {"type": "node", "id": 6975721290, "lat": 50.8322284, "lon": 4.3565579, "tags": {"amenity": "restaurant", "check_date": "2023-12-16", "contact:phone": "+32 2 537 44 47", "contact:website": "https://www.premiercomptoir.be", "cuisine": "thai", "diet:vegan": "yes", "diet:vegetarian": "yes", "name": "Premier Comptoir Thai", "opening_hours": "Mo-Sa 19:00-22:30; Tu -Th 12:00-14:00,19:00-22:30", "wheelchair": "limited"}}, {"type": "node", "id": 7023473449, "lat": 50.826223, "lon": 4.3614514, "tags": {"amenity": "restaurant", "contact:email": "hello@tigermilkgroup.com", "contact:facebook": "https://www.facebook.com/tigermilkrestaurants", "contact:instagram": "https://www.instagram.com/tigermilkrestaurants", "contact:phone": "+32 2 537 37 73", "cuisine": "latin_american", "diet:gluten_free": "yes", "diet:vegetarian": "yes", "name": "Tigermilk", "opening_hours": "Mo-Fr 11:45-14:00, 18:45-22:00; Sa-Su 12:00-14:30, 18:45-22:30", "reservation": "no"}}, {"type": "node", "id": 7179059886, "lat": 50.8224397, "lon": 4.3666523, "tags": {"amenity": "restaurant", "contact:phone": "+32 2 647 88 02", "contact:website": "https://dolcerestaurant.be", "cuisine": "italian", "delivery": "yes", "name": "Dolce", "opening_hours": "Mo-Fr 12:00-14:30, 19:00-22:30; Sa 19:00-22:45", "takeaway": "yes"}}, {"type": "node", "id": 7185348285, "lat": 50.8240817, "lon": 4.3634218, "tags": {"amenity": "restaurant", "contact:phone": "+32 2 649 30 01", "contact:website": "https://laregina.be/", "cuisine": "pizza", "diet:meat": "yes", "diet:vegan": "yes", "diet:vegetarian": "yes", "name": "Pizzeria La Regina", "opening_hours": "We-Fr 11:30-14:30, Tu-Sa 18:00-22:00"}}, {"type": "node", "id": 7194064685, "lat": 50.8254873, "lon": 4.3596124, "tags": {"amenity": "restaurant", "brewery": "Kirin;Uijin", "contact:instagram": "mendo.ixelles", "contact:phone": "+32 2 770 76 66", "cuisine": "japanese;ramen", "indoor_seating": "yes", "name": "Mendo", "opening_hours": "We-Su 12:30-14:30,18:00-22:30", "outdoor_seating": "yes", "was:name": "Ganesh"}}, {"type": "node", "id": 7196938789, "lat": 50.8225194, "lon": 4.3580229, "tags": {"amenity": "restaurant", "name": "L'\u00e9picerie \u2013 Cuisine du March\u00e9", "opening_hours": "Mo-Sa 11:30-15:00"}}, {"type": "node", "id": 7216168185, "lat": 50.8285626, "lon": 4.3630914, "tags": {"amenity": "restaurant", "contact:website": "https://www.manhattns.com/location/avenue-louise", "cuisine": "burger", "diet:vegetarian": "yes", "name": "Manhattn's Burgers", "opening_hours": "Mo-Su 11:30-22:30"}}, {"type": "node", "id": 7254870118, "lat": 50.8279665, "lon": 4.359324, "tags": {"amenity": "restaurant", "contact:email": "restaurantshrimps@gmail.com", "contact:mobile": "+32 490 44 53 67", "contact:website": "https://restaurantshrimps.be/", "delivery": "yes", "name": "Shrimp's Brussels", "opening_hours": "Mo-Sa 12:00-15:00, 18:30-22:00", "takeaway": "yes"}}, {"type": "node", "id": 7638821885, "lat": 50.8232088, "lon": 4.3587914, "tags": {"amenity": "restaurant", "cuisine": "mexican", "name": "V\u00e9rigoud", "opening_hours": "Tu 18:00-22:00; We-Fr 12:00-14:00,18:00-22:00"}}, {"type": "node", "id": 7640820485, "lat": 50.8273509, "lon": 4.3632692, "tags": {"amenity": "restaurant", "check_date": "2026-02-02", "contact:instagram": "https://www.instagram.com/youwok", "contact:twitter": "https://twitter.com/youwok", "contact:website": "https://youwok.be/fr/restaurants/bruxelles-louise/", "cuisine": "noodle;thai;wok", "delivery": "yes", "diet:gluten_free": "yes", "diet:vegetarian": "yes", "full_name": "YouWok Bruxelles Louise", "indoor_seating": "yes", "name": "YouWok", "opening_hours": "Mo-Fr 11:00-22:00; Sa, Su 12:00-22:00", "outdoor_seating": "no", "takeaway": "yes", "wheelchair": "no"}}, {"type": "node", "id": 7687706685, "lat": 50.8262664, "lon": 4.3609474, "tags": {"amenity": "restaurant", "name": "Le Livre Jaune Chez Rachid"}}, {"type": "node", "id": 7725569385, "lat": 50.8223332, "lon": 4.3574444, "tags": {"amenity": "restaurant", "name": "Chez Jacky", "website": "https://chezjackybrussels.com/"}}, {"type": "node", "id": 7825703285, "lat": 50.8265258, "lon": 4.3623664, "tags": {"amenity": "restaurant", "check_date": "2025-07-29", "name": "Knees to Chin"}}, {"type": "node", "id": 7833848685, "lat": 50.8233652, "lon": 4.3589659, "tags": {"amenity": "restaurant", "contact:instagram": "malmo.ixelles", "contact:mobile": "+32 476 07 14 57", "cuisine": "seafood", "name": "Malm\u00f6"}}, {"type": "node", "id": 7865233585, "lat": 50.8234919, "lon": 4.361464, "tags": {"amenity": "restaurant", "contact:phone": "+32 2 647 09 04", "contact:website": "https://tatar-restaurant.be/", "cuisine": "belgian", "description": "bar a tartar", "name": "Tatar", "opening_hours": "Tu-Sa 12:00-15:00,19:00-00:00", "wheelchair": "no"}}, {"type": "node", "id": 7943279487, "lat": 50.8227989, "lon": 4.3601191, "tags": {"amenity": "restaurant", "check_date": "2025-07-17", "cuisine": "pizza", "name": "Al Bacio"}}, {"type": "node", "id": 7959416485, "lat": 50.8267791, "lon": 4.3627666, "tags": {"amenity": "restaurant", "check_date": "2026-01-30", "cuisine": "japanese", "name": "Umamido Bailli", "payment:cash": "no"}}, {"type": "node", "id": 7970582388, "lat": 50.8268302, "lon": 4.3629252, "tags": {"amenity": "restaurant", "cuisine": "italian", "name": "Nona", "opening_hours": "Fr,Sa 12:00-22:00; Su-Th 12:00-21:30", "wheelchair": "no"}}, {"type": "node", "id": 8017428183, "lat": 50.8257512, "lon": 4.3553454, "tags": {"amenity": "restaurant", "check_date": "2024-08-28", "contact:phone": "+32 2 808 25 20", "contact:website": "https://www.thai-sate.be/", "cuisine": "thai", "name": "Tha\u00ef Sat\u00e9"}}, {"type": "node", "id": 8118974586, "lat": 50.8269434, "lon": 4.3548685, "tags": {"amenity": "restaurant", "check_date": "2025-02-20", "contact:website": "https://www.majolie.brussels", "name": "Ma Jolie", "opening_hours:covid19": "closed", "outdoor_seating": "yes"}}, {"type": "node", "id": 8717880376, "lat": 50.8236155, "lon": 4.3611294, "tags": {"amenity": "restaurant", "contact:email": "info@educazionenapoletana.be", "contact:phone": "+32 2 245 15 40", "contact:website": "https://www.educazionenapoletana.be/", "cuisine": "pizza", "name": "Educazione napoletana", "opening_hours": "Mo off; Tu 18:30-22:30; We-Su 12:00-14:30,18:30-22:30; Fr-Sa 12:00-14:30,18:30-23:00"}}, {"type": "node", "id": 8892988084, "lat": 50.831303, "lon": 4.358002, "tags": {"amenity": "restaurant", "contact:instagram": "https://www.instagram.com/eaterskitchens/", "contact:website": "https://www.eaters-louise.com/", "cuisine": "fast_food;asian", "delivery": "yes", "description": "Asian Street Food", "name": "Eaters", "outdoor_seating": "yes"}}, {"type": "node", "id": 8920694534, "lat": 50.8239492, "lon": 4.3571002, "tags": {"amenity": "restaurant", "name": "Baci"}}, {"type": "node", "id": 9237781673, "lat": 50.8228562, "lon": 4.3606182, "tags": {"amenity": "restaurant", "contact:facebook": "https://www.facebook.com/classicolabrasserie/", "contact:instagram": "https://www.instagram.com/CLASSICO_BRASSERIE/", "contact:phone": "+32 2 537 90 39", "contact:website": "https://classico-la-brasserie.com", "level": "0", "name": "Classico La Brasserie", "opening_hours": "Tu-Th 12:00-14:30,19:00-22:30; Fr 12:00-14:30,19:00-23:00; Sa 19:00-23:00"}}, {"type": "node", "id": 9631749174, "lat": 50.8225983, "lon": 4.3581109, "tags": {"amenity": "restaurant", "contact:website": "https://nikolaskoulepis.com/pitasserie/", "cuisine": "greek", "name": "Pitasserie"}}, {"type": "node", "id": 9713094717, "lat": 50.826329, "lon": 4.3618288, "tags": {"amenity": "restaurant", "contact:phone": "+32 2 478 07 13", "contact:website": "https://nyyorestaurant.com/", "cuisine": "vietnamese", "name": "NYY\u00d3", "opening_hours": "Mo-Sa 12:00-14:00, 18:00-22:00"}}, {"type": "node", "id": 10022903519, "lat": 50.8231081, "lon": 4.3590449, "tags": {"amenity": "restaurant", "contact:website": "http://ilovegringo.com/", "cuisine": "mexican", "name": "Gringo"}}, {"type": "node", "id": 10550625011, "lat": 50.8230967, "lon": 4.3591289, "tags": {"amenity": "restaurant", "contact:phone": "+32 2 534 63 30", "contact:website": "https://chezwawa.com/", "cuisine": "mexican", "name": "CHEZWaWa", "opening_hours": "Tu-Sa 12:00-14:30, Tu-Th 17:30-21:00, Su 17:30-21:00; Mo off, Fr,Sa 17:30-21:30"}}, {"type": "node", "id": 10601763362, "lat": 50.8227502, "lon": 4.3667689, "tags": {"amenity": "restaurant", "check_date": "2023-02-02", "contact:phone": "+32 2 726 96 76", "contact:website": "https://sunnybao.be", "cuisine": "asian", "name": "Sunny Bao", "opening_hours": "Mo-Fr 11:00-19:00; Sa 12:00-18:00; Su off", "payment:mastercard": "yes", "payment:visa": "yes"}}, {"type": "node", "id": 10620763931, "lat": 50.8253913, "lon": 4.358846, "tags": {"amenity": "restaurant", "branch": "Ixelles", "contact:website": "https://bavet.eu/", "cuisine": "pasta", "description": "Spaghetti Bar", "indoor_seating": "yes", "name": "Bavet", "opening_hours": "Mo-Su 11:30-14:30, PH,Mo-Su 17:30-22:00", "outdoor_seating": "yes", "payment:cash": "no", "takeaway": "yes"}}, {"type": "node", "id": 10686624243, "lat": 50.8269171, "lon": 4.3552128, "tags": {"amenity": "restaurant", "contact:instagram": "soif_de_faim", "name": "Soif de Faim", "opening_hours": "Mo-Th 10:30-15:30; Fr 19:30-21:30"}}, {"type": "node", "id": 10931921413, "lat": 50.8271069, "lon": 4.3552735, "tags": {"amenity": "restaurant", "contact:email": "info@kaijurestaurant.be", "contact:phone": "+32 2 537 10 05", "cuisine": "asian", "description": "Asian street food", "name": "Kaiju", "opening_hours": "Mo-Sa 19:00-23:00"}}, {"type": "node", "id": 11152830251, "lat": 50.8269833, "lon": 4.3578371, "tags": {"amenity": "restaurant", "contact:email": "pozbrussels@gmail.com", "contact:mobile": "+32 484 27 58 95", "cuisine": "coffee", "opening_hours": "Mo-Su 09:00-18:00", "payment:cards": "yes", "payment:cash": "yes", "payment:qr_code": "no", "reservation": "no"}}, {"type": "node", "id": 11236949471, "lat": 50.8345615, "lon": 4.3553484, "tags": {"amenity": "restaurant", "cuisine": "mexican", "level": "1", "name": "Ancho", "opening_hours": "Mo-Fr,Su 11:30-14:45,18:00-22:00; Sa 11:30-22:00; PH closed", "wheelchair": "no"}}, {"type": "node", "id": 11236968634, "lat": 50.8344998, "lon": 4.3552016, "tags": {"amenity": "restaurant", "check_date:opening_hours": "2025-10-31", "cuisine": "italian", "indoor_seating": "yes", "name": "Rizes", "opening_hours:signed": "no", "outdoor_seating": "yes", "wheelchair": "no"}}, {"type": "node", "id": 11238651764, "lat": 50.8345335, "lon": 4.3552817, "tags": {"amenity": "restaurant", "check_date:opening_hours": "2025-10-31", "contact:email": "ledelireparisien@hotmail.com", "contact:phone": "+32 2 537 06 94", "contact:website": "https://www.delireparisien.com", "indoor_seating": "yes", "name": "Le D\u00e9lire Parisien", "opening_hours:signed": "no", "outdoor_seating": "yes", "wheelchair": "no"}}, {"type": "node", "id": 11583139773, "lat": 50.8283112, "lon": 4.3601125, "tags": {"amenity": "restaurant", "contact:email": "info@loscharros.be", "contact:website": "https://loscharros.be/", "cuisine": "mexican", "name": "Los Charros", "opening_hours": "Tu-Th,Su 18:30-22:30; Fr-Sa 18:30-23:00; PH closed", "takeaway": "yes", "wheelchair": "no"}}, {"type": "node", "id": 11583139776, "lat": 50.8289523, "lon": 4.3582545, "tags": {"amenity": "restaurant", "contact:phone": "+32 2 538 57 17", "cuisine": "italian", "name": "Ciao Bella", "opening_hours": "Mo-Fr 12:00-15:00,19:00-22:30; Sa 19:00-22:30; PH closed"}}, {"type": "node", "id": 11587783988, "lat": 50.83487, "lon": 4.3556318, "tags": {"amenity": "restaurant", "contact:website": "https://nami-roll.com/", "name": "Nami", "opening_hours": "Mo-Su 12:00-22:30", "wheelchair": "no"}}, {"type": "node", "id": 11896686069, "lat": 50.8346731, "lon": 4.3556133, "tags": {"amenity": "restaurant", "contact:phone": "+32 2 538 12 07", "contact:website": "https://la-vigne.be/", "cuisine": "mediterranean", "name": "La Vigne", "opening_hours": "Mo-Sa 12:00-23:00", "wheelchair": "no"}}, {"type": "node", "id": 12088899659, "lat": 50.8241749, "lon": 4.3631487, "tags": {"amenity": "restaurant", "cuisine": "sushi", "name": "Sushiria"}}, {"type": "node", "id": 12142631742, "lat": 50.8348046, "lon": 4.3554754, "tags": {"alt_name": "Scopa Focacceria", "amenity": "restaurant", "contact:facebook": "https://facebook.com/Scopafocacceria", "contact:instagram": "scopa_focacceria", "cuisine": "italian;coffee_shop", "diet:mediterranean": "yes", "diet:vegan": "yes", "diet:vegetarian": "yes", "name": "Scopa", "opening_hours": "Mo-We 11:00-19:00; Th-Sa 11:00-21:00", "short_name": "ScopaFoca", "toilets": "yes", "website": "https://scopafoca.it/", "website:menu": "https://www.scopafoca.it/menu-fr-en.pdf"}}, {"type": "node", "id": 12172287367, "lat": 50.8231282, "lon": 4.3583306, "tags": {"amenity": "restaurant", "bar": "yes", "contact:email": "info@quincaillerie.be", "contact:facebook": "LaQuincaillerieBrussels", "contact:instagram": "laquincaillerie.be", "contact:phone": "+32 2 533 98 33", "contact:website": "https://quincaillerie.be/", "cuisine": "belgian", "highchair": "yes", "name": "La Quincaillerie", "opening_hours": "Tu-Su 12:00-14:30,18:30-22:30; Sa 18:30-22:30", "outdoor_seating": "yes", "ref:vatin": "BE0460228673", "reservation": "yes", "toilets": "yes", "website:menu": "https://quincaillerie.be/menu"}}, {"type": "node", "id": 12224005969, "lat": 50.8329532, "lon": 4.3567824, "tags": {"amenity": "restaurant", "contact:website": "https://www.frank.brussels/", "name": "Frank St\u00e9phanie"}}, {"type": "node", "id": 12241653090, "lat": 50.8347288, "lon": 4.3552941, "tags": {"amenity": "restaurant", "contact:email": "info@g-spud.com", "contact:phone": "+32 2 538 05 08", "contact:website": "https://www.g-spud.com/", "description": "Specialised in baked potatoes and sweet potatoes topped with fresh ingredients", "name": "G-Spud", "opening_hours": "Mo-Fr 11:15-17:00; Sa 12:00-18:00; Su off; PH off", "payment:cash": "no", "reservation": "no", "takeaway": "yes", "wheelchair": "yes"}}, {"type": "node", "id": 12271484640, "lat": 50.8262605, "lon": 4.3546282, "tags": {"amenity": "restaurant", "contact:instagram": "https://www.instagram.com/seedbaracouscous", "cuisine": "tunisian", "full_name": "Seed Bar \u00e0 Couscous", "name": "Seed", "opening_hours": "Mo-Fr 11:30-15:00", "takeaway": "yes"}}, {"type": "node", "id": 12546316591, "lat": 50.8347011, "lon": 4.3552278, "tags": {"amenity": "restaurant", "bar": "yes", "check_date:opening_hours": "2025-10-31", "cuisine": "pizza", "name": "Al Bacino", "opening_hours:signed": "no", "outdoor_seating": "yes", "wheelchair": "no"}}, {"type": "node", "id": 12792321896, "lat": 50.8276377, "lon": 4.3591675, "tags": {"amenity": "restaurant", "contact:instagram": "https://www.instagram.com/kartouche_bistrot", "name": "Kartouche"}}, {"type": "node", "id": 12924826110, "lat": 50.8313152, "lon": 4.3603449, "tags": {"amenity": "restaurant", "contact:website": "https://samourai-bruxelles.com/", "cuisine": "japanese", "name": "Samourai", "opening_hours": "Su,Mo off; Tu-Sa 12:00-14:00,19:00-21:30"}}, {"type": "node", "id": 13007200519, "lat": 50.8229637, "lon": 4.3602097, "tags": {"amenity": "restaurant", "name": "Fico"}}, {"type": "node", "id": 13009736248, "lat": 50.8239414, "lon": 4.3592657, "tags": {"amenity": "restaurant"}}, {"type": "node", "id": 13009740467, "lat": 50.823149, "lon": 4.3589606, "tags": {"amenity": "restaurant", "contact:email": "info@damamma.be", "contact:phone": "+32 2 681 16 28", "contact:website": "https://www.damamma.be/", "cuisine": "italian", "name": "Da Mamma", "opening_hours": "Mo 12:00-14:30; Tu-Sa 12:00-14:30,18:30-22:30"}}, {"type": "node", "id": 13009741522, "lat": 50.8234302, "lon": 4.3589976, "tags": {"amenity": "restaurant", "name": "El Vasco"}}, {"type": "node", "id": 13009745816, "lat": 50.823946, "lon": 4.3595858, "tags": {"amenity": "restaurant", "cuisine": "japanese", "name": "R\u00e2le-Bol"}}, {"type": "node", "id": 13034262781, "lat": 50.8268081, "lon": 4.3628539, "tags": {"amenity": "restaurant", "check_date": "2026-01-30", "cuisine": "sushi", "name": "Roru"}}, {"type": "node", "id": 13517921858, "lat": 50.8311347, "lon": 4.3604268, "tags": {"amenity": "restaurant", "contact:instagram": "https://www.instagram.com/mimirestaurant106", "contact:website": "https://mimirestaurant.be", "cuisine": "italian", "name": "Mimi"}}]}