{"version": 0.6, "generator": "Overpass API 0.7.62.10 2d4cfc48", "osm3s": {"timestamp_osm_base": "2026-02-03T08:49:45Z", "copyright": "The data included in this document is from www.openstreetmap.org. The data is made available under ODbL."}, "elements": [{"type": "node", "id": 17401552, "lat": 50.8356704, "lon": 4.3362489, "tags": {"gtfs:stop_id:FR-SNCF": "StopArea:OCE88140010", "iata": "ZYR", "internet_access": "wlan", "name": "Bruxelles-Midi - Brussel-Zuid", "name:ar": "\u0628\u0631\u0648\u0643\u0633\u0644 \u0627\u0644\u062c\u0646\u0648\u0628\u064a\u0629", "name:de": "Br\u00fcssel-S\u00fcd", "name:en": "Brussels-Midi", "name:es": "Bruselas Sur", "name:fr": "Bruxelles-Midi", "name:nl": "Brussel-Zuid", "name:ur": "\u062c\u0646\u0648\u0628\u06cc \u0628\u0631\u0633\u0644\u0632 (\u0645\u0650\u0688\u06cc)", "network": "NMBS/SNCB", "network:wikidata": "Q524255", "not:name:en": "Brussels-South", "operator": "NMBS/SNCB", "operator:wikidata": "Q524255", "public_transport": "station", "railway": "station", "railway:position:exact:L50C": "0.244", "railway:ref": "FBMZ", "railway:ref:DB": "XBB", "ref": "FBMZ", "ref:EU:PLC": "BE00220", "ref:FR:sncf:resarail": "BEBMI", "ref:FR:uic8": "88140010", "ref:crs": "BXS", "train": "yes", "uic_ref": "8814001", "website": "https://www.belgiantrain.be/station-information/brussel-bruxelles/zuid-midi", "wheelchair": "yes", "wikidata": "Q800587", "wikipedia": "fr:Gare de Bruxelles-Midi", "zone:NMBS_SNCB": "Bruxelles - Brussel"}}, {"type": "node", "id": 4878787366, "lat": 50.8364862, "lon": 4.337896, "tags": {"alt_name:gcf": "Laga di Midi", "name": "Gare du Midi - Zuidstation", "name:etymology:wikidata": "Q800587", "name:fr": "Gare du Midi", "name:nl": "Zuidstation", "network": "IBXL", "network:wikidata": "Q114957008", "operator": "STIB/MIVB", "operator:wikidata": "Q1631655", "public_transport": "station", "railway": "station", "ref:STIB_MIVB": "35", "station": "subway", "subway": "yes", "tram": "yes", "wheelchair": "no", "wikidata": "Q3098217", "wikipedia": "fr:Gare du Midi (m\u00e9tro de Bruxelles)"}}]}