{"version": 0.6, "generator": "Overpass API 0.7.62.10 2d4cfc48", "osm3s": {"timestamp_osm_base": "2026-02-03T11:28:30Z", "copyright": "The data included in this document is from www.openstreetmap.org. The data is made available under ODbL."}, "elements": [{"type": "node", "id": 16474172, "lat": 50.900508, "lon": 4.3480693, "tags": {"name": "Esplanade", "public_transport": "stop_position", "railway": "tram_stop", "tram": "yes"}}, {"type": "node", "id": 1333789353, "lat": 50.8934793, "lon": 4.33212, "tags": {"name": "Stade - Stadion", "name:fr": "Stade", "name:nl": "Stadion", "public_transport": "stop_position", "railway": "tram_stop", "tram": "yes"}}, {"type": "node", "id": 1751217770, "lat": 50.8964589, "lon": 4.3381502, "tags": {"name": "Heysel - Heizel", "name:fr": "Heysel", "name:nl": "Heizel", "public_transport": "stop_position", "railway": "tram_stop", "tram": "yes"}}, {"type": "node", "id": 1751224479, "lat": 50.8906394, "lon": 4.3300516, "tags": {"name": "Sti\u00e9non", "public_transport": "stop_position", "railway": "tram_stop", "tram": "yes"}}, {"type": "node", "id": 1809416162, "lat": 50.8938178, "lon": 4.3318309, "tags": {"name": "Stade - Stadion", "name:fr": "Stade", "name:nl": "Stadion", "public_transport": "stop_position", "railway": "tram_stop", "tram": "yes"}}, {"type": "node", "id": 1809416177, "lat": 50.8890417, "lon": 4.334657, "tags": {"name": "Polyclinique Brugmann - Polikliniek Brugmann", "name:fr": "Polyclinique Brugmann", "name:nl": "Polikliniek Brugmann", "public_transport": "stop_position", "railway": "tram_stop", "tram": "yes"}}, {"type": "node", "id": 1811910216, "lat": 50.8860441, "lon": 4.3335669, "tags": {"name": "H\u00f4pital Brugmann - Brugmann-ziekenhuis", "name:fr": "H\u00f4pital Brugmann", "name:nl": "Brugmann-ziekenhuis", "public_transport": "stop_position", "railway": "tram_stop", "tram": "yes"}}, {"type": "node", "id": 2613007007, "lat": 50.8908462, "lon": 4.3444737, "tags": {"name": "Saint-Lambert - Sint-Lambertus", "name:fr": "Saint-Lambert", "name:nl": "Sint-Lambertus", "public_transport": "stop_position", "railway": "tram_stop", "tram": "yes"}}, {"type": "node", "id": 3127886357, "lat": 50.8892036, "lon": 4.3340843, "tags": {"name": "Polyclinique Brugmann - Polikliniek Brugmann", "name:fr": "Polyclinique Brugmann", "name:nl": "Polikliniek Brugmann", "public_transport": "stop_position", "railway": "tram_stop", "tram": "yes"}}, {"type": "node", "id": 3127886378, "lat": 50.8908866, "lon": 4.3303129, "tags": {"name": "Sti\u00e9non", "public_transport": "stop_position", "railway": "tram_stop", "tram": "yes"}}, {"type": "node", "id": 3136264598, "lat": 50.8862209, "lon": 4.3339422, "tags": {"name": "H\u00f4pital Brugmann - Brugmann-ziekenhuis", "name:fr": "H\u00f4pital Brugmann", "name:nl": "Brugmann-ziekenhuis", "public_transport": "stop_position", "railway": "tram_stop", "tram": "yes"}}, {"type": "node", "id": 3136264599, "lat": 50.8934138, "lon": 4.3321868, "tags": {"name": "Stade - Stadion", "name:fr": "Stade", "name:nl": "Stadion", "public_transport": "stop_position", "railway": "tram_stop", "tram": "yes"}}, {"type": "node", "id": 3136264600, "lat": 50.8938082, "lon": 4.3319426, "tags": {"name": "Stade - Stadion", "name:fr": "Stade", "name:nl": "Stadion", "public_transport": "stop_position", "railway": "tram_stop", "tram": "yes"}}, {"type": "node", "id": 3139106524, "lat": 50.9001586, "lon": 4.3481221, "tags": {"name": "Esplanade", "public_transport": "stop_position", "railway": "tram_stop", "tram": "yes"}}, {"type": "node", "id": 3202279589, "lat": 50.8952625, "lon": 4.3551053, "tags": {"name": "De Wand", "public_transport": "stop_position", "railway": "tram_stop", "tram": "yes"}}, {"type": "node", "id": 4443049658, "lat": 50.896432, "lon": 4.3381302, "tags": {"name": "Heysel - Heizel", "name:fr": "Heysel", "name:nl": "Heizel", "public_transport": "stop_position", "railway": "tram_stop", "tram": "yes"}}, {"type": "node", "id": 4443049659, "lat": 50.8967727, "lon": 4.337376, "tags": {"name": "Heysel - Heizel", "name:fr": "Heysel", "name:nl": "Heizel", "public_transport": "stop_position", "railway": "tram_stop", "tram": "yes"}}, {"type": "node", "id": 4698860769, "lat": 50.895296, "lon": 4.355496, "tags": {"name": "De Wand", "public_transport": "stop_position", "railway": "tram_stop", "tram": "yes"}}, {"type": "node", "id": 4776894595, "lat": 50.8963818, "lon": 4.3380857, "tags": {"name": "Heysel - Heizel", "name:fr": "Heysel", "name:nl": "Heizel", "public_transport": "stop_position", "railway": "tram_stop", "tram": "yes"}}, {"type": "node", "id": 4793588097, "lat": 50.8930149, "lon": 4.3150481, "tags": {"name": "Arbre Ballon - Dikke Beuk", "name:fr": "Arbre Ballon", "name:nl": "Dikke Beuk", "public_transport": "stop_position", "railway": "tram_stop", "tram": "yes"}}, {"type": "node", "id": 4899271821, "lat": 50.8899176, "lon": 4.3450362, "tags": {"name": "Saint-Lambert - Sint-Lambertus", "name:fr": "Saint-Lambert", "name:nl": "Sint-Lambertus", "public_transport": "stop_position", "railway": "tram_stop", "tram": "yes"}}, {"type": "node", "id": 4899271831, "lat": 50.8908693, "lon": 4.3460613, "tags": {"name": "Saint-Lambert - Sint-Lambertus", "name:fr": "Saint-Lambert", "name:nl": "Sint-Lambertus", "public_transport": "stop_position", "railway": "tram_stop", "tram": "yes"}}, {"type": "node", "id": 9319122766, "lat": 50.8959526, "lon": 4.3298778, "tags": {"name": "Roi Baudouin - Koning Boudewijn", "name:fr": "Roi Baudouin", "name:nl": "Koning Boudewijn", "public_transport": "stop_position", "railway": "tram_stop", "tram": "yes"}}, {"type": "node", "id": 9319122767, "lat": 50.8962027, "lon": 4.329621, "tags": {"name": "Roi Baudouin - Koning Boudewijn", "name:fr": "Roi Baudouin", "name:nl": "Koning Boudewijn", "public_transport": "stop_position", "railway": "tram_stop", "tram": "yes"}}, {"type": "node", "id": 9319122768, "lat": 50.8938708, "lon": 4.3311624, "tags": {"name": "Stade - Stadion", "name:fr": "Stade", "name:nl": "Stadion", "public_transport": "stop_position", "railway": "tram_stop", "tram": "yes"}}, {"type": "node", "id": 9319122769, "lat": 50.8941477, "lon": 4.3315126, "tags": {"name": "Stade - Stadion", "name:fr": "Stade", "name:nl": "Stadion", "public_transport": "stop_position", "railway": "tram_stop", "tram": "yes"}}, {"type": "node", "id": 9319122770, "lat": 50.8940019, "lon": 4.3255965, "tags": {"name": "Palfijn", "public_transport": "stop_position", "railway": "tram_stop", "tram": "yes"}}, {"type": "node", "id": 9319122771, "lat": 50.894087, "lon": 4.3249789, "tags": {"name": "Palfijn", "public_transport": "stop_position", "railway": "tram_stop", "tram": "yes"}}, {"type": "node", "id": 9319122772, "lat": 50.8933952, "lon": 4.319136, "tags": {"name": "De Heyn", "public_transport": "stop_position", "railway": "tram_stop", "tram": "yes"}}, {"type": "node", "id": 9319122773, "lat": 50.893479, "lon": 4.3197237, "tags": {"name": "De Heyn", "public_transport": "stop_position", "railway": "tram_stop", "tram": "yes"}}]}