{"version": 0.6, "generator": "Overpass API 0.7.62.10 2d4cfc48", "osm3s": {"timestamp_osm_base": "2026-02-03T11:53:15Z", "copyright": "The data included in this document is from www.openstreetmap.org. The data is made available under ODbL."}, "elements": [{"type": "node", "id": 2099110755, "lat": 50.8758774, "lon": 4.3193844, "tags": {"amenity": "pub", "brewery": "leffe;chimay;carlsberg;grimbergen;Estaminet", "name": "New Heideken"}}, {"type": "node", "id": 2323720748, "lat": 50.8725961, "lon": 4.325165, "tags": {"amenity": "bar", "name": "Sportwereld"}}, {"type": "node", "id": 2326322373, "lat": 50.8787066, "lon": 4.3292515, "tags": {"amenity": "pub", "name": "New Proph\u00e8te"}}, {"type": "node", "id": 4539385781, "lat": 50.8796568, "lon": 4.3302726, "tags": {"amenity": "pub", "contact:email": "geleporaa@gmail.com", "contact:facebook": "https://www.facebook.com/degeleporaa", "name": "De Gele Poraa", "opening_hours": "18:00-24:00"}}, {"type": "node", "id": 4604596231, "lat": 50.8781798, "lon": 4.328755, "tags": {"amenity": "pub", "name": "L. Th\u00e9odor"}}, {"type": "node", "id": 4604596232, "lat": 50.8784478, "lon": 4.3291089, "tags": {"amenity": "pub", "name": "Caf\u00e9 du Parc"}}, {"type": "node", "id": 4607600369, "lat": 50.876793, "lon": 4.3280599, "tags": {"amenity": "pub", "name": "Aux 4 Coins du Monde", "outdoor_seating": "yes"}}, {"type": "node", "id": 4607614932, "lat": 50.8765567, "lon": 4.3278948, "tags": {"amenity": "pub", "name": "La Poste"}}, {"type": "node", "id": 4607673982, "lat": 50.8747182, "lon": 4.3268706, "tags": {"amenity": "pub", "name": "Fana's Caf\u00e9"}}, {"type": "node", "id": 5496637520, "lat": 50.8779538, "lon": 4.3237641, "tags": {"amenity": "pub", "name": "Le Wembley", "outdoor_seating": "yes"}}, {"type": "node", "id": 6417776784, "lat": 50.8743373, "lon": 4.3225326, "tags": {"amenity": "pub", "name": "L'Avenue"}}, {"type": "node", "id": 6419091534, "lat": 50.8728179, "lon": 4.3235704, "tags": {"amenity": "pub", "contact:email": "gestion@bojette.com", "contact:facebook": "https://www.facebook.com/LEBOJETTE", "contact:phone": "+32 2 201 34 56", "name": "Le B\u00f4", "opening_hours": "Mo-We 09:00-21:00; Th-Sa 09:00-22:00; Su 08:30-20:00", "opening_hours:signed": "yes", "wheelchair": "no"}}, {"type": "node", "id": 6419337930, "lat": 50.8717939, "lon": 4.3242338, "tags": {"amenity": "pub", "name": "Aux Hippocampes", "wheelchair": "no"}}, {"type": "node", "id": 6419337933, "lat": 50.8726075, "lon": 4.3255935, "tags": {"amenity": "pub", "name": "Le Jette 7", "wheelchair": "limited"}}, {"type": "node", "id": 9646081215, "lat": 50.8734774, "lon": 4.3255554, "tags": {"amenity": "pub", "name": "Au Sportman"}}, {"type": "node", "id": 9672654294, "lat": 50.8737782, "lon": 4.3229054, "tags": {"amenity": "pub", "name": "The Dash's", "outdoor_seating": "yes"}}, {"type": "node", "id": 10178728612, "lat": 50.8801603, "lon": 4.3223322, "tags": {"amenity": "pub", "food": "yes", "name": "Chez Wodek"}}, {"type": "node", "id": 10197935657, "lat": 50.8805491, "lon": 4.329139, "tags": {"amenity": "pub", "food": "yes", "name": "Op Den Hoek", "outdoor_seating": "yes", "takeaway": "yes"}}, {"type": "node", "id": 10197963742, "lat": 50.8806498, "lon": 4.329078, "tags": {"amenity": "pub", "contact:facebook": "https://www.facebook.com/Welkomcafejette", "contact:mobile": "+32 485 99 65 07", "name": "Welkom", "opening_hours": "Mo-Fr 07:00-22:00; Sa,Su 10:00-23:00", "outdoor_seating": "yes"}}, {"type": "node", "id": 10649624873, "lat": 50.8809908, "lon": 4.3228573, "tags": {"amenity": "pub", "contact:phone": "+32 2 725 36 44", "food": "yes", "name": "Le Bistro", "opening_hours": "09:00-22:00", "outdoor_seating": "yes"}}, {"type": "node", "id": 10946193756, "lat": 50.875144, "lon": 4.3209033, "tags": {"amenity": "pub", "name": "New St Pierre"}}, {"type": "node", "id": 11280011727, "lat": 50.8728789, "lon": 4.3239424, "tags": {"amenity": "bar", "name": "Queen's"}}]}