{"version": 0.6, "generator": "Overpass API 0.7.62.10 2d4cfc48", "osm3s": {"timestamp_osm_base": "2026-02-02T16:26:11Z", "copyright": "The data included in this document is from www.openstreetmap.org. The data is made available under ODbL."}, "elements": [{"type": "node", "id": 462754947, "lat": 50.8802312, "lon": 4.3300409, "tags": {"name": "Gare de Jette - Station Jette", "name:fr": "Gare de Jette", "name:nl": "Station Jette", "public_transport": "stop_position", "railway": "tram_stop", "tram": "yes"}}, {"type": "node", "id": 503885988, "lat": 50.8735323, "lon": 4.3259576, "tags": {"name": "Place Reine Astrid - Koningin Astridplein", "name:fr": "Place Reine Astrid", "name:nl": "Koningin Astridplein", "public_transport": "stop_position", "railway": "tram_stop", "tram": "yes"}}, {"type": "node", "id": 867387718, "lat": 50.8708478, "lon": 4.3245947, "tags": {"name": "Miroir - Spiegel", "name:fr": "Miroir", "name:nl": "Spiegel", "public_transport": "stop_position", "railway": "tram_stop", "tram": "yes"}}, {"type": "node", "id": 1812472837, "lat": 50.8822415, "lon": 4.3354373, "tags": {"name": "Guillaume De Greef", "public_transport": "stop_position", "railway": "tram_stop", "tram": "yes"}}, {"type": "node", "id": 1814306018, "lat": 50.8789911, "lon": 4.33852, "tags": {"name": "Foyer Jettois - Jetse Haard", "name:fr": "Foyer Jettois", "name:nl": "Jetse Haard", "public_transport": "stop_position", "railway": "tram_stop", "tram": "yes"}}, {"type": "node", "id": 1994416589, "lat": 50.8801302, "lon": 4.3304259, "tags": {"name": "Gare de Jette - Station Jette", "name:fr": "Gare de Jette", "name:nl": "Station Jette", "public_transport": "stop_position", "railway": "tram_stop", "tram": "yes"}}, {"type": "node", "id": 1994416592, "lat": 50.8683043, "lon": 4.3263454, "tags": {"name": "Broustin", "public_transport": "stop_position", "railway": "tram_stop", "tram": "yes"}}, {"type": "node", "id": 2613006557, "lat": 50.8677457, "lon": 4.335645, "tags": {"name": "Belgica", "public_transport": "stop_position", "railway": "tram_stop", "tram": "yes"}}, {"type": "node", "id": 2613006693, "lat": 50.8755192, "lon": 4.3334735, "tags": {"name": "Woeste", "public_transport": "stop_position", "railway": "tram_stop", "tram": "yes"}}, {"type": "node", "id": 2613006706, "lat": 50.8741658, "lon": 4.3337747, "tags": {"name": "Woeste", "public_transport": "stop_position", "railway": "tram_stop", "tram": "yes"}}, {"type": "node", "id": 2613006727, "lat": 50.8775456, "lon": 4.3329222, "tags": {"name": "D\u00e9mineurs - Ontmijners", "name:fr": "D\u00e9mineurs", "name:nl": "Ontmijners", "public_transport": "stop_position", "railway": "tram_stop", "tram": "yes"}}, {"type": "node", "id": 2613006736, "lat": 50.8779548, "lon": 4.3328622, "tags": {"name": "D\u00e9mineurs - Ontmijners", "name:fr": "D\u00e9mineurs", "name:nl": "Ontmijners", "public_transport": "stop_position", "railway": "tram_stop", "tram": "yes"}}, {"type": "node", "id": 2613006809, "lat": 50.8826221, "lon": 4.3355704, "tags": {"name": "Guillaume De Greef", "public_transport": "stop_position", "railway": "tram_stop", "tram": "yes"}}, {"type": "node", "id": 2613006845, "lat": 50.884224, "lon": 4.3378051, "tags": {"name": "Ernest Salu", "public_transport": "stop_position", "railway": "tram_stop", "tram": "yes"}}, {"type": "node", "id": 2812966249, "lat": 50.870426, "lon": 4.3347438, "tags": {"name": "Odon Warland", "public_transport": "stop_position", "railway": "tram_stop", "tram": "yes"}}, {"type": "node", "id": 3128485565, "lat": 50.8800818, "lon": 4.3348981, "tags": {"name": "Cimeti\u00e8re de Jette - Kerkhof van Jette", "name:fr": "Cimeti\u00e8re de Jette", "name:nl": "Kerkhof van Jette", "public_transport": "stop_position", "railway": "tram_stop", "tram": "yes"}}, {"type": "node", "id": 3136264584, "lat": 50.879028, "lon": 4.3381282, "tags": {"name": "Foyer Jettois - Jetse Haard", "name:fr": "Foyer Jettois", "name:nl": "Jetse Haard", "public_transport": "stop_position", "railway": "tram_stop", "tram": "yes"}}, {"type": "node", "id": 3136264598, "lat": 50.8862209, "lon": 4.3339422, "tags": {"name": "H\u00f4pital Brugmann - Brugmann-ziekenhuis", "name:fr": "H\u00f4pital Brugmann", "name:nl": "Brugmann-ziekenhuis", "public_transport": "stop_position", "railway": "tram_stop", "tram": "yes"}}, {"type": "node", "id": 3151435589, "lat": 50.8679276, "lon": 4.3265518, "tags": {"name": "Broustin", "public_transport": "stop_position", "railway": "tram_stop", "tram": "yes"}}, {"type": "node", "id": 3151435649, "lat": 50.8712106, "lon": 4.3244038, "tags": {"name": "Miroir - Spiegel", "name:fr": "Miroir", "name:nl": "Spiegel", "public_transport": "stop_position", "railway": "tram_stop", "tram": "yes"}}, {"type": "node", "id": 3151435858, "lat": 50.8733467, "lon": 4.3257764, "tags": {"name": "Place Reine Astrid - Koningin Astridplein", "name:fr": "Place Reine Astrid", "name:nl": "Koningin Astridplein", "public_transport": "stop_position", "railway": "tram_stop", "tram": "yes"}}, {"type": "node", "id": 3151436001, "lat": 50.8768281, "lon": 4.3281981, "tags": {"name": "Lenoir", "public_transport": "stop_position", "railway": "tram_stop", "tram": "yes"}}, {"type": "node", "id": 3749377499, "lat": 50.8853773, "lon": 4.3168242, "tags": {"name": "Ancienne Barri\u00e8re - Oude Afspanning", "name:fr": "Ancienne Barri\u00e8re", "name:nl": "Oude Afspanning", "public_transport": "stop_position", "railway": "tram_stop", "tram": "yes"}}, {"type": "node", "id": 4710337579, "lat": 50.8708425, "lon": 4.334678, "tags": {"name": "Odon Warland", "public_transport": "stop_position", "railway": "tram_stop", "tram": "yes"}}, {"type": "node", "id": 4793588097, "lat": 50.8930149, "lon": 4.3150481, "tags": {"name": "Arbre Ballon - Dikke Beuk", "name:fr": "Arbre Ballon", "name:nl": "Dikke Beuk", "public_transport": "stop_position", "railway": "tram_stop", "tram": "yes"}}, {"type": "node", "id": 4793588119, "lat": 50.8900553, "lon": 4.3091862, "tags": {"name": "UZ P\u00e9diatrie - UZ Pediatrie", "name:fr": "UZ P\u00e9diatrie", "name:nl": "UZ Pediatrie", "public_transport": "stop_position", "railway": "tram_stop", "tram": "yes"}}, {"type": "node", "id": 5083583390, "lat": 50.8929238, "lon": 4.3129683, "tags": {"name": "Arbre Ballon - Dikke Beuk", "name:fr": "Arbre Ballon", "name:nl": "Dikke Beuk", "public_transport": "stop_position", "railway": "tram_stop", "tram": "yes"}}, {"type": "node", "id": 5083804724, "lat": 50.8894983, "lon": 4.3094408, "tags": {"name": "UZ P\u00e9diatrie - UZ Pediatrie", "name:fr": "UZ P\u00e9diatrie", "name:nl": "UZ Pediatrie", "public_transport": "stop_position", "railway": "tram_stop", "tram": "yes"}}, {"type": "node", "id": 5175016643, "lat": 50.8765397, "lon": 4.3280353, "tags": {"name": "Lenoir", "public_transport": "stop_position", "railway": "tram_stop", "tram": "yes"}}, {"type": "node", "id": 5418428410, "lat": 50.8863452, "lon": 4.3116287, "tags": {"name": "UZ Brussel", "public_transport": "stop_position", "railway": "tram_stop", "tram": "yes"}}, {"type": "node", "id": 5418428411, "lat": 50.8866489, "lon": 4.3113402, "tags": {"name": "UZ Brussel", "public_transport": "stop_position", "railway": "tram_stop", "tram": "yes"}}, {"type": "node", "id": 5869344334, "lat": 50.873988, "lon": 4.3225366, "tags": {"name": "Bruxellois - Brusselaars", "name:fr": "Bruxellois", "name:nl": "Brusselaars", "public_transport": "stop_position", "railway": "tram_stop", "tram": "yes"}}, {"type": "node", "id": 5869676575, "lat": 50.8800443, "lon": 4.3159713, "tags": {"name": "Exposition - Tentoonstelling", "name:fr": "Exposition", "name:nl": "Tentoonstelling", "public_transport": "stop_position", "railway": "tram_stop", "tram": "yes"}}, {"type": "node", "id": 5869708349, "lat": 50.8854506, "lon": 4.3162726, "tags": {"name": "Ancienne Barri\u00e8re - Oude Afspanning", "name:fr": "Ancienne Barri\u00e8re", "name:nl": "Oude Afspanning", "public_transport": "stop_position", "railway": "tram_stop", "tram": "yes"}}, {"type": "node", "id": 7438076974, "lat": 50.8797781, "lon": 4.3344893, "tags": {"name": "Cimeti\u00e8re de Jette - Kerkhof van Jette", "name:fr": "Cimeti\u00e8re de Jette", "name:nl": "Kerkhof van Jette", "public_transport": "stop_position", "railway": "tram_stop", "tram": "yes"}}, {"type": "node", "id": 9319122772, "lat": 50.8933952, "lon": 4.319136, "tags": {"name": "De Heyn", "public_transport": "stop_position", "railway": "tram_stop", "tram": "yes"}}, {"type": "node", "id": 9319122773, "lat": 50.893479, "lon": 4.3197237, "tags": {"name": "De Heyn", "public_transport": "stop_position", "railway": "tram_stop", "tram": "yes"}}]}