{"version": 0.6, "generator": "Overpass API 0.7.62.10 2d4cfc48", "osm3s": {"timestamp_osm_base": "2026-02-02T16:05:46Z", "copyright": "The data included in this document is from www.openstreetmap.org. The data is made available under ODbL."}, "elements": [{"type": "node", "id": 17401552, "lat": 50.8356704, "lon": 4.3362489, "tags": {"gtfs:stop_id:FR-SNCF": "StopArea:OCE88140010", "iata": "ZYR", "internet_access": "wlan", "name": "Bruxelles-Midi - Brussel-Zuid", "name:ar": "\u0628\u0631\u0648\u0643\u0633\u0644 \u0627\u0644\u062c\u0646\u0648\u0628\u064a\u0629", "name:de": "Br\u00fcssel-S\u00fcd", "name:en": "Brussels-Midi", "name:es": "Bruselas Sur", "name:fr": "Bruxelles-Midi", "name:nl": "Brussel-Zuid", "name:ur": "\u062c\u0646\u0648\u0628\u06cc \u0628\u0631\u0633\u0644\u0632 (\u0645\u0650\u0688\u06cc)", "network": "NMBS/SNCB", "network:wikidata": "Q524255", "not:name:en": "Brussels-South", "operator": "NMBS/SNCB", "operator:wikidata": "Q524255", "public_transport": "station", "railway": "station", "railway:position:exact:L50C": "0.244", "railway:ref": "FBMZ", "railway:ref:DB": "XBB", "ref": "FBMZ", "ref:EU:PLC": "BE00220", "ref:FR:sncf:resarail": "BEBMI", "ref:FR:uic8": "88140010", "ref:crs": "BXS", "train": "yes", "uic_ref": "8814001", "website": "https://www.belgiantrain.be/station-information/brussel-bruxelles/zuid-midi", "wheelchair": "yes", "wikidata": "Q800587", "wikipedia": "fr:Gare de Bruxelles-Midi", "zone:NMBS_SNCB": "Bruxelles - Brussel"}}, {"type": "node", "id": 142758829, "lat": 50.833342, "lon": 4.3487828, "tags": {"name": "H\u00f4tel des Monnaies - Munthof", "name:etymology:wikidata": "Q3146233", "name:fr": "H\u00f4tel des Monnaies", "name:nl": "Munthof", "network": "IBXL", "network:wikidata": "Q114957008", "operator": "STIB/MIVB", "operator:wikidata": "Q1631655", "public_transport": "station", "railway": "station", "ref:STIB_MIVB": "33", "station": "subway", "subway": "yes", "wheelchair": "no", "wikidata": "Q2560888", "wikipedia": "fr:H\u00f4tel des Monnaies (m\u00e9tro de Bruxelles)"}}, {"type": "node", "id": 142758831, "lat": 50.8353919, "lon": 4.3546677, "tags": {"name": "Louise - Louiza", "name:etymology:wikidata": "Q237318", "name:fr": "Louise", "name:nl": "Louiza", "network": "IBXL", "network:wikidata": "Q114957008", "operator": "STIB/MIVB", "operator:wikidata": "Q1631655", "public_transport": "station", "railway": "station", "ref:STIB_MIVB": "32", "station": "subway", "subway": "yes", "wheelchair": "no", "wikidata": "Q2262956", "wikipedia": "fr:Louise (m\u00e9tro de Bruxelles)"}}, {"type": "node", "id": 4878787366, "lat": 50.8364862, "lon": 4.337896, "tags": {"alt_name:gcf": "Laga di Midi", "name": "Gare du Midi - Zuidstation", "name:etymology:wikidata": "Q800587", "name:fr": "Gare du Midi", "name:nl": "Zuidstation", "network": "IBXL", "network:wikidata": "Q114957008", "operator": "STIB/MIVB", "operator:wikidata": "Q1631655", "public_transport": "station", "railway": "station", "ref:STIB_MIVB": "35", "station": "subway", "subway": "yes", "tram": "yes", "wheelchair": "no", "wikidata": "Q3098217", "wikipedia": "fr:Gare du Midi (m\u00e9tro de Bruxelles)"}}, {"type": "node", "id": 4892514008, "lat": 50.8339923, "lon": 4.3428824, "tags": {"name": "Porte de Hal - Hallepoort", "name:etymology:wikidata": "Q2988142", "name:fr": "Porte de Hal", "name:nl": "Hallepoort", "network": "IBXL", "network:wikidata": "Q114957008", "operator": "STIB/MIVB", "operator:wikidata": "Q1631655", "public_transport": "station", "railway": "station", "ref:STIB_MIVB": "34", "station": "subway", "subway": "yes", "wheelchair": "no", "wikidata": "Q2475970", "wikipedia": "fr:Porte de Hal (m\u00e9tro de Bruxelles)"}}, {"type": "node", "id": 6587283782, "lat": 50.8327988, "lon": 4.3428865, "tags": {"name": "Porte de Hal - Hallepoort", "name:etymology:wikidata": "Q2988142", "name:fr": "Porte de Hal", "name:nl": "Hallepoort", "network": "IBXL", "network:wikidata": "Q114957008", "operator": "STIB/MIVB", "operator:wikidata": "Q1631655", "public_transport": "station", "railway": "station", "ref:STIB_MIVB": "64", "station": "subway", "tram": "yes", "wheelchair": "no", "wikidata": "Q2475970", "wikipedia": "fr:Porte de Hal (m\u00e9tro de Bruxelles)"}}, {"type": "node", "id": 6588316478, "lat": 50.8298326, "lon": 4.3461376, "tags": {"name": "Parvis de Saint-Gilles - Sint-Gillisvoorplein", "name:fr": "Parvis de Saint-Gilles", "name:nl": "Sint-Gillisvoorplein", "network": "IBXL", "network:wikidata": "Q114957008", "operator": "STIB/MIVB", "operator:wikidata": "Q1631655", "public_transport": "station", "railway": "station", "ref:STIB_MIVB": "65", "station": "subway", "tram": "yes", "wheelchair": "no", "wikidata": "Q2417248", "wikipedia": "en:Parvis de Saint-Gilles premetro station"}}, {"type": "node", "id": 6657500836, "lat": 50.8259485, "lon": 4.3457493, "tags": {"name": "Horta", "name:etymology:wikidata": "Q49744", "network": "IBXL", "network:wikidata": "Q114957008", "operator": "STIB/MIVB", "operator:wikidata": "Q1631655", "public_transport": "station", "railway": "station", "ref:STIB_MIVB": "66", "station": "subway", "tram": "yes", "wheelchair": "no", "wikidata": "Q764567", "wikipedia": "en:Horta premetro station"}}]}