{"version": 0.6, "generator": "Overpass API 0.7.62.10 2d4cfc48", "osm3s": {"timestamp_osm_base": "2026-02-02T15:54:39Z", "copyright": "The data included in this document is from www.openstreetmap.org. The data is made available under ODbL."}, "elements": [{"type": "node", "id": 339180431, "lat": 50.8370799, "lon": 4.3807342}, {"type": "node", "id": 347996071, "lat": 50.8389893, "lon": 4.3982882, "tags": {"alt_name": "Brasserie La Terrasse", "amenity": "restaurant", "contact:phone": "+32 2 732 28 51", "contact:website": "http://www.brasserielaterrasse.be", "diet:vegetarian": "no", "name": "La Terrasse", "opening_hours": "Mo-Su 11:00-23:00", "outdoor_seating": "yes", "wheelchair": "yes"}}, {"type": "node", "id": 348031957, "lat": 50.8375171, "lon": 4.3807972, "tags": {"amenity": "restaurant", "check_date": "2023-08-26", "contact:email": "pj70@poulepoulette.com", "contact:phone": "+32 2 759 42 97", "contact:website": "https://poulepoulette.com/fr/locaties/brussel-place-jourdan", "cuisine": "chicken", "name": "Poule & Poulette", "opening_hours": "Mo,Th 12:00-14:00,17:30-21:00; Fr 12:00-14:00,17:30-22:30; Sa 12:00-22:00; Su 12:00-21:00"}}, {"type": "node", "id": 352862857, "lat": 50.8366701, "lon": 4.3887019, "tags": {"amenity": "restaurant", "check_date": "2022-08-21", "contact:facebook": "https://www.facebook.com/TerracottaPizzeTapas/", "contact:phone": "+32 2 721 18 62", "contact:website": "https://terracotta-pt.wixsite.com/terracottapizzetapas", "cuisine": "italian;spanish;pizza", "name": "Terracotta", "outdoor_seating": "yes"}}, {"type": "node", "id": 353002715, "lat": 50.8390124, "lon": 4.3981764, "tags": {"alt_name": "Manhattn's Merode", "amenity": "restaurant", "contact:website": "https://www.manhattns.com/location/merode", "diet:vegan": "yes", "diet:vegetarian": "yes", "name": "Manhattn's Burger", "opening_hours": "Mo-Su 11:30-22:30", "operator": "Manhattn's", "outdoor_seating": "yes", "wheelchair": "no", "wheelchair:description": "Only the front part of the terrace is accessible. The rest of the establishment is not."}}, {"type": "node", "id": 354619109, "lat": 50.8286041, "lon": 4.3906403, "tags": {"amenity": "restaurant", "cuisine": "italian", "name": "Il Vesuvio"}}, {"type": "node", "id": 356304553, "lat": 50.8377032, "lon": 4.404486, "tags": {"amenity": "restaurant", "contact:website": "https://restaurant-bistropolitan.be/", "cuisine": "french", "name": "Bistropolitan Brussels"}}, {"type": "node", "id": 697963451, "lat": 50.8363864, "lon": 4.3872764, "tags": {"amenity": "restaurant", "contact:website": "https://www.metjeaninne.be/", "name": "Met Jeaninne"}}, {"type": "node", "id": 698638650, "lat": 50.8368952, "lon": 4.3881907, "tags": {"amenity": "restaurant", "contact:email": "foodinspiration.traiteur@gmail.com", "contact:phone": "+32 2 736 82 34", "contact:website": "https://www.foodinspiration.store/", "name": "Food Inspiration", "opening_hours": "Mo-Fr 09:45-17:15"}}, {"type": "node", "id": 724211843, "lat": 50.83697, "lon": 4.3869688, "tags": {"amenity": "restaurant", "cuisine": "indian", "name": "Cinnamon Curry"}}, {"type": "node", "id": 724211846, "lat": 50.8376219, "lon": 4.3866253, "tags": {"alt_name": "Momotaro", "amenity": "restaurant", "contact:phone": "+32 2 734 06 64", "cuisine": "japanese", "name": "Miyako", "opening_hours": "Mo-Fr 12:00-14:30,18:00-23:00, Sa,Su 18:00-23:00"}}, {"type": "node", "id": 727446431, "lat": 50.8374573, "lon": 4.3808214, "tags": {"alt_name": "Takumi Jourdan", "amenity": "restaurant", "changing_table": "no", "check_date": "2026-02-02", "contact:mobile": "+32 484 02 82 49", "contact:website": "https://takumiramennoodles.com/be/brussels-jourdan/", "cuisine": "ramen;japanese", "internet_access": "wlan", "name": "Takumi", "opening_hours": "Mo-Fr 12:00-14:00,18:30-22:00; Sa 12:00-14:00,18:30-22:30", "operator": "Takumi", "toilets": "yes", "toilets:menstrual_products": "no", "toilets:wheelchair": "no", "wheelchair": "no"}}, {"type": "node", "id": 734753454, "lat": 50.8365687, "lon": 4.3824978, "tags": {"amenity": "restaurant", "check_date": "2025-05-22", "check_date:diet:gluten_free": "2025-05-22", "contact:facebook": "https://facebook.com/ilveliero.glutenfree.be/", "contact:phone": "+32 2 646 04 56", "cuisine": "italian", "diet:gluten_free": "yes", "indoor_seating": "yes", "name": "Il Veliero", "outdoor_seating": "yes"}}, {"type": "node", "id": 746463040, "lat": 50.8387106, "lon": 4.3978948, "tags": {"amenity": "restaurant", "contact:website": "https://kneestochin.com/", "cuisine": "asian", "name": "Knees to chin", "opening_hours": "Mo-Su 11:30-22:30", "wheelchair": "limited"}}, {"type": "node", "id": 766847690, "lat": 50.8381348, "lon": 4.3820268, "tags": {"amenity": "restaurant", "cuisine": "italian", "name": "La Frattoria", "note": "Opening hours are approximate, they only speak of \"midi\" and \"soir\" on the window, without more details", "opening_hours": "Mo,Fr 12:00-14:00; Tu-Th 12:00-14:00,19:00-23:00", "wheelchair": "limited"}}, {"type": "node", "id": 766847696, "lat": 50.838439, "lon": 4.382078, "tags": {"amenity": "restaurant", "check_date:opening_hours": "2022-12-12", "name": "Chez Amina", "opening_hours:signed": "no", "wheelchair": "no"}}, {"type": "node", "id": 766847741, "lat": 50.8372152, "lon": 4.3817803, "tags": {"amenity": "restaurant", "contact:email": "jourdan@pampas.be", "contact:phone": "+32 2 280 43 17", "contact:website": "https://www.pampas.be/", "cuisine": "steak_house", "indoor_seating": "yes", "name": "Pampas", "opening_hours": "Mo-Fr 18:30-22:30; Sa 18:30-23:00; Su 12:00-14:30,18:00-22:30", "outdoor_seating": "yes", "wheelchair": "yes"}}, {"type": "node", "id": 766847753, "lat": 50.8390327, "lon": 4.3980783, "tags": {"amenity": "restaurant", "contact:phone": "+32 2 733 78 88", "contact:website": "https://www.paradisduliban.be/", "cuisine": "lebanese", "diet:vegan": "yes", "diet:vegetarian": "yes", "name": "Paradis du Liban", "opening_hours": "Mo-Su,PH 11:45-14:05,17:55-22:30", "wheelchair": "no"}}, {"type": "node", "id": 1015069253, "lat": 50.8327719, "lon": 4.3867307, "tags": {"amenity": "restaurant", "contact:website": "https://www.pizzaliloo.be", "cuisine": "pizza", "name": "Liloo"}}, {"type": "node", "id": 1023852851, "lat": 50.8370432, "lon": 4.3810325}, {"type": "node", "id": 1025535773, "lat": 50.8365258, "lon": 4.382124}, {"type": "node", "id": 1191725633, "lat": 50.8390515, "lon": 4.3979875, "tags": {"amenity": "restaurant", "contact:email": "pizza-merode@nonalife.com", "contact:website": "https://www.nonalife.com", "cuisine": "pizza", "delivery": "yes", "diet:vegan": "yes", "diet:vegetarian": "yes", "level": "0", "name": "Nona Pizza", "opening_hours": "Mo-Fr 12:00-14:30,18:00-24:00; Sa,Su 12:00-24:00", "reservation": "yes", "reservation:website": "https://www.nonalife.com/merode-reservations", "wheelchair": "no"}}, {"type": "node", "id": 1441983561, "lat": 50.8369233, "lon": 4.3963302, "tags": {"amenity": "restaurant", "contact:phone": "+32 2 734 82 96", "diet:vegetarian": "no", "name": "Folklor", "wheelchair": "no"}}, {"type": "node", "id": 1705233724, "lat": 50.826165, "lon": 4.3974742, "tags": {"airconditioned": "yes", "amenity": "restaurant", "bicycle_parking": "yes", "catering": "yes", "contact:email": "info@lemess.be", "contact:phone": "+32 2 734 03 36", "contact:website": "https://lemess.be/", "cuisine": "french", "lunch": "yes", "name": "Le Mess", "opening_hours": "Mo-Fr 12:00-14:30,18:30-23:00; Sa 18:30-23:00", "outdoor_seating": "no", "payment:american_express": "yes", "payment:cash": "yes", "payment:maestro": "yes", "payment:mastercard": "yes", "payment:visa": "yes", "wheelchair": "no", "wifi": "yes"}}, {"type": "node", "id": 1756692075, "lat": 50.8287055, "lon": 4.4010282, "tags": {"amenity": "restaurant", "contact:mobile": "+32 465 77 12 67", "cuisine": "italian", "name": "Da Cezio", "was:name": "Le Jaspe"}}, {"type": "node", "id": 2298697317, "lat": 50.8394325, "lon": 4.3997023, "tags": {"amenity": "restaurant", "cuisine": "ramen", "name": "Umamido"}}, {"type": "node", "id": 2344380195, "lat": 50.8301919, "lon": 4.3863548, "tags": {"amenity": "restaurant", "check_date:opening_hours": "2023-03-13", "name": "Snack Saint-Antoine", "opening_hours": "Tu-Sa 11:30-24:00; Su 19:00-24:00", "opening_hours:signed": "no"}}, {"type": "node", "id": 2346724838, "lat": 50.8290528, "lon": 4.3906086, "tags": {"amenity": "restaurant", "cuisine": "chinese", "name": "Ying -Yang", "opening_hours": "Mo-Sa 11:15-14:30,17:00-22:30; We 11:15-14:30; Su 17:00-22:30", "takeaway": "yes"}}, {"type": "node", "id": 2360487885, "lat": 50.8364173, "lon": 4.3816497, "tags": {"amenity": "restaurant", "changing_table": "no", "cuisine": "pizza", "diet:vegan": "no", "diet:vegetarian": "yes", "entrance:kerb:height": "0.04", "entrance:ramp": "no", "entrance:step_count": "1", "entrance:width": "0.95", "name": "Mamma Roma", "opening_hours": "Mo-Tu 12:00-15:00,17:00-22:30; We-Su 11:30-22:30", "toilets:wheelchair": "no", "wheelchair:turning_circle": "yes"}}, {"type": "node", "id": 2360488103, "lat": 50.8364085, "lon": 4.381575, "tags": {"amenity": "restaurant", "check_date": "2024-08-07", "cuisine": "greek", "name": "Zorba", "opening_hours": "Mo off; Tu,Sa 18:00-22:30; We-Fr,Su 12:00-14:30, 18:00-22:30"}}, {"type": "node", "id": 2360603160, "lat": 50.8371024, "lon": 4.3810085, "tags": {"addr:housenumber": "53", "addr:street": "Place Jourdan - Jourdanplein", "entrance": "yes", "ref:UrbIS": "8426709"}}, {"type": "node", "id": 2360603161, "lat": 50.8371142, "lon": 4.3810037, "tags": {"addr:housenumber": "54", "addr:street": "Place Jourdan - Jourdanplein", "entrance": "home", "ref:UrbIS": "8426709"}}, {"type": "node", "id": 2360603206, "lat": 50.8370017, "lon": 4.3807649}, {"type": "node", "id": 2360603215, "lat": 50.8370175, "lon": 4.3808731}, {"type": "node", "id": 2360603219, "lat": 50.8370412, "lon": 4.3807498}, {"type": "node", "id": 2360603227, "lat": 50.8370853, "lon": 4.3810155}, {"type": "node", "id": 2360603231, "lat": 50.8371246, "lon": 4.3809995}, {"type": "node", "id": 2367109985, "lat": 50.8373791, "lon": 4.3964048, "tags": {"amenity": "restaurant", "contact:phone": "+32 2 732 52 50", "contact:website": "https://mniam-mniam.com/", "cuisine": "pizza", "diet:vegan": "yes", "diet:vegetarian": "yes", "full_name": "Mniam-Mniam Pizzeria-Resto", "name": "Mniam Mniam", "opening_hours": "Tu-Fr 12:00-23:00; Sa 18:00-23:00; Su 12:00-23:00", "wheelchair": "limited"}}, {"type": "node", "id": 2367110088, "lat": 50.8364481, "lon": 4.3821669, "tags": {"amenity": "restaurant", "cuisine": "portuguese", "name": "O Profeta"}}, {"type": "node", "id": 2367110090, "lat": 50.8364175, "lon": 4.3817949, "tags": {"amenity": "restaurant", "contact:phone": "+32 2 569 87 10", "contact:website": "https://www.450gradi.be/", "cuisine": "italian_pizza", "name": "450 Gradi", "reservation": "yes", "takeaway": "yes"}}, {"type": "node", "id": 2367110091, "lat": 50.8363319, "lon": 4.3819879, "tags": {"amenity": "restaurant", "contact:email": "info@stirwen.be", "contact:facebook": "https://www.facebook.com/lestirwen", "contact:phone": "+32 2 640 85 41", "contact:website": "https://www.stirwen.be", "name": "Stirwen"}}, {"type": "node", "id": 2367110743, "lat": 50.8365068, "lon": 4.3821085}, {"type": "node", "id": 2367110745, "lat": 50.8365076, "lon": 4.3821433}, {"type": "node", "id": 2367110746, "lat": 50.8365091, "lon": 4.3822094}, {"type": "node", "id": 2367110759, "lat": 50.8365429, "lon": 4.3820416}, {"type": "node", "id": 2367110777, "lat": 50.8365951, "lon": 4.3820364}, {"type": "node", "id": 2367110779, "lat": 50.8365971, "lon": 4.3821212}, {"type": "node", "id": 2369543556, "lat": 50.8368816, "lon": 4.3878363, "tags": {"amenity": "restaurant", "contact:phone": "+32 2 735 19 47", "cuisine": "greek", "name": "Knossos", "opening_hours": "Tu-Sa 11:30-14:00,18:30-21:30", "outdoor_seating": "yes"}}, {"type": "node", "id": 2369543606, "lat": 50.8367521, "lon": 4.3826777, "tags": {"amenity": "restaurant", "name": "Pok\u00e9 Bar"}}, {"type": "node", "id": 2369544111, "lat": 50.8365991, "lon": 4.3822072}, {"type": "node", "id": 2375856379, "lat": 50.8389021, "lon": 4.3986503, "tags": {"amenity": "restaurant", "contact:website": "https://www.le-carpediem.be", "diet:vegetarian": "yes", "name": "Carpe Diem", "outdoor_seating": "yes", "wheelchair": "no"}}, {"type": "node", "id": 2375856394, "lat": 50.8380965, "lon": 4.3969123, "tags": {"amenity": "restaurant", "check_date": "2022-08-21", "cuisine": "greek", "diet:vegan": "no", "diet:vegetarian": "yes", "name": "Ellinikon", "wheelchair": "no"}}, {"type": "node", "id": 2377777928, "lat": 50.8307362, "lon": 4.3904933, "tags": {"amenity": "restaurant", "name": "Snack Miracle", "old_name": "Brasserie de la Chasse"}}, {"type": "node", "id": 2402389452, "lat": 50.8394754, "lon": 4.3998551, "tags": {"amenity": "restaurant", "check_date": "2023-08-26", "contact:email": "pj70@poulepoulette.com", "contact:phone": "+32 2 895 57 00", "contact:website": "https://poulepoulette.com/fr/locaties/merode/", "cuisine": "chicken", "name": "Poule & Poulette", "opening_hours": "Mo,Tu 12:00-14:30,17:00-21:45; We,Th 12:00-21:45; Fr,Sa 12:00-22:00; Su 12:00-21:00; PH 12:00-22:00", "outdoor_seating": "yes", "wheelchair": "no"}}, {"type": "node", "id": 2415955875, "lat": 50.8375677, "lon": 4.4044661, "tags": {"amenity": "restaurant", "name": "Oggi a Milano"}}, {"type": "node", "id": 2422639573, "lat": 50.8396427, "lon": 4.3836187, "tags": {"amenity": "restaurant", "contact:email": "indianroyalspicy@gmail.com", "contact:facebook": "https://www.facebook.com/indianroyalspicy.Brussels.be/", "contact:mobile": "+32 465 40 10 28", "cuisine": "indian", "diet:vegan": "yes", "diet:vegetarian": "yes", "name": "Indian Royal Spicy", "opening_hours": "Mo-Su 12:00-15:00,17:30-23:15; We off", "outdoor_seating": "yes"}}, {"type": "node", "id": 2539275411, "lat": 50.8295108, "lon": 4.3899765, "tags": {"amenity": "restaurant", "cuisine": "portuguese", "name": "Au Cor de Chasse"}}, {"type": "node", "id": 3347853380, "lat": 50.8326316, "lon": 4.3892542, "tags": {"alt_name": "La Porte du Bengale", "amenity": "restaurant", "capacity": "30", "cuisine": "indian", "name": "Le Palais du Bengale", "smoking": "no", "takeaway": "yes"}}, {"type": "node", "id": 4214984599, "lat": 50.8364333, "lon": 4.3817546, "tags": {"amenity": "restaurant", "cuisine": "greek", "name": "Kosmos"}}, {"type": "node", "id": 4318597510, "lat": 50.8362395, "lon": 4.379861, "tags": {"amenity": "restaurant", "check_date": "2024-06-28", "cuisine": "italian", "indoor_seating": "yes", "name": "Pasta di Leo", "outdoor_seating": "pedestrian_zone", "wheelchair": "no"}}, {"type": "node", "id": 4388794636, "lat": 50.837652, "lon": 4.4040809, "tags": {"amenity": "restaurant", "contact:website": "https://www.lemondeestpetit.be/", "name": "Le Monde est petit"}}, {"type": "node", "id": 4393976320, "lat": 50.8427343, "lon": 4.400758, "tags": {"amenity": "restaurant", "check_date": "2025-08-30", "contact:phone": "+3223551485", "cuisine": "italian;pizza", "name": "La Motta", "opening_hours": "Mo-Tu off; We-Su 12:00-15:00,18:00-22:00", "outdoor_seating": "yes", "payment:cash": "yes", "payment:credit_cards": "yes", "payment:debit_cards": "yes", "takeaway": "yes"}}, {"type": "node", "id": 4413062557, "lat": 50.8303021, "lon": 4.3812005, "tags": {"amenity": "restaurant", "check_date": "2024-10-26", "cuisine": "vietnamese", "name": "O Banh Mi", "opening_hours": "Mo off;Tu-Fr 11:00-20:30;Sa-Su 12:00-20:30"}}, {"type": "node", "id": 4417740033, "lat": 50.840424, "lon": 4.4006537, "tags": {"amenity": "restaurant", "contact:phone": "+32 2 733 22 10", "contact:website": "https://latypiq.be/", "diet:vegan": "yes", "diet:vegetarian": "yes", "name": "Latypiq", "opening_hours": "Mo-Sa 09:00-22:00", "wheelchair": "limited"}}, {"type": "node", "id": 4441017282, "lat": 50.8394653, "lon": 4.4007937, "tags": {"amenity": "restaurant", "check_date": "2025-05-31", "contact:email": "info@yumizuki.com", "contact:mobile": "+32 486 81 60 32", "contact:website": "https://yumizuki.com/", "cuisine": "sushi", "delivery": "yes", "diet:vegetarian": "no", "internet_access": "wlan", "internet_access:fee": "customers", "name": "Yumizuki", "opening_hours": "Mo-Sa 11:30-21:00; Su off", "payment:cash": "yes", "payment:credit_cards": "yes", "payment:debit_cards": "yes", "takeaway": "yes", "toilets": "yes", "wheelchair": "yes"}}, {"type": "node", "id": 4581583821, "lat": 50.8335689, "lon": 4.4027047, "tags": {"amenity": "restaurant", "check_date": "2025-10-28", "cuisine": "indian", "name": "Chai and Thali", "opening_hours": "Su, We-Th 12:00-16:00, 18:00-21:30; Mo 18:00-21:30; Fr-Sa 12:00-16:00, 18:00-22:00", "self_service": "partially"}}, {"type": "node", "id": 4853675148, "lat": 50.8372168, "lon": 4.4054126, "tags": {"amenity": "restaurant", "contact:mobile": "+32 467 80 25 24", "contact:website": "https://hanoistation.be/", "cuisine": "vietnamese", "name": "Hanoi Station", "opening_hours": "Mo-Su 11:30-14:30,18:00-21:30"}}, {"type": "node", "id": 4866234658, "lat": 50.8392742, "lon": 4.3857544, "tags": {"amenity": "restaurant", "cuisine": "greek", "internet_access": "yes", "name": "Meatropolis", "opening_hours": "Mo 12:00-14:00; Tu-Fr 12:00-14:00,19:30-22:30; Sa 19:00-23:00", "outdoor_seating": "no"}}, {"type": "node", "id": 4890506560, "lat": 50.8396092, "lon": 4.3825354, "tags": {"alt_name": "Bois Savanes In Town", "amenity": "restaurant", "contact:phone": "+32 2 230 34 46", "contact:website": "https://www.boissavanes.be", "cuisine": "thai", "name": "Bois Savanes"}}, {"type": "node", "id": 4890538627, "lat": 50.8397125, "lon": 4.3828519, "tags": {"amenity": "restaurant", "contact:phone": "+32 2 725 71 88", "contact:website": "http://www.ristorantedaisardi-caralis.be", "cuisine": "italian", "name": "Dai Sardi Ristorante Caralis", "opening_hours": "Mo-Fr 12:00-14:30,19:00-22:00; Sa 19:00-22:00"}}, {"type": "node", "id": 5073100220, "lat": 50.8388509, "lon": 4.3859775, "tags": {"amenity": "restaurant", "branch": "Cinquantenaire", "contact:website": "https://www.seven-brussels.com/cinquantenaire/", "name": "seven"}}, {"type": "node", "id": 5211692522, "lat": 50.837085, "lon": 4.3817898, "tags": {"amenity": "restaurant", "contact:email": "info@siendas.be", "contact:facebook": "https://www.facebook.com/siendasbelgium", "contact:instagram": "https://www.instagram.com/siendas.belgium/", "contact:phone": "+32 2 476 11 65", "contact:website": "https://siendas.be/", "name": "Siendas", "origin": "sardinian", "shop": "convenience"}}, {"type": "node", "id": 5211701221, "lat": 50.8372876, "lon": 4.381775, "tags": {"amenity": "restaurant", "contact:phone": "+32 2 486 00 00", "cuisine": "burger", "diet:gluten_free": "yes", "indoor_seating": "yes", "name": "Ellis Gourmet Burger", "opening_hours": "Mo-Th,Su 11:30-22:00; Fr-Sa 11:30-23:00", "outdoor_seating": "yes", "self_service": "no", "website": "https://ellis.be/fr-be/", "wheelchair": "limited"}}, {"type": "node", "id": 5508752810, "lat": 50.8272333, "lon": 4.4020071, "tags": {"amenity": "restaurant", "contact:website": "https://www.pizzeriaitrulli.be/", "cuisine": "pizza", "name": "I Trulli", "opening_hours": "Mo-Fr 11:30-14:00, Mo-Su 17:00-22:00"}}, {"type": "node", "id": 5552528310, "lat": 50.8366718, "lon": 4.4042996, "tags": {"amenity": "restaurant", "cuisine": "french", "name": "Hadrien"}}, {"type": "node", "id": 5559469634, "lat": 50.8365052, "lon": 4.40422, "tags": {"amenity": "restaurant", "name": "La fleur d'oranger"}}, {"type": "node", "id": 5933705785, "lat": 50.8365336, "lon": 4.3802228, "tags": {"amenity": "restaurant", "check_date": "2023-08-26", "contact:phone": "+32 2 230 01 31", "cuisine": "thai", "name": "Thai Hon", "opening_hours": "Mo-Sa 19:00-22:00"}}, {"type": "node", "id": 6057563725, "lat": 50.8360715, "lon": 4.4062723, "tags": {"amenity": "restaurant", "changing_table": "no", "changing_table:adult": "no", "contact:email": "hello@tiger.brussels", "contact:facebook": "tiger.brussels", "contact:instagram": "tiger.brussels", "contact:phone": "+32 2 767 80 09", "contact:tiktok": "tiger.brussels", "contact:website": "https://www.tiger.brussels/", "cuisine": "belgian;asian", "diet:vegan": "no", "diet:vegetarian": "limited", "drink:cocktail": "served", "entrance:step_count": "0", "entrance:width": "2", "indoor_seating": "yes", "level": "0", "lgbtq:signed": "no", "name": "Tiger", "opening_hours": "Mo-We 12:00-14:30,18:00-22:30; Th-Fr 12:00-14:30,18:00-23:00; Sa 18:00-23:00", "outdoor_seating": "yes", "reservation": "yes", "reservation:website": "https://www.tiger.brussels/reservations", "takeaway": "yes", "toilets:access": "customers", "toilets:wheelchair": "no", "wheelchair:description": "Several steps to be able to access toilet, stairs have handrail.", "wheelchair:turning_circle": "no"}}, {"type": "node", "id": 6603705885, "lat": 50.8367731, "lon": 4.3833302, "tags": {"amenity": "restaurant", "check_date": "2024-08-29", "contact:facebook": "https://www.facebook.com/Originerestaurant/", "contact:instagram": "https://www.instagram.com/originerestaurant/", "contact:phone": "+32 2 256 68 93", "contact:website": "https://origine-restaurant.be", "cuisine": "french;regional", "diet:non-vegetarian": "yes", "diet:vegetarian": "yes", "internet_access": "wlan", "name": "Origine", "opening_hours": "Tu-Fr 12:00-14:00,19:00-21:30", "outdoor_seating": "yes", "payment:cash": "yes", "payment:credit_cards": "yes", "payment:debit_cards": "yes"}}, {"type": "node", "id": 7231290785, "lat": 50.8369658, "lon": 4.3810202, "tags": {"amenity": "restaurant", "check_date:opening_hours": "2023-04-01", "cuisine": "ramen;japanese", "indoor_seating": "yes", "name": "Menma", "opening_hours:signed": "no", "outdoor_seating": "pedestrian_zone", "wheelchair": "no"}}, {"type": "node", "id": 7258406604, "lat": 50.8303644, "lon": 4.3931907, "tags": {"amenity": "restaurant", "name": "Le Sport Life", "opening_hours": "Mo-Fr 10:00-23:00; Sa,Su 10:00-20:00"}}, {"type": "node", "id": 7918400185, "lat": 50.8364384, "lon": 4.3805112, "tags": {"alt_name": "La cuisine de Maman !", "amenity": "restaurant", "check_date": "2024-06-24", "cuisine": "lebanese;mediterranean", "indoor_seating": "yes", "name": "Tamy", "opening_hours": "Tu-Fr 12:00-15:00,18:00-22:00; Su 11:00-16:00", "outdoor_seating": "yes"}}, {"type": "node", "id": 8299413840, "lat": 50.8369781, "lon": 4.3888695, "tags": {"amenity": "restaurant", "check_date": "2022-08-21", "contact:email": "info@napizza.be", "contact:facebook": "https://www.facebook.com/napizza.be", "contact:instagram": "https://www.instagram.com/napizza.be/", "contact:phone": "+32 2 469 00 83", "contact:website": "https://napizza.be/", "cuisine": "pizza", "delivery": "yes", "name": "'naPizz\u00e0", "opening_hours": "Mo-Fr 12:00-14:00; Sa 18:30-22:30; Su off"}}, {"type": "node", "id": 8396300409, "lat": 50.8305204, "lon": 4.392032, "tags": {"amenity": "restaurant", "contact:website": "https://www.komalamaison.be/", "name": "KOM \u00e0 la maison"}}, {"type": "node", "id": 8778759717, "lat": 50.8338527, "lon": 4.4025092, "tags": {"amenity": "restaurant", "contact:phone": "+32 2 736 93 10", "cuisine": "italian_pizza", "diet:vegetarian": "yes", "name": "Au Nouveau Pont", "opening_hours": "Mo-Su 10:00-22:00"}}, {"type": "node", "id": 9032592383, "lat": 50.8367756, "lon": 4.3835463, "tags": {"amenity": "restaurant", "name": "Il Sorriso"}}, {"type": "node", "id": 9654651459, "lat": 50.8362525, "lon": 4.3815374, "tags": {"amenity": "restaurant", "contact:phone": "+32 2 514 49 95", "contact:website": "https://eccetera.be/", "cuisine": "italian", "name": "Eccetera", "opening_hours": "Mo off; Mo-Fr, Su 12:00-14:30,18:30-22:00; Sa 18:30-22:00", "payment:cash": "yes", "payment:maestro": "no", "payment:mastercard": "yes", "payment:visa": "yes", "takeaway": "yes"}}, {"type": "node", "id": 10162152869, "lat": 50.8320818, "lon": 4.4042949, "tags": {"alt_name": "Hoi-Sea", "amenity": "restaurant", "cuisine": "ramen;sushi", "name": "Hoi sea", "opening_hours": "Mo-Sa 11:30-14:30,18:00-22:00; Su off", "website": "https://hoi-sea.business.site/"}}, {"type": "node", "id": 10766936737, "lat": 50.8366802, "lon": 4.3810056, "tags": {"amenity": "restaurant", "check_date": "2023-03-27", "indoor_seating": "yes", "name": "Mine Madeh", "outdoor_seating": "pedestrian_zone", "wheelchair": "no"}}, {"type": "node", "id": 10861013671, "lat": 50.8364594, "lon": 4.37983, "tags": {"amenity": "restaurant", "name": "Le Schievelavabo", "opening_hours": "Mo 12:00-14:30,18:30-22:00; Tu-Fr 12:00-14:30,18:30-23:00; Sa 18:30-23:00; Su 18:30-22:00", "website": "https://schievelavabo.com/restaurants/jourdan", "wheelchair": "limited"}}, {"type": "node", "id": 11035866115, "lat": 50.8383266, "lon": 4.3978146, "tags": {"amenity": "restaurant", "contact:website": "https://mytannour.com/", "cuisine": "syrian", "delivery": "yes", "diet:vegan": "yes", "diet:vegetarian": "yes", "name": "My Tannour", "opening_hours": "Mo-Su 12:00-23:00", "outdoor_seating": "yes", "takeaway": "yes", "wheelchair": "limited"}}, {"type": "node", "id": 11108197389, "lat": 50.8363583, "lon": 4.3801602, "tags": {"amenity": "restaurant", "check_date": "2023-08-11", "check_date:opening_hours": "2023-08-11", "contact:phone": "+32 2 644 25 52", "cuisine": "sushi", "name": "Espace sushi", "opening_hours:signed": "no", "wheelchair": "no"}}, {"type": "node", "id": 11190610563, "lat": 50.8367897, "lon": 4.3956702, "tags": {"amenity": "restaurant", "cuisine": "chinese", "diet:vegetarian": "no", "name": "China Express", "wheelchair": "limited"}}, {"type": "node", "id": 11219488723, "lat": 50.8313005, "lon": 4.3997977, "tags": {"amenity": "restaurant", "cuisine": "italian", "name": "Dai Bimbi", "website": "https://daibimbi.be"}}, {"type": "node", "id": 11219571732, "lat": 50.8311778, "lon": 4.4003895, "tags": {"amenity": "restaurant", "contact:facebook": "https://www.facebook.com/profile.php?id=61564326254701", "contact:mobile": "+32 496 87 22 03", "cuisine": "ethiopian", "diet:gluten_free": "yes", "diet:vegan": "yes", "diet:vegetarian": "yes", "name": "Fasika"}}, {"type": "node", "id": 11219572036, "lat": 50.8303339, "lon": 4.4008803, "tags": {"amenity": "restaurant", "cuisine": "chinese", "name": "Hong Kong Express", "takeaway": "yes"}}, {"type": "node", "id": 11340458879, "lat": 50.8370691, "lon": 4.381022, "tags": {"addr:housenumber": "52", "addr:street": "Place Jourdan - Jourdanplein", "entrance": "yes", "ref:UrbIS": "8430161"}}, {"type": "node", "id": 11387359224, "lat": 50.8326745, "lon": 4.3888522, "tags": {"amenity": "restaurant", "cuisine": "spanish", "name": "Casa Juan"}}, {"type": "node", "id": 11387359235, "lat": 50.8358791, "lon": 4.3871557, "tags": {"amenity": "restaurant", "check_date": "2024-06-08", "contact:email": "panuwat2495@yahoo.com", "contact:phone": "+32 2 649 43 66", "contact:website": "https://www.sukhothai.be", "cuisine": "thai", "name": "Sukhothai"}}, {"type": "node", "id": 11727704330, "lat": 50.8382458, "lon": 4.4018371, "tags": {"amenity": "restaurant", "check_date:opening_hours": "2023-12-16", "contact:website": "https://www.buonemaniere.be", "cuisine": "italian", "name": "Le Buone Maniere", "opening_hours:signed": "no"}}, {"type": "node", "id": 11730308198, "lat": 50.839693, "lon": 4.3994122, "tags": {"amenity": "restaurant", "check_date:opening_hours": "2024-04-28", "contact:website": "https://www.makifornia.be", "cuisine": "sushi", "name": "Makifornia Merode", "opening_hours:signed": "no"}}, {"type": "node", "id": 11830861911, "lat": 50.834059, "lon": 4.402412, "tags": {"amenity": "restaurant", "contact:mobile": "+32 495 52 94 94", "cuisine": "nicaraguan", "name": "Lagos & Volcanes"}}, {"type": "node", "id": 12072050101, "lat": 50.8364108, "lon": 4.3803905, "tags": {"amenity": "restaurant", "cuisine": "vietnamese", "name:signed": "no"}}, {"type": "node", "id": 12147659140, "lat": 50.8307657, "lon": 4.389387, "tags": {"amenity": "restaurant", "check_date": "2024-08-31", "contact:mobile": "+32 484 58 88 19", "cuisine": "asian;chinese;vietnamese;thai", "name": "Chez Sun", "opening_hours": "12:00-23:00", "payment:cash": "yes", "payment:mastercard": "yes", "payment:visa": "yes"}}, {"type": "node", "id": 12238588867, "lat": 50.8326649, "lon": 4.4031588, "tags": {"amenity": "restaurant", "cuisine": "kebab;grill", "name": "Snack Grillade Rubens", "opening_hours": "Tu-Fr 12:00-15:00,18:00-23:00; Sa,Su 12:00-23:00"}}, {"type": "node", "id": 12320541845, "lat": 50.839531, "lon": 4.400814, "tags": {"amenity": "restaurant", "cuisine": "italian", "name": "Don Antonio"}}, {"type": "way", "id": 663209870, "nodes": [2360603219, 339180431, 2360603231, 2360603161, 2360603160, 2360603227, 11340458879, 1023852851, 2360603215, 2360603206, 2360603219], "tags": {"amenity": "restaurant", "indoor_seating": "yes", "name": "Brasserie Signature", "outdoor_seating": "yes"}}, {"type": "way", "id": 663802024, "nodes": [2367110777, 2367110779, 2369544111, 2367110746, 2367110745, 2367110743, 1025535773, 2367110759, 2367110777], "tags": {"amenity": "restaurant", "cuisine": "sardinian", "name": "Antas", "official_name": "Ristorante Antas", "opening_hours": "Tu-Sa 12:00-14:30,18:30-22:00; Su 12:00-14:30"}}]}