{"version": 0.6, "generator": "Overpass API 0.7.62.10 2d4cfc48", "osm3s": {"timestamp_osm_base": "2026-02-03T09:24:45Z", "copyright": "The data included in this document is from www.openstreetmap.org. The data is made available under ODbL."}, "elements": [{"type": "node", "id": 1276838110, "lat": 50.8773529, "lon": 4.3788115, "tags": {"amenity": "cafe", "entrance:kerb:height": "13", "entrance:step_count": "1", "entrance:width": "83", "name": "Taverne Spoorweg"}}, {"type": "node", "id": 11220109669, "lat": 50.8748172, "lon": 4.3799249, "tags": {"amenity": "cafe", "entrance:step_count": "0", "entrance:width": "60", "name": "Le Condor"}}, {"type": "node", "id": 12131325987, "lat": 50.8738659, "lon": 4.3840191, "tags": {"amenity": "cafe", "name": "Cafe Riga", "opening_hours": "Mo-Su 08:30-23:00", "outdoor_seating": "yes"}}, {"type": "node", "id": 12770275334, "lat": 50.8773153, "lon": 4.3788633, "tags": {"amenity": "cafe"}}, {"type": "node", "id": 12770275335, "lat": 50.8772535, "lon": 4.3789483, "tags": {"amenity": "cafe", "name": "Le Cheval de Fer"}}]}