{"version": 0.6, "generator": "Overpass API 0.7.62.10 2d4cfc48", "osm3s": {"timestamp_osm_base": "2026-02-02T17:57:15Z", "copyright": "The data included in this document is from www.openstreetmap.org. The data is made available under ODbL."}, "elements": [{"type": "node", "id": 370759966, "lat": 50.8116428, "lon": 4.4276503, "tags": {"name": "Herrmann-Debroux", "public_transport": "stop_position", "railway": "tram_stop", "tram": "yes"}}, {"type": "node", "id": 370760304, "lat": 50.7982151, "lon": 4.4187415, "tags": {"name": "Wiener", "public_transport": "stop_position", "railway": "tram_stop", "tram": "yes"}}, {"type": "node", "id": 2591016623, "lat": 50.8184705, "lon": 4.4506788, "tags": {"name": "Auderghem-For\u00eat - Oudergem-Woud", "name:fr": "Auderghem-For\u00eat", "name:nl": "Oudergem-Woud", "public_transport": "stop_position", "railway": "tram_stop", "tram": "yes"}}, {"type": "node", "id": 2591016641, "lat": 50.8185968, "lon": 4.4503014, "tags": {"name": "Auderghem-For\u00eat - Oudergem-Woud", "name:fr": "Auderghem-For\u00eat", "name:nl": "Oudergem-Woud", "public_transport": "stop_position", "railway": "tram_stop", "tram": "yes"}}, {"type": "node", "id": 2591016704, "lat": 50.8198162, "lon": 4.4674897, "tags": {"name": "Tir aux Pigeons - Duivenschieting", "name:fr": "Tir aux Pigeons", "name:nl": "Duivenschieting", "public_transport": "stop_position", "railway": "tram_stop", "tram": "yes"}}, {"type": "node", "id": 2591016706, "lat": 50.8198638, "lon": 4.4677034, "tags": {"name": "Tir aux Pigeons - Duivenschieting", "name:fr": "Tir aux Pigeons", "name:nl": "Duivenschieting", "public_transport": "stop_position", "railway": "tram_stop", "tram": "yes"}}, {"type": "node", "id": 3136263167, "lat": 50.79546, "lon": 4.4078132, "tags": {"name": "Boitsfort Gare - Bosvoorde Station", "name:fr": "Boitsfort Gare", "name:nl": "Bosvoorde Station", "public_transport": "stop_position", "railway": "tram_stop", "tram": "yes"}}, {"type": "node", "id": 3136263205, "lat": 50.7956231, "lon": 4.4128201, "tags": {"name": "Delleur", "public_transport": "stop_position", "railway": "tram_stop", "tram": "yes"}}, {"type": "node", "id": 3136263225, "lat": 50.7957492, "lon": 4.4135723, "tags": {"name": "Delleur", "public_transport": "stop_position", "railway": "tram_stop", "tram": "yes"}}, {"type": "node", "id": 3136263309, "lat": 50.7967015, "lon": 4.3989308, "tags": {"name": "Hippodrome de Boitsfort - Renbaan van Bosvoorde", "name:fr": "Hippodrome de Boitsfort", "name:nl": "Renbaan van Bosvoorde", "public_transport": "stop_position", "railway": "tram_stop", "tram": "yes"}}, {"type": "node", "id": 3136263316, "lat": 50.7967993, "lon": 4.3984487, "tags": {"name": "Hippodrome de Boitsfort - Renbaan van Bosvoorde", "name:fr": "Hippodrome de Boitsfort", "name:nl": "Renbaan van Bosvoorde", "public_transport": "stop_position", "railway": "tram_stop", "tram": "yes"}}, {"type": "node", "id": 3136263431, "lat": 50.7981191, "lon": 4.4182652, "tags": {"name": "Wiener", "public_transport": "stop_position", "railway": "tram_stop", "tram": "yes"}}, {"type": "node", "id": 3136263644, "lat": 50.801001, "lon": 4.4226723, "tags": {"name": "Fauconnerie - Valkerij", "name:fr": "Fauconnerie", "name:nl": "Valkerij", "public_transport": "stop_position", "railway": "tram_stop", "tram": "yes"}}, {"type": "node", "id": 3136263659, "lat": 50.8012334, "lon": 4.3933565, "tags": {"name": "Boondael Gare - Boondaal Station", "name:fr": "Boondael Gare", "name:nl": "Boondaal Station", "public_transport": "stop_position", "railway": "tram_stop", "tram": "yes"}}, {"type": "node", "id": 3136263665, "lat": 50.8014266, "lon": 4.393004, "tags": {"name": "Boondael Gare - Boondaal Station", "name:fr": "Boondael Gare", "name:nl": "Boondaal Station", "public_transport": "stop_position", "railway": "tram_stop", "tram": "yes"}}, {"type": "node", "id": 3136263695, "lat": 50.8048539, "lon": 4.4263904, "tags": {"name": "Tenreuken", "public_transport": "stop_position", "railway": "tram_stop", "tram": "yes"}}, {"type": "node", "id": 3136263709, "lat": 50.8050993, "lon": 4.4267053, "tags": {"name": "Tenreuken", "public_transport": "stop_position", "railway": "tram_stop", "tram": "yes"}}, {"type": "node", "id": 3136263769, "lat": 50.8120392, "lon": 4.4277479, "tags": {"name": "Herrmann-Debroux", "public_transport": "stop_position", "railway": "tram_stop", "tram": "yes"}}, {"type": "node", "id": 4233699612, "lat": 50.8027502, "lon": 4.3904305, "tags": {"name": "Br\u00e9sil - Brazili\u00eb", "name:fr": "Br\u00e9sil", "name:nl": "Brazili\u00eb", "public_transport": "stop_position", "railway": "tram_stop", "tram": "yes"}}, {"type": "node", "id": 4233699614, "lat": 50.8028597, "lon": 4.39037, "tags": {"name": "Br\u00e9sil - Brazili\u00eb", "name:fr": "Br\u00e9sil", "name:nl": "Brazili\u00eb", "public_transport": "stop_position", "railway": "tram_stop", "tram": "yes"}}, {"type": "node", "id": 4806127047, "lat": 50.8008065, "lon": 4.3940443, "tags": {"name": "Boondael Gare - Boondaal Station", "name:fr": "Boondael Gare", "name:nl": "Boondaal Station", "public_transport": "stop_position", "railway": "tram_stop", "tram": "yes"}}, {"type": "node", "id": 4943887039, "lat": 50.8008508, "lon": 4.4223533, "tags": {"name": "Fauconnerie - Valkerij", "name:fr": "Fauconnerie", "name:nl": "Valkerij", "public_transport": "stop_position", "railway": "tram_stop", "tram": "yes"}}, {"type": "node", "id": 4977578451, "lat": 50.7955628, "lon": 4.4071524, "tags": {"name": "Boitsfort Gare - Bosvoorde Station", "name:fr": "Boitsfort Gare", "name:nl": "Bosvoorde Station", "public_transport": "stop_position", "railway": "tram_stop", "tram": "yes"}}, {"type": "node", "id": 4983752235, "lat": 50.8090981, "lon": 4.4275687, "tags": {"name": "Parc Seny - Seny-park", "name:fr": "Parc Seny", "name:nl": "Seny-park", "public_transport": "stop_position", "railway": "tram_stop", "tram": "yes"}}, {"type": "node", "id": 4983752240, "lat": 50.8082861, "lon": 4.4271939, "tags": {"name": "Parc Seny - Seny-park", "name:fr": "Parc Seny", "name:nl": "Seny-park", "public_transport": "stop_position", "railway": "tram_stop", "tram": "yes"}}, {"type": "node", "id": 5156728480, "lat": 50.8189052, "lon": 4.4572318, "tags": {"name": "Dr\u00e8ve des Br\u00fbl\u00e9s - Verbrandendreef", "name:fr": "Dr\u00e8ve des Br\u00fbl\u00e9s", "name:nl": "Verbrandendreef", "public_transport": "stop_position", "railway": "tram_stop", "tram": "yes"}}, {"type": "node", "id": 5156728486, "lat": 50.818944, "lon": 4.4573726, "tags": {"name": "Dr\u00e8ve des Br\u00fbl\u00e9s - Verbrandendreef", "name:fr": "Dr\u00e8ve des Br\u00fbl\u00e9s", "name:nl": "Verbrandendreef", "public_transport": "stop_position", "railway": "tram_stop", "tram": "yes"}}]}