{"version": 0.6, "generator": "Overpass API 0.7.62.10 2d4cfc48", "osm3s": {"timestamp_osm_base": "2026-02-02T17:02:00Z", "copyright": "The data included in this document is from www.openstreetmap.org. The data is made available under ODbL."}, "elements": [{"type": "node", "id": 870363570, "lat": 50.8465296, "lon": 4.3591367, "tags": {"amenity": "restaurant", "contact:email": "moodsbxl@gmail.com", "contact:mobile": "+32 488 76 26 50", "contact:phone": "+32 2 513 80 29", "contact:website": "https://www.moodsbxl.be/", "indoor_seating": "yes", "name": "Moods", "opening_hours": "Mo-Fr 10:30-24:00; Sa 16:30-24:00; Su off", "outdoor_seating": "no", "payment:cash": "yes", "payment:maestro": "yes", "payment:mastercard": "yes"}}, {"type": "node", "id": 2339843290, "lat": 50.8487834, "lon": 4.3666289, "tags": {"amenity": "restaurant", "contact:email": "info@madous-folie.be", "contact:phone": "+32 2 217 38 31", "contact:website": "https://www.resto-madous-folie.be", "cuisine": "regional", "name": "Madou's Folie", "opening_hours": "Mo-Fr 12:00-15:00,18:30-22:00", "payment:cash": "yes", "payment:maestro": "yes", "payment:mastercard": "yes", "payment:visa": "yes"}}, {"type": "node", "id": 2339843363, "lat": 50.8483884, "lon": 4.3644704, "tags": {"amenity": "restaurant", "contact:phone": "+32 2 219 42 00", "contact:website": "http://www.la-bottega-resto.be/", "cuisine": "italian", "name": "La Bottega", "opening_hours": "Mo-We 12:00-15:00; Th-Fr 12:00-15:00,18:00-23:00; Sa,Su,PH off"}}, {"type": "node", "id": 2339843382, "lat": 50.848226, "lon": 4.36499, "tags": {"amenity": "restaurant", "contact:email": "info@ahnonpeutetre.brussels", "contact:website": "https://www.ahnonpeutetre.brussels/", "cuisine": "regional", "name": "Ah non peut-\u00eatre !", "opening_hours": "Mo-Fr 11:30-14:30", "payment:maestro": "yes", "payment:mastercard": "yes", "payment:visa": "yes", "wheelchair": "no"}}, {"type": "node", "id": 2341205042, "lat": 50.8479706, "lon": 4.364618, "tags": {"amenity": "restaurant", "cuisine": "italian", "name": "Agora", "wheelchair": "no"}}, {"type": "node", "id": 2341205071, "lat": 50.8480011, "lon": 4.3647704, "tags": {"amenity": "restaurant", "check_date:opening_hours": "2021-06-25", "contact:phone": "+32 2 627 15 50", "name": "Bonjour Colette", "opening_hours": "Mo-Fr 11:30-15:00", "wheelchair": "no"}}, {"type": "node", "id": 2514211608, "lat": 50.8450117, "lon": 4.3582318, "tags": {"amenity": "restaurant", "contact:website": "https://eatwell.brussels", "cuisine": "sandwich;burger;pasta", "diet:vegan": "yes", "diet:vegetarian": "yes", "indoor_seating": "yes", "name": "Eat Well", "outdoor_seating": "no", "takeaway": "yes", "wheelchair": "limited"}}, {"type": "node", "id": 2665166157, "lat": 50.8404106, "lon": 4.3599575, "tags": {"amenity": "restaurant", "cuisine": "italian", "name": "Il passatempo vini & cucina", "short_name": "Il passatempo"}}, {"type": "node", "id": 3382932808, "lat": 50.8466879, "lon": 4.3595318, "tags": {"amenity": "restaurant", "name": "Zouzou Brussels"}}, {"type": "node", "id": 3863696753, "lat": 50.8481181, "lon": 4.363584, "tags": {"amenity": "restaurant", "check_date": "2024-04-22", "fixme": "Not sure about the name, Latos Latino is the name written on the permit displayed on the shop window", "name": "Yuca Latina"}}, {"type": "node", "id": 3863699459, "lat": 50.8485277, "lon": 4.3647108, "tags": {"amenity": "restaurant", "contact:phone": "+32 2 219 54 45", "contact:website": "https://www.menthesafran.be/", "cuisine": "moroccan", "name": "Menthe & Safran", "opening_hours": "Mo-Fr 12:00-14:00,18:00-22:00; Sa 18:00-22:00; Su,PH off"}}, {"type": "node", "id": 3863699460, "lat": 50.8483621, "lon": 4.3640038, "tags": {"amenity": "restaurant", "contact:phone": "+32 2 315 24 17", "cuisine": "sushi;ramen", "diet:vegetarian": "yes", "name": "Sapporo-Shi", "opening_hours": "Mo-Fr 12:00-14:30,18:00-22:00; Sa,Su,PH 18:00-22:00"}}, {"type": "node", "id": 3863699462, "lat": 50.8486744, "lon": 4.3645411, "tags": {"amenity": "restaurant", "name": "Oda Kitchen", "opening_hours": "Mo-Sa 12:00-14:00,18:00-23:00"}}, {"type": "node", "id": 3863699466, "lat": 50.8490026, "lon": 4.3655284, "tags": {"amenity": "restaurant", "contact:fax": "+32 2 217 34 19", "contact:phone": "+32 2 217 34 19", "cuisine": "italian", "name": "Al Solito Posto", "shop": "vacant", "takeaway": "yes"}}, {"type": "node", "id": 3863737378, "lat": 50.8479968, "lon": 4.3637945, "tags": {"amenity": "restaurant", "contact:mobile": "+32 496 91 29 71", "contact:website": "https://beatrestaurants.be/", "cuisine": "belgian", "entrance:kerb:height": "0.2", "entrance:step_count": "2", "entrance:width": "1.22", "indoor_seating": "yes", "name": "Beat", "opening_hours": "11:00-01:00", "outdoor_seating": "yes", "wheelchair": "no"}}, {"type": "node", "id": 3873671159, "lat": 50.8488511, "lon": 4.3653101, "tags": {"amenity": "restaurant", "contact:facebook": "https://www.facebook.com/Chandigarh.Brussels/", "contact:instagram": "https://www.instagram.com/chandigarh_brussels/", "contact:phone": "+32 2 308 30 05", "contact:website": "https://www.chandigarh.be", "cuisine": "indian", "diet:vegan": "yes", "diet:vegetarian": "only", "facility:ayurveda": "yes", "name": "Chandigarh", "note": "they cook according to ayurvedic principles. If you find a better way to tag this, please modify", "opening_hours": "Mo,Tu off; We-Fr 18:30-22:30; Sa 11:00-14:30,18:30-22:30; Su 11:00-15:00", "outdoor_seating": "yes"}}, {"type": "node", "id": 3873685249, "lat": 50.8485695, "lon": 4.364783, "tags": {"amenity": "restaurant", "contact:facebook": "https://www.facebook.com/Barakat.Kacem.Restaurant", "contact:mobile": "+32 489 18 60 81", "contact:phone": "+32 2 830 43 18", "cuisine": "italian", "diet:halal": "yes", "diet:vegetarian": "yes", "name": "Baraka't"}}, {"type": "node", "id": 3874925140, "lat": 50.8490085, "lon": 4.3651381, "tags": {"amenity": "restaurant", "check_date": "2024-04-22", "check_date:opening_hours": "2024-04-22", "name": "Bar Brussels Tapas", "opening_hours:signed": "no"}}, {"type": "node", "id": 3874925141, "lat": 50.8490385, "lon": 4.3651954, "tags": {"amenity": "restaurant", "check_date": "2023-06-30", "check_date:opening_hours": "2024-04-22", "cuisine": "regional", "name": "Brussels Stoemp", "opening_hours:signed": "no"}}, {"type": "node", "id": 3874947573, "lat": 50.8481849, "lon": 4.3641192, "tags": {"air_conditioning": "yes", "amenity": "restaurant", "contact:facebook": "https://www.facebook.com/IndianRestaurantBrussels/", "contact:mobile": "+32 498 53 65 64", "contact:website": "https://shahitandor.be/", "cuisine": "indian", "delivery": "yes", "diet:vegan": "yes", "diet:vegetarian": "yes", "name": "Shahi Tandor", "opening_hours": "Mo-Fr 12:00-14:30, 18:00-22:30; Sa-Su 18:00-22:30", "outdoor_seating": "yes", "reservation": "yes", "takeaway": "yes"}}, {"type": "node", "id": 4342814706, "lat": 50.8482992, "lon": 4.3643164, "tags": {"amenity": "restaurant", "brewery": "various", "contact:mobile": "+32 488 94 23 69", "cuisine": "pasta;roman", "diet:vegan": "no", "diet:vegetarian": "no", "name": "La Tana", "opening_hours": "Mo-Sa 12:00-21:00"}}, {"type": "node", "id": 4413365657, "lat": 50.8481497, "lon": 4.3628372, "tags": {"amenity": "restaurant", "changing_table": "no", "changing_table:adult": "no", "cuisine": "regional", "diet:vegetarian": "yes", "indoor_seating": "yes", "level": "0", "name": "Brasserie de la Presse", "opening_hours": "Mo-Fr 12:00-22:00", "outdoor_seating": "no", "toilets:wheelchair": "yes", "toilets:wheelchair:accessible_via": "GROUND_FLOOR", "toilets:wheelchair:grab_rails": "no", "wheelchair": "yes", "wheelchair:turning_circle": "no"}}, {"type": "node", "id": 4413669627, "lat": 50.8475968, "lon": 4.3566373, "tags": {"amenity": "restaurant", "check_date": "2024-04-16", "indoor_seating": "yes", "name": "L'arte della Pizza", "outdoor_seating": "yes"}}, {"type": "node", "id": 4553094203, "lat": 50.8448146, "lon": 4.3552976, "tags": {"amenity": "restaurant", "contact:email": "mezzeway@gmail.com", "contact:mobile": "+ 32 486 30 3374", "contact:website": "https://mezzeway.com", "craft": "caterer", "cuisine": "lebanese", "description": "Traiteur Syro Libanais", "name": "Mezzeway", "opening_hours": "Mo-Th 11:00-20:00; Fr-Su 11:00-22:00"}}, {"type": "node", "id": 4621974794, "lat": 50.8456782, "lon": 4.3589685, "tags": {"amenity": "restaurant", "contact:facebook": "https://www.facebook.com/Byblos-Lounge-370904273020439", "contact:phone": "+32 2 502 97 86", "cuisine": "italian;asian", "name": "ByBlos Lounge"}}, {"type": "node", "id": 4622040335, "lat": 50.845148, "lon": 4.359377, "tags": {"amenity": "restaurant", "changing_table": "no", "changing_table:adult": "no", "contact:phone": "+32 2 268 82 80", "cuisine": "chinese;japanese;sushi", "diet:vegan": "no", "diet:vegetarian": "no", "entrance:kerb:height": "0.14", "entrance:step_count": "1", "entrance:width": "0.8", "name": "Saveurs Edomae", "opening_hours": "Mo-Sa 12:00-15:00,18:00-22:30; Su off", "payment:maestro": "yes", "payment:mastercard": "yes", "payment:visa": "yes", "ramp:wheelchair": "no", "wheelchair:turning_circle": "no"}}, {"type": "node", "id": 4633408985, "lat": 50.8487096, "lon": 4.3646017, "tags": {"amenity": "restaurant", "name": "Sekai Corndogs"}}, {"type": "node", "id": 4633409089, "lat": 50.8484088, "lon": 4.3640841, "tags": {"alt_name": "Manola 3", "amenity": "restaurant", "contact:phone": "+32 2 223 06 96", "contact:website": "https://www.manola.be/resto/fr/3/manola-iii", "cuisine": "thai", "name": "Manola III", "opening_hours": "Mo-Fr 12:00-14:00; Tu-Su 18:30-22:30", "takeaway": "yes"}}, {"type": "node", "id": 4633409090, "lat": 50.8482945, "lon": 4.3638874, "tags": {"amenity": "restaurant", "contact:phone": "+32 2 223 33 18", "cuisine": "pizza", "name": "Rigoletto", "takeaway": "yes"}}, {"type": "node", "id": 4640235708, "lat": 50.8489647, "lon": 4.3654633, "tags": {"amenity": "restaurant", "check_date:opening_hours": "2024-04-22", "cuisine": "pizza", "name": "Fantastico", "opening_hours:signed": "no"}}, {"type": "node", "id": 4642580479, "lat": 50.848334, "lon": 4.3643766, "tags": {"amenity": "restaurant", "check_date": "2025-04-12", "contact:email": "perbaccocarmine@gmail.com", "contact:phone": "+32 2 217 00 17", "contact:website": "https://www.perbacco-bruxelles.be/", "cuisine": "pizza;italian", "diet:vegetarian": "yes", "indoor_seating": "yes", "name": "Per Bacco", "opening_hours": "Tu-Fr,Su 12:00-14:30,18:30-22:30; Sa 18:30-22:30", "outdoor_seating": "yes", "payment:credit_cards": "yes", "payment:debit_cards": "yes", "reservation": "yes", "takeaway": "yes", "wheelchair": "no"}}, {"type": "node", "id": 6216937632, "lat": 50.8486417, "lon": 4.3644849, "tags": {"amenity": "restaurant", "diet:vegan": "yes", "diet:vegetarian": "yes", "name": "Poke Go", "opening_hours": "Mo-Sa 12:00-15:00,18:00-21:30; Su off"}}, {"type": "node", "id": 6217594385, "lat": 50.8475204, "lon": 4.3613462, "tags": {"amenity": "restaurant", "check_date:opening_hours": "2025-11-05", "contact:website": "https://chezgudule.be", "entrance:kerb:height": "0.11", "entrance:step_count": "1", "entrance:width": "0.95", "indoor_seating": "yes", "name": "Chez Gudule", "opening_hours": "Mo-Fr 12:00-14:30,18:00-22:30; Th 12:00-14:30,18:00-23:00; Sa,Su off", "opening_hours:signed": "no", "outdoor_seating": "yes"}}, {"type": "node", "id": 6292978996, "lat": 50.8473556, "lon": 4.3615881, "tags": {"amenity": "restaurant", "changing_table": "no", "changing_table:adult": "no", "entrance:kerb:height": "0.1", "entrance:ramp": "no", "entrance:step_count": "1", "entrance:width": "0.9", "indoor_seating": "yes", "name": "The Brunch", "opening_hours": "Mo-Fr 10:30-15:30", "wheelchair:turning_circle": "no"}}, {"type": "node", "id": 6314058083, "lat": 50.844453, "lon": 4.3566366, "tags": {"amenity": "restaurant", "bar": "yes", "branch": "BXL", "check_date": "2025-09-29", "contact:email": "bxl@pleinpubliek.be", "contact:facebook": "pleinpubliekbxl", "contact:mobile": "+32 485 97 72 05", "contact:website": "https://pleinpubliek.be/", "cuisine": "lebanese", "diet:non-vegetarian": "yes", "diet:vegetarian": "yes", "name": "Plein Publiek", "opening_hours": "Tu,We 11:30-23:00; Th 11:30-00:00; Fr,Sa 11:30-04:00; Su 11:30-24:00"}}, {"type": "node", "id": 6517895850, "lat": 50.8484708, "lon": 4.3662603, "tags": {"amenity": "restaurant", "contact:phone": "+32 2 217 28 00", "contact:website": "https://www.manola.be/resto/fr/1/manola", "cuisine": "thai", "name": "Manola", "opening_hours": "Mo-Sa 12:00-14:00", "takeaway": "yes", "wheelchair": "no"}}, {"type": "node", "id": 6517895851, "lat": 50.8484412, "lon": 4.3661054, "tags": {"amenity": "restaurant", "name": "Woods", "wheelchair": "no"}}, {"type": "node", "id": 6517916475, "lat": 50.8485532, "lon": 4.3666908, "tags": {"amenity": "restaurant", "contact:phone": "+32 2 223 25 25", "contact:website": "https://pastabar.business.site/", "cuisine": "italian;pasta", "name": "Pasta Bar", "opening_hours": "Mo-Fr 12:00-15:00", "wheelchair": "no"}}, {"type": "node", "id": 6761509714, "lat": 50.8479129, "lon": 4.3643059, "tags": {"amenity": "restaurant", "contact:phone": "+32 2 511 02 07", "contact:website": "https://www.pizzasaco.com/", "cuisine": "pizza", "name": "Pizza Saco", "opening_hours": "Mo-Fr 11:30-15:00,18:00-23:00", "wheelchair": "no"}}, {"type": "node", "id": 8711897146, "lat": 50.8480571, "lon": 4.3634789, "tags": {"amenity": "restaurant", "contact:mobile": "+32 470 41 28 11", "contact:website": "https://www.baraviandes.be/", "cuisine": "steak_house", "diet:meat": "yes", "name": "Cannibale", "opening_hours": "Th-Fr 18:00-22:00; Sa 12:00-15:00,18:00-22:00"}}, {"type": "node", "id": 8734952881, "lat": 50.84331, "lon": 4.35601, "tags": {"amenity": "restaurant", "contact:email": "info@albert.brussels", "contact:mobile": "+32 460 22 73 96", "contact:website": "https://www.albert.brussels/", "description": "daytime restaurant \u2022 field to fork \u2022 rooftop city views \u2022 private events @kbr \u2022 for cultural events, check @albert.culture", "diet:vegan": "limited", "diet:vegetarian": "yes", "level": "5", "name": "albert", "opening_hours": "Tu-Su 09:00-17:00", "outdoor_seating": "terrace"}}, {"type": "node", "id": 8863930920, "lat": 50.8424821, "lon": 4.3605058, "tags": {"amenity": "restaurant", "contact:website": "https://www.lesfilles.be/", "name": "Les Filles", "outdoor_seating": "garden"}}, {"type": "node", "id": 9329458660, "lat": 50.8441573, "lon": 4.3598898, "tags": {"amenity": "restaurant", "contact:website": "https://bozarrestaurant.be", "name": "Bozar Restaurant", "wheelchair": "yes", "wikidata": "Q66382933"}}, {"type": "node", "id": 9490366543, "lat": 50.8449452, "lon": 4.3580133, "tags": {"amenity": "restaurant", "contact:mobile": "+32 487 71 49 35", "contact:website": "https://www.arepas-factory.be/", "cuisine": "venezuelan", "name": "Arepa's Factory", "opening_hours": "Mo,Fr 10:00-15:30; Tu-Th 10:00-16:00", "panoramax": "7e2b7e3e-5a73-49f3-920d-500e814ff3e9", "website:menu": "https://www.docdroid.net/QvQM0FC/menu-af-en-pdf", "wheelchair": "limited"}}, {"type": "node", "id": 9924714463, "lat": 50.8435222, "lon": 4.3578489, "tags": {"amenity": "restaurant", "bar": "yes", "changing_table": "no", "changing_table:adult": "no", "check_date": "2025-09-29", "contact:email": "staffchateaumoderne@gmail.com", "contact:facebook": "Ch\u00e2teau-Moderne", "contact:instagram": "chateau_moderne.bxl", "contact:phone": "+32 9 298 04 68", "contact:website": "https://chateau-moderne.be/", "cuisine": "burger;fries", "diet:vegan": "no", "diet:vegetarian": "no", "entrance:kerb:height": "0.25", "entrance:step_count": "1", "entrance:width": "1.5", "name": "Ch\u00e2teau Moderne", "opening_hours": "10:00-02:00; Sa 09:00-02:00", "outdoor_seating": "terrace", "ramp:wheelchair": "no", "wheelchair": "limited", "wheelchair:turning_circle": "yes"}}, {"type": "node", "id": 10827221111, "lat": 50.840899, "lon": 4.3598741, "tags": {"amenity": "restaurant", "cuisine": "italian", "name": "La Burrata"}}, {"type": "node", "id": 11037826893, "lat": 50.8472986, "lon": 4.361, "tags": {"amenity": "restaurant", "cuisine": "regional;pizza", "entrance:kerb:height": "0.04", "entrance:step_count": "1", "entrance:width": "1.5", "indoor_seating": "yes", "name": "Croc & moi", "note": "This is the restaurant, there is another POI named Croc&moi which sells sandwiches, those are separate places", "opening_hours": "Mo-Fr 08:00-16:00", "wheelchair": "limited"}}, {"type": "node", "id": 11230619440, "lat": 50.8448291, "lon": 4.3549417, "tags": {"amenity": "restaurant", "cuisine": "indian", "name": "Naanry"}}, {"type": "node", "id": 11581463586, "lat": 50.8481128, "lon": 4.3643994, "tags": {"amenity": "restaurant", "check_date": "2024-07-21", "cuisine": "lebanese", "wheelchair": "no"}}, {"type": "node", "id": 11793976813, "lat": 50.8431993, "lon": 4.3585951, "tags": {"amenity": "restaurant", "diet:vegetarian": "yes", "drink:coffee": "yes", "name": "Superbowl", "outdoor_seating": "yes", "payment:credit_cards": "yes"}}, {"type": "node", "id": 11877749516, "lat": 50.8482515, "lon": 4.3684291, "tags": {"amenity": "restaurant", "contact:phone": "+32 2 514 14 80", "cuisine": "thai;vietnamese", "name": "Kumquat", "opening_hours": "11:00-15:00,18:00-20:00"}}, {"type": "node", "id": 11958219836, "lat": 50.8442244, "lon": 4.3589712, "tags": {"amenity": "restaurant", "changing_table": "no", "changing_table:adult": "no", "created_by": "On Wheels 42", "diet:vegan": "no", "diet:vegetarian": "no", "entrance:kerb:height": "0.1", "entrance:step_count": "1", "entrance:width": "0.8", "name": "The New Break", "ramp:wheelchair": "no", "wheelchair": "no", "wheelchair:turning_circle": "no"}}, {"type": "node", "id": 12251216162, "lat": 50.8467947, "lon": 4.359375, "tags": {"amenity": "restaurant", "bar": "yes", "check_date:opening_hours": "2025-11-05", "name": "The Living", "opening_hours:signed": "no"}}, {"type": "node", "id": 12840688030, "lat": 50.8484325, "lon": 4.36606, "tags": {"amenity": "restaurant", "name": "La Cezieria", "wheelchair": "no"}}, {"type": "node", "id": 13083259578, "lat": 50.8468954, "lon": 4.3599987, "tags": {"amenity": "restaurant", "contact:website": "https://www.fonteynethekitchen.be/", "name": "Fonteyne The Kitchen"}}, {"type": "node", "id": 13203899912, "lat": 50.8469569, "lon": 4.3599743, "tags": {"amenity": "restaurant", "name": "Coucoupot"}}]}