{"version": 0.6, "generator": "Overpass API 0.7.62.10 2d4cfc48", "osm3s": {"timestamp_osm_base": "2026-02-02T17:09:04Z", "copyright": "The data included in this document is from www.openstreetmap.org. The data is made available under ODbL."}, "elements": [{"type": "node", "id": 674681221, "lat": 50.8529978, "lon": 4.3454388, "tags": {"amenity": "restaurant", "contact:email": "info@chicagotrattoria.be", "contact:mobile": "+32 486 30 90 64", "contact:phone": "+32 2 465 96 71", "contact:website": "https://chicagocafe.be/chicago-trattoria-home", "cuisine": "pizza;italian;pasta", "entrance:kerb:height": "0.06", "entrance:step_count": "1", "entrance:width": "0.85", "name": "Chicago Trattoria", "opening_hours": "Tu-Fr 12:00-14:00, 18:00-22:00; Sa-Su 18:00-22:00", "wheelchair:turning_circle": "yes"}}, {"type": "node", "id": 933102661, "lat": 50.85014, "lon": 4.3479085, "tags": {"amenity": "restaurant", "contact:phone": "+32 2 882 08 85", "contact:website": "https://takumiramennoodles.com/be/brussels-catherine2/", "cuisine": "japanese", "name": "Takumi Tonkotsu Ramen", "opening_hours": "Mo-Sa 12:00-22:00; Su 12:00-21:00"}}, {"type": "node", "id": 2414370933, "lat": 50.8510356, "lon": 4.3481828, "tags": {"amenity": "restaurant", "changing_table": "no", "contact:phone": "+32 2 511 60 89", "contact:website": "https://restaurant-francois.be/", "cuisine": "fish", "diet:vegetarian": "no", "entrance:kerb:height": "0.1", "entrance:ramp": "no", "entrance:step_count": "1", "entrance:width": "0.8", "indoor_seating": "yes", "name": "Fran\u00e7ois", "opening_hours": "12:00-14:30,18:30-22:30", "outdoor_seating": "yes", "toilets:wheelchair": "no", "wheelchair": "no", "wheelchair:turning_circle": "no"}}, {"type": "node", "id": 2414370935, "lat": 50.85144, "lon": 4.3479042, "tags": {"amenity": "restaurant", "changing_table": "no", "check_date": "2025-08-11", "cuisine": "seafood", "entrance:kerb:height": "0.12", "entrance:ramp": "no", "entrance:step_count": "1", "entrance:width": "1.04", "name": "Master Crab", "toilets:wheelchair": "no", "toilets:wheelchair:accessible_via": "elevator", "wheelchair": "no", "wheelchair:turning_circle": "no"}}, {"type": "node", "id": 2414370936, "lat": 50.8518254, "lon": 4.3476388, "tags": {"amenity": "restaurant", "contact:phone": "+32 2 513 05 13", "cuisine": "japanese", "indoor_seating": "yes", "name": "Menma", "opening_hours": "Tu-Fr 12:00-14:30,19:00-22:00; Sa-Su 12:00-22:00", "outdoor_seating": "yes"}}, {"type": "node", "id": 2414370937, "lat": 50.8512949, "lon": 4.3480042, "tags": {"amenity": "restaurant", "cuisine": "fish", "diet:vegetarian": "no", "name": "Le Quai", "wheelchair": "no"}}, {"type": "node", "id": 2414370938, "lat": 50.85133, "lon": 4.34798, "tags": {"amenity": "restaurant", "changing_table": "no", "cuisine": "fish", "diet:vegetarian": "no", "entrance:kerb:height": "0.11", "entrance:ramp": "no", "entrance:step_count": "1", "entrance:width": "0.88", "name": "Le Vistro", "toilets:wheelchair": "yes", "toilets:wheelchair:accessible_via": "ground floor", "wheelchair": "no", "wheelchair:turning_circle": "yes"}}, {"type": "node", "id": 2414370939, "lat": 50.8511776, "lon": 4.3480849, "tags": {"amenity": "restaurant", "diet:vegetarian": "no", "indoor_seating": "yes", "name": "Mussel Mongers", "outdoor_seating": "yes"}}, {"type": "node", "id": 2414370943, "lat": 50.8513704, "lon": 4.3479522, "tags": {"amenity": "restaurant", "check_date": "2025-08-11", "contact:phone": "+32 2 567 94 05", "cuisine": "korean", "name": "Gigi Korean BBQ", "opening_hours": "Mo,We-Su 12:00-15:00,17:00-23:00"}}, {"type": "node", "id": 2420204400, "lat": 50.8528035, "lon": 4.3469652, "tags": {"amenity": "restaurant", "name": "Africa"}}, {"type": "node", "id": 2420204401, "lat": 50.8525259, "lon": 4.3471564, "tags": {"amenity": "restaurant", "contact:website": "https://www.bijdenboer.com/", "cuisine": "fish", "diet:vegetarian": "no", "indoor_seating": "yes", "name": "Bij den Boer", "opening_hours": "Mo-Sa 12:00-14:30,18:00-22:30; Su off", "outdoor_seating": "yes", "wheelchair": "no"}}, {"type": "node", "id": 2420204405, "lat": 50.8520688, "lon": 4.3474712, "tags": {"amenity": "restaurant", "contact:facebook": "https://www.facebook.com/restaurantchezjacques/", "contact:instagram": "https://www.instagram.com/jacquesrestaurant/", "contact:phone": "+32 2 512 20 27", "contact:website": "https://www.restaurantjacques.be/", "cuisine": "fish", "indoor_seating": "yes", "name": "Jacques", "opening_hours": "Tu-Sa 12:00-14:00,18:00-22:00", "outdoor_seating": "yes", "wheelchair": "no"}}, {"type": "node", "id": 2422528371, "lat": 50.8532828, "lon": 4.3475568, "tags": {"amenity": "restaurant", "changing_table": "no", "cuisine": "french", "entrance:kerb:height": "0", "entrance:step_count": "0", "entrance:width": "1.03", "name": "La Boussole", "payment:american_express": "yes", "payment:mastercard": "yes", "payment:visa": "yes", "payment:visa_electron": "yes", "wheelchair:turning_circle": "no"}}, {"type": "node", "id": 2422528374, "lat": 50.8517211, "lon": 4.3486323, "tags": {"amenity": "restaurant", "cuisine": "pasta", "name": "Pasta Bar", "note": "Closed as of 2023-07-22, could not determine whether it is out of business or closed during holidays"}}, {"type": "node", "id": 2506689132, "lat": 50.8533239, "lon": 4.3418939, "tags": {"amenity": "restaurant", "contact:mobile": "+32 465 16 17 45", "cuisine": "syrian", "diet:vegan": "limited", "diet:vegetarian": "yes", "name": "Midan de Damas", "opening_hours": "Mo-Su 12:00-24:00", "reservation": "yes", "takeaway": "yes"}}, {"type": "node", "id": 2509496037, "lat": 50.8519414, "lon": 4.3507362, "tags": {"amenity": "restaurant", "contact:phone": "+32 2 219 39 33", "cuisine": "indian;nepalese;tibetan", "internet_access": "wlan", "name": "New Annapurna", "opening_hours": "11:30-14:30,17:30-23:00", "self_service": "no"}}, {"type": "node", "id": 2509496144, "lat": 50.852326, "lon": 4.3497339, "tags": {"amenity": "restaurant", "check_date:opening_hours": "2025-02-02", "contact:email": "brasseriedugourmet@gmail.com", "contact:phone": "+32 2 223 33 40", "cuisine": "regional", "name": "Brasserie du Gourmet", "opening_hours": "Mo,Tu,Th,Fr 12:00-15:00,18:30-22:30; We 18:30-22:30; Sa 18:30-22:30"}}, {"type": "node", "id": 2518122683, "lat": 50.8524247, "lon": 4.3428352, "tags": {"amenity": "restaurant", "cuisine": "pizza;italian", "name": "Mamma Mia"}}, {"type": "node", "id": 2518122931, "lat": 50.8534657, "lon": 4.3465091, "tags": {"amenity": "restaurant", "contact:instagram": "chevalmarin_brussels", "cuisine": "regional", "live_music": "yes", "name": "Le Cheval Marin", "opening_hours": "Tu-Fr 16:00-03:00; Sa 12:00-03:00; Su 12:00-18:00"}}, {"type": "node", "id": 2521208499, "lat": 50.8493565, "lon": 4.348552}, {"type": "node", "id": 2521208516, "lat": 50.8493827, "lon": 4.3486005}, {"type": "node", "id": 2521208533, "lat": 50.8494076, "lon": 4.3484752}, {"type": "node", "id": 2521208536, "lat": 50.8494096, "lon": 4.34865}, {"type": "node", "id": 2521208537, "lat": 50.8494131, "lon": 4.3484849}, {"type": "node", "id": 2521208540, "lat": 50.8494248, "lon": 4.3484591}, {"type": "node", "id": 2521208546, "lat": 50.8494272, "lon": 4.348463}, {"type": "node", "id": 2521208550, "lat": 50.8494412, "lon": 4.348434}, {"type": "node", "id": 2521208552, "lat": 50.8494461, "lon": 4.3484413}, {"type": "node", "id": 2521208556, "lat": 50.8494488, "lon": 4.3484374}, {"type": "node", "id": 2521208564, "lat": 50.849468, "lon": 4.3484645}, {"type": "node", "id": 2521208587, "lat": 50.8494974, "lon": 4.3485088}, {"type": "node", "id": 2522237922, "lat": 50.8487702, "lon": 4.3474415, "tags": {"amenity": "restaurant", "contact:phone": "+32 2 512 90 49", "contact:website": "https://9-et-voisins.be", "cuisine": "regional", "indoor_seating": "yes", "name": "9 et voisins", "outdoor_seating": "yes", "reservation": "no"}}, {"type": "node", "id": 2522238858, "lat": 50.8456907, "lon": 4.3465956, "tags": {"amenity": "restaurant", "contact:phone": "+32 2 512 38 00", "contact:website": "https://jour-de-fete.be/", "name": "Jour de F\u00eate"}}, {"type": "node", "id": 2522239126, "lat": 50.8483344, "lon": 4.3480547, "tags": {"amenity": "restaurant", "contact:email": "info@kelurah.com", "cuisine": "indonesian", "diet:vegan": "limited", "diet:vegetarian": "yes", "name": "Kelurah", "opening_hours": "Tu 18:00-22:30; We-Sa 12:00-15:00,18:00-22:30; Su 12:00-14:00,18:00-22:00", "website": "https://kelurah.com/"}}, {"type": "node", "id": 2522239434, "lat": 50.848891, "lon": 4.3491505, "tags": {"air_conditioning": "yes", "amenity": "restaurant", "bar": "yes", "contact:phone": "+32 2 516 90 53", "cuisine": "belgian", "indoor_seating": "yes", "level": "0", "name": "Rotisse", "opening_hours": "Mo-Su 12:00-23:30", "outdoor_seating": "yes", "payment:american_express": "yes", "payment:bancomat": "yes", "payment:coins": "yes", "payment:contactless": "yes", "payment:debit_cards": "yes", "payment:mastercard": "yes", "payment:notes": "yes", "payment:visa": "yes", "toilets": "yes", "wheelchair": "yes"}}, {"type": "node", "id": 2522239865, "lat": 50.8489285, "lon": 4.3471046, "tags": {"amenity": "restaurant", "contact:facebook": "findesieclebruxelles", "contact:website": "https://findesiecle.be/", "cuisine": "regional", "indoor_seating": "yes", "name": "Fin de Si\u00e8cle", "opening_hours": "Mo-Su 12:00-00:00", "outdoor_seating": "yes"}}, {"type": "node", "id": 2522741218, "lat": 50.8528847, "lon": 4.3416661, "tags": {"amenity": "restaurant", "name": "Aster"}}, {"type": "node", "id": 3261814416, "lat": 50.8486506, "lon": 4.3478965, "tags": {"amenity": "restaurant", "contact:email": "info@spagobrussels.com", "contact:phone": "+32 2 512 25 30", "contact:website": "https://spagobrussels.be/", "cuisine": "italian", "internet_access": "wlan", "internet_access:access": "customers", "internet_access:fee": "no", "name": "Spago", "opening_hours": "Mo-Th 12:00-23:00, Fr,Sa 12:00-24:00, Su 12:00-23:00", "payment:cash": "yes", "payment:maestro": "yes", "payment:mastercard": "yes", "payment:visa": "yes", "wheelchair": "no"}}, {"type": "node", "id": 3293024561, "lat": 50.845749, "lon": 4.346615, "tags": {"amenity": "restaurant", "contact:website": "http://www.kaki-kika.be", "cuisine": "french", "name": "KiKa", "outdoor_seating": "no"}}, {"type": "node", "id": 3384141535, "lat": 50.8498889, "lon": 4.3479265, "tags": {"alt_name": "Amadeo", "amenity": "restaurant", "contact:mobile": "+32 495 16 77 53", "contact:website": "https://amadeus-resto.be/amadeus-brussel/", "cuisine": "regional", "indoor_seating": "yes", "name": "Amadeus", "opening_hours": "Mo-Th 18:30-23:00; Fr,Sa 18:00-24:00; Su 18:00-23:00", "outdoor_seating": "yes", "wheelchair": "no"}}, {"type": "node", "id": 4200114214, "lat": 50.8530352, "lon": 4.3459621, "tags": {"amenity": "restaurant", "contact:email": "info@strofilia.be", "contact:phone": "+32 2 512 32 93", "contact:website": "https://www.strofilia.brussels", "cuisine": "greek", "name": "Strofilia", "opening_hours": "Mo-Fr 12:00-14:30,19:00-23:00;Sa 19:00-23:00; Su off"}}, {"type": "node", "id": 4318617563, "lat": 50.8508153, "lon": 4.3475133, "tags": {"alt_name": "Ellis Gourmet Burger", "amenity": "restaurant", "contact:phone": "+32 2 514 23 14", "contact:website": "https://ellis.be/fr-be/", "cuisine": "burger", "diet:gluten_free": "yes", "diet:vegan": "yes", "diet:vegetarian": "yes", "internet_access": "wlan", "internet_access:fee": "no", "name": "Ellis Burger", "opening_hours": "Su-Th 11:30-22:00; Fr-Sa 11:30-22:30", "smoking": "outside", "takeaway": "yes", "wheelchair": "limited"}}, {"type": "node", "id": 4318622689, "lat": 50.8511827, "lon": 4.3490999, "tags": {"amenity": "restaurant", "check_date": "2025-06-26", "contact:phone": "+32 2 217 90 12", "contact:website": "https://www.pampas.be/pampas-rodizio-brussels-catherine-en", "cuisine": "brazilian", "diet:vegan": "no", "diet:vegetarian": "yes", "name": "Pampas Rodizio", "opening_hours": "Mo-Fr 18:00-22:30; Sa 17:30-22:30; Su 12:00-14:30,18:00-22:30"}}, {"type": "node", "id": 4329813170, "lat": 50.8508308, "lon": 4.3475865, "tags": {"amenity": "restaurant", "contact:mobile": "+32 485727327", "contact:website": "https://www.beersgardenbrussels.com/home-en/", "cuisine": "french;local", "name": "The Beer's Garden", "opening_hours": "Mo-Su 11:00-23:30", "self_service": "no", "website:menu": "https://www.beersgardenbrussels.com/home-en/#carte", "wheelchair": "limited"}}, {"type": "node", "id": 4329813171, "lat": 50.8508596, "lon": 4.3477266, "tags": {"amenity": "restaurant", "contact:email": "psc@mammaroma.be", "contact:phone": "+32 2 644 93 33", "contact:website": "https://mammaroma.be/mamma-roma-sainte-catherine-le-nouveau-place-to-eat-de-la-capitale/", "cuisine": "pizza", "name": "Mamma Roma", "opening_hours": "Mo-Th,Su 12:00-22:00; Fr-Sa 12:00-23:00", "outdoor_seating": "yes", "wheelchair": "no"}}, {"type": "node", "id": 4329817770, "lat": 50.850926, "lon": 4.3479298, "tags": {"amenity": "restaurant", "contact:phone": "+32 2 512 97 59", "contact:website": "https://www.labellemaraichere.com/", "cuisine": "seasonal", "fixme": "survey neded for more specific opening hours", "name": "La Belle Mara\u00eech\u00e8re", "opening_hours": "We-Th off", "wheelchair": "no"}}, {"type": "node", "id": 4330861548, "lat": 50.8502459, "lon": 4.3490075, "tags": {"amenity": "restaurant", "contact:phone": "+32 2 770 62 78", "cuisine": "vietnamese", "name": "Pho 18", "opening_hours": "Mo,Tu,Th-Sa 12:00-14:10,18:30-21:15; We 18:30-21:15"}}, {"type": "node", "id": 4357795295, "lat": 50.8502047, "lon": 4.3492245, "tags": {"amenity": "restaurant", "contact:phone": "+32 2 514 36 88", "cuisine": "chinese", "name": "Beijingya", "opening_hours": "Mo-We 11:30-22:00; Th off; Fr-Su 11:30-22:00"}}, {"type": "node", "id": 4370027740, "lat": 50.8508856, "lon": 4.3500541, "tags": {"amenity": "restaurant", "contact:phone": "+32 2 505 50 50", "name": "Foodsquare", "operator": "Accors Hotel"}}, {"type": "node", "id": 4370027741, "lat": 50.8511595, "lon": 4.3501479, "tags": {"amenity": "restaurant", "contact:email": "vismet@hotmail.com", "contact:phone": "+32 2 218 85 45", "contact:website": "https://levismet.be/", "cuisine": "seafood", "entrance:kerb:height": "0", "entrance:step_count": "0", "name": "Vismet", "opening_hours": "Mo off; Tu-Sa 12:00-14:00,19:00-22:00; Su off", "operator": "Tom Decroos", "toilets:wheelchair": "yes", "toilets:wheelchair:accessible_via": "ground floor", "wheelchair": "limited", "wheelchair:turning_circle": "yes"}}, {"type": "node", "id": 4370027742, "lat": 50.8511383, "lon": 4.3503053, "tags": {"amenity": "restaurant", "contact:phone": "+32 2 218 62 83", "cuisine": "regional", "name": "Resto 26", "opening_hours": "Mo-Sa 12:00-15:00,18:00-23:00; Su 18:00-23:00", "smoking": "separated", "wheelchair": "yes"}}, {"type": "node", "id": 4461505043, "lat": 50.8493718, "lon": 4.3497989, "tags": {"amenity": "restaurant", "contact:phone": "+32 2 732 37 27", "contact:website": "https://alangolo.be/", "cuisine": "italian;pizza", "indoor_seating": "yes", "name": "A l'Angolo", "opening_hours": "12:00-23:00; Fr,Sa 12:00-00:00", "outdoor_seating": "yes", "wheelchair": "yes"}}, {"type": "node", "id": 4461505045, "lat": 50.8492946, "lon": 4.3499849, "tags": {"amenity": "restaurant", "check_date": "2026-01-25", "contact:mobile": "+32 486 33 37 77", "contact:website": "https://greeknribs.be/", "cuisine": "greek", "name": "Greek N' Ribs", "opening_hours": "11:00-23:00", "takeaway": "yes"}}, {"type": "node", "id": 4467114405, "lat": 50.8497463, "lon": 4.3506406, "tags": {"amenity": "restaurant", "check_date:opening_hours": "2026-01-05", "contact:mobile": "+32 474 26 17 48;+32 474 69 73 92", "cuisine": "romanian", "name": "Restauration roumaine", "opening_hours": "Mo 11:00-23:00; We-Su 11:00-23:00", "opening_hours:signed": "no"}}, {"type": "node", "id": 4467114406, "lat": 50.8498487, "lon": 4.3503966, "tags": {"amenity": "restaurant", "check_date:opening_hours": "2026-01-05", "cuisine": "romanian", "name": "Rustic", "opening_hours:signed": "no"}}, {"type": "node", "id": 4470364633, "lat": 50.8499076, "lon": 4.3509754, "tags": {"amenity": "restaurant", "check_date:opening_hours": "2026-01-05", "cuisine": "japanese", "indoor_seating": "yes", "name": "Takumi", "note": "Gyojasang (Korean) and Takumi (Japanese) restaurants are different but share the same place", "opening_hours:signed": "no", "outdoor_seating": "no", "wheelchair": "yes"}}, {"type": "node", "id": 4560141946, "lat": 50.8492227, "lon": 4.3491687, "tags": {"amenity": "restaurant", "check_date": "2025-03-28", "contact:phone": "+32 2 513 16 88", "cuisine": "chinese", "name": "Au Bon Bol", "opening_hours": "Mo-Fr 18:00-23:00; Sa-Su 12:00-23:00", "website": "https://bonbol.be/en", "wheelchair": "no"}}, {"type": "node", "id": 4665832791, "lat": 50.8501498, "lon": 4.3470833, "tags": {"amenity": "restaurant", "contact:email": "info@karmakitchen.be", "contact:phone": "+32 2 303 42 06", "contact:website": "https://missionmasala.be/", "cuisine": "indian", "name": "Karma Kitchen", "opening_hours": "Tu-Fr 12:00-14:30,18:00-22:00; Sa-Su 12:00-21:00"}}, {"type": "node", "id": 4811111885, "lat": 50.8518002, "lon": 4.3504706, "tags": {"amenity": "restaurant", "contact:mobile": "+32 473 25 89 29", "contact:phone": "+32 2 218 80 02", "cuisine": "vietnamese", "name": "L\u00ea-Duy", "opening_hours": "Mo-Fr 11:30-15:00,18:00-23:30; Sa 18:00-23:30; Su off", "takeaway": "yes"}}, {"type": "node", "id": 4836995621, "lat": 50.8529975, "lon": 4.3450355, "tags": {"amenity": "restaurant", "contact:phone": "+32 2 218 00 08", "contact:website": "https://www.restohenri.be", "cuisine": "french", "name": "Resto Henri", "opening_hours": "Mo-Th 12:00-14:00,18:00-22:00", "smoking": "no", "takeaway": "no"}}, {"type": "node", "id": 4836999721, "lat": 50.8527132, "lon": 4.3459074, "tags": {"amenity": "restaurant", "contact:website": "https://www.leselecto.com", "cuisine": "regional", "entrance:kerb:height": "0", "entrance:step_count": "0", "entrance:width": "0.8", "name": "Selecto", "opening_hours": "Tu-Th 12:00-14:30,19:00-22:30; Fr-Sa 12:00-14:30,19:00-23:00", "wheelchair:turning_circle": "yes"}}, {"type": "node", "id": 4851341922, "lat": 50.8476199, "lon": 4.3483786, "tags": {"amenity": "restaurant", "capacity": "36", "contact:phone": "+32 2 508 08 48", "contact:website": "https://www.horia.be", "cuisine": "oriental;organic;lebanese;moroccan;middle_eastern", "diet:gluten_free": "yes", "diet:halal": "yes", "diet:healthy": "yes", "diet:organic": "yes", "diet:vegan": "yes", "diet:vegetarian": "yes", "name": "Horia", "name:en": "Horia", "opening_hours": "Tu-Fr 12:00-15:00, 18:00-22:30; Sa 12:30-22:30", "outdoor_seating": "yes", "smoking": "outside", "takeaway": "yes"}}, {"type": "node", "id": 4913783921, "lat": 50.8507276, "lon": 4.3468121, "tags": {"amenity": "restaurant", "cuisine": "noodle", "diet:vegan": "no", "diet:vegetarian": "yes", "indoor_seating": "yes", "name": "Takumi Ramen", "opening_hours": "Mo-Fr 12:00-14:30, 18:00-22:00; Sa 12:00-22:00; Su 12:00-21:00", "outdoor_seating": "yes", "website": "https://takumiramennoodles.com/be/brussels-catherine1/"}}, {"type": "node", "id": 4927221968, "lat": 50.8497309, "lon": 4.3486861, "tags": {"amenity": "restaurant", "check_date": "2025-06-26", "contact:website": "https://www.nonalife.com/", "cuisine": "italian", "indoor_seating": "yes", "name": "NONA pasta", "opening_hours": "Mo-Su 12:00-24:00", "outdoor_seating": "no", "reservation": "no", "wheelchair": "no"}}, {"type": "node", "id": 4960204721, "lat": 50.8487944, "lon": 4.3480345, "tags": {"amenity": "restaurant", "check_date:opening_hours": "2024-10-05", "contact:phone": "+32 2 633 55 25", "contact:website": "https://www.lapiece.be/", "indoor_seating": "yes", "name": "La Pi\u00e8ce", "opening_hours:signed": "no", "outdoor_seating": "yes"}}, {"type": "node", "id": 4960616121, "lat": 50.8515933, "lon": 4.3465642, "tags": {"amenity": "restaurant", "changing_table": "yes", "contact:phone": "+32 2 502 18 41", "contact:website": "https://chicagocafe.be/chicago-cafe-home", "cuisine": "coffee_shop", "diet:vegan": "yes", "diet:vegetarian": "yes", "entrance:kerb:height": "0", "entrance:step_count": "0", "entrance:width": "2", "internet_access": "wlan", "kids_area": "yes", "name": "Chicago Caf\u00e9", "opening_hours": "Mo-Su 09:00-17:00", "toilets:wheelchair": "no", "wheelchair": "yes", "wheelchair:turning_circle": "yes"}}, {"type": "node", "id": 5008468723, "lat": 50.8501786, "lon": 4.3478351, "tags": {"amenity": "restaurant", "contact:website": "https://pokehouse.be", "cuisine": "hawaiian", "internet_access": "wlan", "name": "Pok\u00e9 House", "opening_hours": "Sa,Su 12:00-21:30; Mo-Fr 11:30-21:30", "outdoor_seating": "yes", "payment:cards": "yes", "payment:cash": "no", "service:electricity": "limited", "takeaway": "yes"}}, {"type": "node", "id": 5008468732, "lat": 50.8499524, "lon": 4.348265, "tags": {"amenity": "restaurant", "contact:website": "https://www.nonalife.com", "cuisine": "pizza", "delivery": "yes", "description": "Wood-fired Neapolitan pizza made with organic ingredients from Belgian farmers. LAST ORDERS Sunday to Wednesday 22:00 Thursday 22:30 Friday and Saturday 23:00 No Reservations Walk-In Only", "diet:gluten_free": "no", "diet:halal": "no", "diet:lactose_free": "yes", "diet:sugar_free": "no", "diet:vegan": "limited", "diet:vegetarian": "yes", "indoor_seating": "yes", "name": "NONA pizza", "opening_hours": "Mo-Su 12:00-24:00", "outdoor_seating": "no", "reservation": "no", "wheelchair": "no"}}, {"type": "node", "id": 5011062158, "lat": 50.8503295, "lon": 4.3477536, "tags": {"amenity": "restaurant", "check_date": "2023-04-18", "cuisine": "seafood", "name": "Oysters & Sm\u00f8rrebr\u00f8d"}}, {"type": "node", "id": 5024073444, "lat": 50.8518356, "lon": 4.3507248, "tags": {"alt_name": "Le Sorrento de Martine", "amenity": "restaurant", "contact:phone": "+32 2 218 53 09", "cuisine": "regional", "name": "Le Sorrento", "opening_hours": "Mo-Fr 11:30-14:30"}}, {"type": "node", "id": 5100181716, "lat": 50.8491903, "lon": 4.3486397, "tags": {"amenity": "restaurant", "check_date": "2023-07-03"}}, {"type": "node", "id": 5100181717, "lat": 50.8492228, "lon": 4.3486985, "tags": {"alt_name": "Gourmets Every Day", "amenity": "restaurant", "contact:phone": "+32 2 511 86 88", "cuisine": "chinese", "name": "Gourmets EveryDay", "opening_hours": "Fr-Mo 12:00-14:30, 17:30-21:30; Th 17:30-21:30"}}, {"type": "node", "id": 5100181718, "lat": 50.8493508, "lon": 4.3484867, "tags": {"amenity": "restaurant", "cuisine": "syrian", "name": "Ali Baba"}}, {"type": "node", "id": 5381181023, "lat": 50.850518, "lon": 4.3469307, "tags": {"amenity": "restaurant", "check_date:opening_hours": "2023-07-06", "contact:phone": "+32 2 512 75 50", "contact:website": "https://www.la-villette.be/", "cuisine": "regional", "description": "Vieil estaminet bruxellois, avec un grand choix de sp\u00e9cialit\u00e9s traditionnelles belges et plus de 40 bi\u00e8res belges diff\u00e9rentes.", "level": "0", "name": "La Villette", "opening_hours": "Mo-Fr 12:00-14:00,18:30-22:00; Sa 12:00-14:00,18:30-22:30", "outdoor_seating": "yes", "takeaway": "no", "toilets": "yes", "toilets:wheelchair": "no", "wheelchair": "yes"}}, {"type": "node", "id": 5553150412, "lat": 50.8515773, "lon": 4.3503441, "tags": {"amenity": "restaurant", "contact:phone": "+32 2 781 07 27", "contact:website": "https://harvestrestaurantbruxelles.be/en/restaurant-brussels/", "cuisine": "regional", "name": "Harvest", "opening_hours": "12:00-14:00,19:00-22:00; Fr 12:00-14:00,19:00-23:00, Sa 19:00-23:00, Su-Mo off"}}, {"type": "node", "id": 5575323321, "lat": 50.8506675, "lon": 4.3471764, "tags": {"amenity": "restaurant", "contact:website": "https://bavet.eu/", "cuisine": "pasta", "diet:vegan": "yes", "diet:vegetarian": "yes", "name": "Bavet", "opening_hours": "Fr-Sa 11:30-22:30; Su-Th 11:30-22:00", "outdoor_seating": "yes", "takeaway": "yes", "wheelchair": "no"}}, {"type": "node", "id": 5575323421, "lat": 50.8506924, "lon": 4.3472542, "tags": {"amenity": "restaurant", "contact:website": "https://www.umamido.be", "cuisine": "japanese", "diet:vegan": "yes", "diet:vegetarian": "yes", "name": "Umamido", "opening_hours": "Su-Th 12:00-22:00; Fr,Sa 12:00-22:30", "wheelchair": "limited"}}, {"type": "node", "id": 5646252321, "lat": 50.8481511, "lon": 4.348085, "tags": {"amenity": "restaurant", "check_date": "2024-01-02", "contact:email": "namasteindiabxl@gmail.com", "contact:phone": "+32 2 513 07 11", "contact:website": "http://namastebrussel.be/", "cuisine": "indian", "name": "Namaste India", "opening_hours": "Mo-Th 11:00-23:00; Fr,Su 11:00-24:00"}}, {"type": "node", "id": 5879048483, "lat": 50.8528589, "lon": 4.344902, "tags": {"amenity": "restaurant", "contact:phone": "+32 2 808 25 20", "contact:website": "https://www.hksbruxelles.be/", "cuisine": "burger", "diet:vegan": "yes", "diet:vegetarian": "yes", "name": "H&K's", "opening_hours": "Su-Tu 11:30-14:30,17:00-21:30"}}, {"type": "node", "id": 6204782685, "lat": 50.8524888, "lon": 4.34215, "tags": {"amenity": "restaurant", "contact:instagram": "https://www.instagram.com/arsouillecafe/p/DBN_EJZtr1N", "name": "Arsouille", "start_date": "2024-05", "was:name": "Kumiko"}}, {"type": "node", "id": 6237128478, "lat": 50.8492608, "lon": 4.347249, "tags": {"amenity": "restaurant", "contact:phone": "+32 2 502 40 26", "contact:website": "https://lakasbahresto.be", "cuisine": "moroccan", "name": "La Kasbah", "opening_hours": "Su-Th 12:00-14:00,18:30-22:00, Fr-Sa 12:00-14:00,18:30-23:00", "takeaway": "yes"}}, {"type": "node", "id": 6252244843, "lat": 50.8464795, "lon": 4.346663, "tags": {"amenity": "restaurant", "cuisine": "italian", "name": "Winehouse Osteria", "website": "https://wine-house.be"}}, {"type": "node", "id": 6253235185, "lat": 50.8527068, "lon": 4.3496195, "tags": {"amenity": "restaurant", "name": "Crush", "opening_hours": "Mo,Tu,Th-Sa 12:00-14:30,19:00-22:30; We,Su off"}}, {"type": "node", "id": 6952018150, "lat": 50.8509561, "lon": 4.3469627, "tags": {"amenity": "restaurant", "cuisine": "falafel", "diet:vegan": "yes", "diet:vegetarian": "only", "name": "Maha", "panoramax": "e59c2a57-4413-4ed5-a39e-1fe706e920ce"}}, {"type": "node", "id": 6952018152, "lat": 50.850231, "lon": 4.3472031, "tags": {"amenity": "restaurant", "check_date:opening_hours": "2023-01-19", "cuisine": "regional", "name": "Le petit chou de Bruxelles", "opening_hours:signed": "no", "toilets": "yes", "toilets:access": "public", "toilets:description": "Le r\u00e9seau des toilettes accueillantes - Netwerk gastvrije toiletten", "toilets:fee": "no"}}, {"type": "node", "id": 7179579132, "lat": 50.8475869, "lon": 4.3485692, "tags": {"amenity": "restaurant", "cuisine": "italian", "diet:vegetarian": "yes", "indoor_seating": "yes", "name": "Piazza Italia", "outdoor_seating": "yes"}}, {"type": "node", "id": 7272792985, "lat": 50.850722, "lon": 4.3473458, "tags": {"amenity": "restaurant", "check_date": "2024-12-27", "cuisine": "chicken", "name": "Poule & Poulette"}}, {"type": "node", "id": 7734394747, "lat": 50.8480379, "lon": 4.3433601, "tags": {"amenity": "restaurant", "name": "La Fleur"}}, {"type": "node", "id": 7734394748, "lat": 50.848168, "lon": 4.3437793, "tags": {"amenity": "restaurant", "contact:mobile": "+32 486 80 71 44", "contact:phone": "+32 2 503 46 23", "contact:website": "https://bellavitajardinauxfleurs.blogspot.com/", "cuisine": "pizza", "name": "Bella Vita", "opening_hours": "Mo-Su 11:00-23:00", "outdoor_seating": "terrace", "toilets": "yes", "toilets:access": "public", "toilets:description": "Le r\u00e9seau des toilettes accueillantes - Netwerk gastvrije toiletten", "toilets:fee": "no", "wheelchair:turning_circle": "yes"}}, {"type": "node", "id": 7734394749, "lat": 50.8480999, "lon": 4.3438483, "tags": {"amenity": "restaurant", "check_date": "2023-04-09", "contact:website": "https://hashtagbrussels.com/", "cuisine": "breakfast;burger;chicken", "name": "Hashtag Burgers & Brunch", "opening_hours": "Mo-Su 11:30-17:45", "website:menu": "https://hashtagbrussels.com/s/Hashtag-menu-JAN25.pdf"}}, {"type": "node", "id": 8118474192, "lat": 50.8513581, "lon": 4.3488823, "tags": {"amenity": "restaurant", "cuisine": "japanese", "diet:vegan": "yes", "indoor_seating": "yes", "name": "Sensei Sushi", "opening_hours": "Mo-Th 11:30-23:00; Fr 15:30-03:30; Sa 11:30-23:30; Su 11:30-23:00", "outdoor_seating": "yes"}}, {"type": "node", "id": 8385019732, "lat": 50.8531175, "lon": 4.3476706, "tags": {"amenity": "restaurant", "contact:email": "info@dalongyi.be", "contact:mobile": "+32 478 68 88 89", "contact:website": "https://www.dalongyi.be", "cuisine": "hot_pot", "description": "Service Hours: - First Service at 18:00 - Second Service at 20:00", "diet:fish": "yes", "diet:meat": "yes", "diet:vegetarian": "yes", "entrance:kerb:height": "0.12", "entrance:ramp": "yes", "entrance:step_count": "1", "entrance:width": "1.2", "name": "Da Long Yi", "opening_hours": "Mo-Th 17:00-22:30; Fr-Su 12:00-15:00, 17:00-23:00", "reservation": "recommended", "takeaway": "no", "wheelchair:turning_circle": "yes"}}, {"type": "node", "id": 8432805630, "lat": 50.8512123, "lon": 4.3465482, "tags": {"amenity": "restaurant", "cuisine": "chinese", "diet:vegetarian": "yes", "name": "Gourmet Chinese Food", "opening_hours": "Mo,Tu,Th,Fr 12:00-14:30,18:00-22:00; Sa,Su 12:00-15:00,18:00-22:00"}}, {"type": "node", "id": 8814651902, "lat": 50.8496108, "lon": 4.3484552, "tags": {"amenity": "restaurant", "contact:website": "https://www.gyojasang.com/", "cuisine": "korean", "name": "Gyojasang", "opening_hours": "Mo-Th,Su 12:00-22:30; Fr,Sa 12:00-23:30"}}, {"type": "node", "id": 9376256796, "lat": 50.8489313, "lon": 4.347177, "tags": {"amenity": "restaurant", "bar": "yes", "contact:instagram": "greenwichbrussels", "indoor_seating": "yes", "name": "Brasserie Greenwich", "old_name": "Caf\u00e9 Greenwich;Taverne Greenwich;Caf\u00e9 Delune", "old_name:2021-2023": "Greenwich Modern", "opening_hours": "Mo-Su 12:00-23:00", "operator": "Ediz Yelcin", "outdoor_seating": "yes", "start_date": "1904", "wikidata": "Q42417179", "wikimedia_commons": "Category:Brasserie Greenwich"}}, {"type": "node", "id": 9377054656, "lat": 50.8485997, "lon": 4.3453464, "tags": {"amenity": "restaurant", "contact:mobile": "+32 495 89 89 84", "contact:website": "https://carbonarasociety.com/norma-trattoria-e-aperitivo/", "cuisine": "italian", "description": "Norma is a veritable Italian trattoria experience: simple and generous, with a great respect for products, and served in a warmth atmosphere that recalls the venetian mazes, the roman gardens and tuscan \"osterie\"", "full_name": "Norma - Trattoria e Aperitivo", "name": "Norma"}}, {"type": "node", "id": 9968087464, "lat": 50.8481508, "lon": 4.3478257, "tags": {"amenity": "restaurant", "check_date": "2024-09-21", "cuisine": "thai", "name": "Perle de Siam", "opening_hours": "Mo-Fr 12:00-14:30,17:30-22:30; Sa,Su 12:00-22:30", "wheelchair": "yes"}}, {"type": "node", "id": 9969939418, "lat": 50.8525539, "lon": 4.342466, "tags": {"amenity": "restaurant", "contact:website": "https://www.chilligrill.be", "cuisine": "indian", "name": "Chilli Grill", "takeaway": "yes"}}, {"type": "node", "id": 10084532817, "lat": 50.8455689, "lon": 4.3464624, "tags": {"amenity": "restaurant", "contact:mobile": "+32 483 00 93 11", "cuisine": "kebab;barbecue;arab", "indoor_seating": "yes", "name": "Zain Shaam", "opening_hours": "Mo 11:00-00:00; We-Su 11:00-00:00", "outdoor_seating": "yes", "wheelchair": "no"}}, {"type": "node", "id": 10139554919, "lat": 50.8523165, "lon": 4.3459268, "tags": {"amenity": "restaurant", "cuisine": "italian", "name": "Signora Ava", "opening_hours": "Tu-Sa 12:00-14:30,18:30-22:00"}}, {"type": "node", "id": 10636320595, "lat": 50.8490847, "lon": 4.3390436, "tags": {"alt_name": "L'Olivier Vert", "amenity": "restaurant", "check_date": "2023-02-10", "mapillary": "494237333154614", "name": "Saf Saf de Tunis", "panoramax": "e121a012-970c-4f49-8c50-e8c5a536b2ee"}}, {"type": "node", "id": 10842102821, "lat": 50.8471824, "lon": 4.3481341, "tags": {"amenity": "restaurant", "contact:website": "https://www.le-palais-des-saveurs.be/", "name": "Le Palais des Saveurs", "panoramax": "95074acd-9c8f-4e47-9fb4-6e3260897251"}}, {"type": "node", "id": 10842111215, "lat": 50.8476043, "lon": 4.3484603, "tags": {"amenity": "restaurant", "check_date:opening_hours": "2024-10-05", "contact:website": "https://aupleysier.be/", "cuisine": "regional", "name": "Au Pleysier", "opening_hours:signed": "no", "payment:cash": "yes", "payment:mastercard": "yes", "payment:visa": "yes"}}, {"type": "node", "id": 10870362898, "lat": 50.8461326, "lon": 4.347081, "tags": {"amenity": "restaurant", "contact:website": "https://chefabdel.be/", "cuisine": "steak_house", "name": "Restaurant Chef Abdel", "opening_hours": "We-Su 17:00-24:00"}}, {"type": "node", "id": 10876493513, "lat": 50.848546, "lon": 4.3469118, "tags": {"amenity": "restaurant", "contact:phone": "+32 2 512 67 16", "cuisine": "vietnamese", "name": "Da-Kao II", "opening_hours": "Mo off; Tu-Su 12:00-14:30,18:00-23:00"}}, {"type": "node", "id": 11046983222, "lat": 50.8529543, "lon": 4.3435614, "tags": {"amenity": "restaurant", "contact:website": "https://kline.brussels/", "name": "Kline"}}, {"type": "node", "id": 11157744609, "lat": 50.8498289, "lon": 4.3480406, "tags": {"amenity": "restaurant", "check_date": "2025-06-26", "contact:facebook": "https://www.facebook.com/spoonfulofindia", "contact:instagram": "https://www.instagram.com/spoonful.of.india/", "contact:phone": "+32 2 520 20 78", "contact:website": "https://www.spoonfulofindia.com", "cuisine": "indian", "indoor_seating": "yes", "name": "Spoonfool of India", "opening_hours": "Tu-Su 12:00-15:00,18:00-22:00", "outdoor_seating": "yes"}}, {"type": "node", "id": 11194145666, "lat": 50.8511975, "lon": 4.3468026, "tags": {"amenity": "restaurant", "cuisine": "greek", "name": "Vedette"}}, {"type": "node", "id": 11285053268, "lat": 50.8483344, "lon": 4.3479514, "tags": {"amenity": "restaurant", "check_date": "2023-07-07", "contact:phone": "+32 2 502 07 29", "contact:website": "https://aulotusthai.business.site", "cuisine": "thai;vietnamese", "name": "Au Lotus Tha\u00ef", "opening_hours": "Mo-Fr 11:30-14:30,18:00-22:30; Sa,Su 11:30-23:00"}}, {"type": "node", "id": 11285056190, "lat": 50.8484231, "lon": 4.3475387, "tags": {"amenity": "restaurant", "check_date": "2024-08-26", "contact:phone": "+32 2 502 87 14", "contact:website": "http://www.honghoa.be/", "cuisine": "vietnamese", "name": "H\u00f4ng Hoa", "opening_hours": "Mo-Su 12:00-23:00", "payment:credit_cards": "yes", "payment:maestro": "yes", "payment:mastercard": "yes", "payment:visa": "yes", "payment:visa_electron": "yes", "wheelchair": "yes"}}, {"type": "node", "id": 11285056194, "lat": 50.8484179, "lon": 4.3477945, "tags": {"amenity": "restaurant", "cuisine": "thai", "name": "Siam Square", "opening_hours": "Mo-Su 12:00-14:30,18:00-22:00"}}, {"type": "node", "id": 11389803738, "lat": 50.8481491, "lon": 4.3483728, "tags": {"amenity": "restaurant", "cuisine": "thai", "name": "Davi Thai", "opening_hours": "Mo-Su 11:00-15:00,18:00-24:00"}}, {"type": "node", "id": 11513590842, "lat": 50.8476297, "lon": 4.3482155, "tags": {"amenity": "restaurant", "check_date": "2024-01-13", "check_date:opening_hours": "2024-01-13", "cuisine": "tapas", "name": "Le Bar \u00e0 Tapas", "opening_hours:signed": "no"}}, {"type": "node", "id": 11546192676, "lat": 50.850489, "lon": 4.3502196, "tags": {"air_conditioning": "yes", "alt_name": "58 \u2013 Rooftop & Panoramic Eatery", "amenity": "restaurant", "capacity": "250", "contact:email": "info@58.brussels", "contact:website": "https://www.58.brussels/", "description": "Before 6 pm, access by: rue des Halles 4, after 6pm, access by: rue de l\u2019\u00c9v\u00eaque 1", "indoor_seating": "roof", "internet_access": "wlan", "level": "8", "name": "Rooftop 58", "note": "This is the restaurant on the 8th floor, not to be mistaken for the bar on the 9th floor (two separate POI despite the owner is the same)", "opening_date": "2024-03-06", "opening_hours": "We-Su 18:00-01:00", "opening_hours:kitchen": "We-Su 18:00-22:00", "outdoor_seating": "no"}}, {"type": "node", "id": 11596384469, "lat": 50.84848, "lon": 4.3472934, "tags": {"amenity": "restaurant", "cuisine": "vietnamese", "name": "Le gourmet d'Asie", "opening_hours": "We-Mo 12:00-15:00, 18:00-22:00"}}, {"type": "node", "id": 11697745508, "lat": 50.8510966, "lon": 4.3481408, "tags": {"amenity": "restaurant", "contact:website": "https://rugbyman1.be/", "cuisine": "seafood", "diet:vegetarian": "no", "indoor_seating": "yes", "name": "Rugbyman One", "opening_hours": "Mo-Su 11:30-15:00,17:30-22:30", "outdoor_seating": "yes", "phone": "+32 2 512 56 40"}}, {"type": "node", "id": 11697745509, "lat": 50.8512621, "lon": 4.3480267, "tags": {"amenity": "restaurant", "cuisine": "seafood", "name": "Rugbyman Two", "opening_hours": "Mo-Su 12:00-15:00,18:00-22:30", "phone": "+32 2 512 37 60", "website": "https://rugbymantwo.com/fr"}}, {"type": "node", "id": 11697757787, "lat": 50.8508482, "lon": 4.346789, "tags": {"amenity": "restaurant", "contact:phone": "+32 2 513 65 45", "contact:website": "https://www.lepresale.be", "cuisine": "regional;french", "name": "Le Pr\u00e9 Sal\u00e9", "opening_hours": "We-Su 12:00-14:30,18:30-22:30", "toilets:wheelchair": "no", "wheelchair": "limited"}}, {"type": "node", "id": 11818585518, "lat": 50.8492552, "lon": 4.3487573, "tags": {"amenity": "restaurant", "contact:phone": "+32 2 503 28 58", "contact:website": "http://yakiresto.com/", "cuisine": "asian", "name": "Yaki", "opening_hours": "Mo-Su 12:00-14:30,18:00-22:00"}}, {"type": "node", "id": 11881329864, "lat": 50.848151, "lon": 4.3479934, "tags": {"amenity": "restaurant", "contact:phone": "+32 2 502 64 22", "contact:website": "https://www.fanny-thai.be/", "cuisine": "thai;vietnamese", "name": "Fanny Thai", "opening_hours": "Mo-Th 12:00-23:30; Fr-Sa 12:00-24:00; Su 12:00-23:30"}}, {"type": "node", "id": 11881400034, "lat": 50.8483343, "lon": 4.3483905, "tags": {"amenity": "restaurant", "contact:phone": "+32 2 502 48 28", "cuisine": "thai;vietnamese", "name": "R\u00eaves d'Asie", "opening_hours": "Mo-Su 12:00-14:30,18:00-24:00"}}, {"type": "node", "id": 11881400037, "lat": 50.8483253, "lon": 4.348522, "tags": {"amenity": "restaurant", "contact:phone": "+32 2 513 91 81", "contact:website": "https://an-ngon.eatbu.com", "cuisine": "thai;vietnamese", "name": "\u0102n Ngon", "opening_hours": "Mo-Su 12:00-24:00"}}, {"type": "node", "id": 11881400042, "lat": 50.8483125, "lon": 4.3486251, "tags": {"amenity": "restaurant", "contact:phone": "+32 2 502 87 66", "cuisine": "chinese", "name": "Yi Chan", "opening_hours": "Mo 18:00-22:30; Tu off; We,Th 12:00-14:00,18:00-22:30; Sa 12:00-14:00,18:00-24:00; Su 12:00-14:00,18:00-24:00"}}, {"type": "node", "id": 11881400046, "lat": 50.8483015, "lon": 4.3487146, "tags": {"amenity": "restaurant", "contact:mobile": "+32 493 48 53 56", "contact:website": "https://fritzguard.com/", "cuisine": "fries", "name": "Fritzgard", "opening_hours": "Mo-Su 12:00-00:00", "takeaway": "yes"}}, {"type": "node", "id": 11919749494, "lat": 50.8477397, "lon": 4.3468898, "tags": {"amenity": "restaurant", "contact:phone": "+32 2 720 73 70", "contact:website": "https://entropyrestaurant.be/", "name": "Entropy", "opening_hours": "Mo,Tu,Su off; We,Th,Sa 19:00-23:00; Fr 12:00-14:30,19:00-23:00"}}, {"type": "node", "id": 12288040351, "lat": 50.850646, "lon": 4.346944, "tags": {"amenity": "restaurant", "cuisine": "japanese", "name": "Makisu", "opening_hours": "PH,Mo-Su 12:00-22:00", "toilets:wheelchair": "no", "wheelchair": "limited"}}, {"type": "node", "id": 12354891130, "lat": 50.8523445, "lon": 4.3450201, "tags": {"amenity": "restaurant", "contact:instagram": "https://www.instagram.com/veganchouke/", "diet:vegan": "only", "name": "Vegan Chouke", "opening_hours": "Tu-Su 10:00-17:00"}}, {"type": "node", "id": 12508212336, "lat": 50.8483823, "lon": 4.3435491, "tags": {"amenity": "restaurant", "bar": "yes", "contact:email": "info@spinnekopke.be", "contact:phone": "+32 2 511 86 95", "contact:website": "https://spinnekopke.be/", "cuisine": "regional", "name": "In 't Spinnekopke", "opening_hours": "Tu-Sa 11:00-23:00", "opening_hours:kitchen": "Tu-Sa 12:00-14:00,18:00-21:30", "payment:credit_cards": "yes", "payment:debit_cards": "yes", "toilets": "yes", "toilets:wheelchair": "yes", "wheelchair": "limited", "wikidata": "Q117743177", "wikimedia_commons": "Category:In 't Spinnekopke"}}, {"type": "node", "id": 12583287601, "lat": 50.8521583, "lon": 4.3460093, "tags": {"amenity": "restaurant", "contact:website": "https://grammrestaurant.be/fr", "cuisine": "fine_dining", "name": "Gramm", "opening_hours": "Tu-Sa 19:00-22:00"}}, {"type": "node", "id": 12609343001, "lat": 50.8496966, "lon": 4.3471073, "tags": {"amenity": "restaurant", "contact:website": "https://www.micheleintheworld.com/brussels/", "cuisine": "pizza", "name": "L\u2019Antica Pizzeria Da Michele"}}, {"type": "node", "id": 13098323002, "lat": 50.8507148, "lon": 4.3468913, "tags": {"amenity": "restaurant", "contact:website": "https://madagasikara.be/", "cuisine": "malagasy", "name": "Madagasikara"}}, {"type": "node", "id": 13240573053, "lat": 50.849862, "lon": 4.3509324, "tags": {"amenity": "restaurant", "check_date:opening_hours": "2026-01-05", "cuisine": "korean", "diet:vegetarian": "yes", "indoor_seating": "yes", "name": "Gyojasang", "note": "Gyojasang (Korean) and Takumi (Japanese) restaurants are different but share the same place", "opening_hours:signed": "no", "outdoor_seating": "no", "wheelchair": "yes"}}, {"type": "node", "id": 13391104771, "lat": 50.850097, "lon": 4.3469989, "tags": {"amenity": "restaurant", "contact:website": "https://halfandhalfrestaurant.com", "level": "0", "name": "Half en Half", "opening_hours": "Mo-Su 07:00-11:00,17:00-23:00"}}, {"type": "node", "id": 13440408981, "lat": 50.8497822, "lon": 4.3458584, "tags": {"amenity": "restaurant", "contact:email": "resto@menelasouzerie.com", "contact:website": "http://menelasouzerie.com", "cuisine": "greek", "name": "Menelas Ouzerie"}}, {"type": "way", "id": 524013968, "nodes": [2521208587, 2521208536, 2521208516, 2521208499, 2521208533, 2521208537, 2521208546, 2521208540, 2521208550, 2521208552, 2521208556, 2521208564, 2521208587], "tags": {"amenity": "restaurant", "contact:phone": "+32 2 503 01 03", "contact:website": "https://www.xuji.be/", "cuisine": "chinese;thai", "name": "Xu Ji", "opening_hours": "We-Mo 12:00-15:00,17:30-23:00; Tu off", "takeaway": "yes"}}]}