{"version": 0.6, "generator": "Overpass API 0.7.62.10 2d4cfc48", "osm3s": {"timestamp_osm_base": "2026-02-02T16:09:51Z", "copyright": "The data included in this document is from www.openstreetmap.org. The data is made available under ODbL."}, "elements": [{"type": "node", "id": 766888527, "lat": 50.8582288, "lon": 4.3849142, "tags": {"amenity": "bar", "name": "Le Galion"}}, {"type": "node", "id": 1871737110, "lat": 50.8506687, "lon": 4.3942232, "tags": {"amenity": "bar", "check_date": "2024-08-29", "name": "L'Imper", "outdoor_seating": "yes", "payment:cash": "no", "payment:credit_cards": "yes", "payment:debit_cards": "yes"}}, {"type": "node", "id": 2339399742, "lat": 50.8589982, "lon": 4.3910126, "tags": {"amenity": "bar", "contact:website": "https://babs.wine/", "drink:wine": "yes", "name": "Bab\u2019s"}}, {"type": "node", "id": 2340802796, "lat": 50.8590953, "lon": 4.3892222, "tags": {"amenity": "bar", "brewery": "yes;various", "check_date": "2022-08-30", "contact:email": "hello@1030.cafe", "contact:website": "https://www.1030.cafe/", "food": "yes", "name": "1030 Caf\u00e9", "opening_hours": "Mo,Su 16:00-23:00; Tu-Th,Sa 16:00-01:00; Fr 16:00-03:00", "outdoor_seating": "yes", "payment:bancontact": "yes", "payment:mastercard": "yes", "payment:pluxee": "yes", "payment:visa": "yes", "wheelchair": "yes"}}, {"type": "node", "id": 2354779080, "lat": 50.8609507, "lon": 4.3843845, "tags": {"amenity": "bar", "contact:facebook": "https://www.facebook.com/Silvertavern1030/", "name": "Central Park"}}, {"type": "node", "id": 2354798083, "lat": 50.8614544, "lon": 4.3827322, "tags": {"amenity": "bar", "cocktails": "yes", "contact:website": "https://foxdenbar.be/", "drink:cocktail": "served", "name": "Fox Den", "opening_hours": "We-Th 18:00-00:00, Fr-Sa 18:00-01:00, Su 16:00-23:00"}}, {"type": "node", "id": 2359277455, "lat": 50.8670091, "lon": 4.3740296, "tags": {"amenity": "bar", "contact:email": "achille@biensoifbienfaim.be", "contact:facebook": "https://www.facebook.com/achille1030", "contact:mobile": "+32 470 83 21 72", "name": "Achille", "note": "https://www.bruzz.be/culture/eat-drink/achille-tafelen-met-een-vrouwelijke-touch-2021-12-10", "opening_hours": "Mo 16:00-22:00; We-Sa 16:00-22:00", "outdoor_seating": "sidewalk", "reservation": "no", "start_date": "2020-09", "takeaway": "yes"}}, {"type": "node", "id": 2363509887, "lat": 50.8487819, "lon": 4.3904443, "tags": {"amenity": "bar", "name": "Dreams", "opening_hours": "Mo-Fr 08:00-01:00, Sa,Su 09:00-02:00", "outdoor_seating": "yes"}}, {"type": "node", "id": 2365503340, "lat": 50.850496, "lon": 4.3959196, "tags": {"amenity": "bar", "name": "Jef Live", "outdoor_seating": "yes"}}, {"type": "node", "id": 2365793723, "lat": 50.8634344, "lon": 4.3695737, "tags": {"amenity": "bar", "contact:website": "https://www.oceannord.org/2019/restauration/", "description": "Bar et petite restauration, ouvert aux heures des spectacles", "food": "yes", "noname": "yes"}}, {"type": "node", "id": 3951599267, "lat": 50.8502871, "lon": 4.3934159, "tags": {"amenity": "bar", "check_date:opening_hours": "2024-04-28", "contact:phone": "+32 2 736 82 04", "contact:website": "http://www.felixbar.be/", "indoor_seating": "yes", "name": "Chez Felix", "opening_hours": "Mo-Sa 16:00-22:00", "opening_hours:signed": "no", "outdoor_seating": "yes"}}, {"type": "node", "id": 5128638461, "lat": 50.8568422, "lon": 4.3902499, "tags": {"amenity": "bar", "name": "Duc de Brabant"}}, {"type": "node", "id": 5316425380, "lat": 50.8599968, "lon": 4.3690749, "tags": {"amenity": "bar", "contact:email": "anefou21@gmail.com", "contact:facebook": "https://www.facebook.com/lanefou", "indoor_seating": "yes", "name": "l'\u00c2ne Fou - Zotte Ezel", "opening_hours": "Mo-Tu 10:00-15:00; We-Fr 10:00-01:00", "outdoor_seating": "yes"}}, {"type": "node", "id": 5506428221, "lat": 50.8572251, "lon": 4.3885862, "tags": {"amenity": "bar", "brewery": "yes", "contact:facebook": "https://www.facebook.com/1090393574399987", "contact:instagram": "https://instagram.com/copain.bar", "contact:phone": "+32 2 447 20 59", "contact:website": "https://copain.brussels", "name": "Copain", "opening_hours": "Mo-Sa 16:00-01:00; Su off"}}, {"type": "node", "id": 5923692612, "lat": 50.8496866, "lon": 4.392157, "tags": {"amenity": "bar", "brewery": "yes", "check_date": "2024-08-29", "check_date:opening_hours": "2024-04-28", "contact:email": "python.craftbeer@gmail.com", "contact:facebook": "PythonCraftBeer", "contact:mobile": "+32 479 58 12 19", "name": "Python", "opening_hours": "Mo-Th 16:00-00:00; Fr-Sa 16:00-01:00; Su off", "opening_hours:signed": "no", "outdoor_seating": "yes", "payment:cash": "yes", "payment:credit_cards": "yes", "payment:debit_cards": "yes", "smoking": "outside"}}, {"type": "node", "id": 6932345851, "lat": 50.8596667, "lon": 4.3605079, "tags": {"amenity": "bar", "check_date:opening_hours": "2023-05-12", "contact:mobile": "+32 483 07 45 56", "contact:website": "https://zest-juices.be/", "name": "Zest", "opening_hours": "Mo-Fr 07:00-19:00", "opening_hours:signed": "no", "wheelchair": "yes"}}, {"type": "node", "id": 7689306959, "lat": 50.8653899, "lon": 4.383527, "tags": {"amenity": "bar", "brewery": "yes", "contact:email": "hofman.ju@gmail.com", "contact:mobile": "+32 491 37 87 61", "name": "La Guingette Populeir", "opening_hours": "We 11:00-20:00, Th 11:00-21:00, Fr 11:00-22:00, Sa 10:00-22:00, Su 10:00-19:00", "outdoor_seating": "yes"}}, {"type": "node", "id": 7925663902, "lat": 50.8561809, "lon": 4.3884038, "tags": {"amenity": "bar", "name": "Mojito"}}, {"type": "node", "id": 7925665126, "lat": 50.85655, "lon": 4.3900963, "tags": {"amenity": "bar", "name": "Chez Jacqueline"}}, {"type": "node", "id": 7925665127, "lat": 50.8560835, "lon": 4.3913864, "tags": {"amenity": "bar", "check_date": "2022-10-26", "name": "Le Jardin d'Hiver", "opening_hours": "Mo-Su 08:00-24:00"}}, {"type": "node", "id": 7925730511, "lat": 50.8525416, "lon": 4.387237, "tags": {"amenity": "bar", "name": "New Dailly"}}, {"type": "node", "id": 7925730513, "lat": 50.8530942, "lon": 4.3914387, "tags": {"amenity": "bar", "name": "Bugg's"}}, {"type": "node", "id": 7925730514, "lat": 50.8533622, "lon": 4.3912049, "tags": {"amenity": "bar", "check_date": "2024-03-02", "name": "Marla"}}, {"type": "node", "id": 9592008102, "lat": 50.8533296, "lon": 4.388495, "tags": {"amenity": "bar", "check_date": "2024-06-23", "drink": "cider", "name": "Cidroth\u00e8que Joran", "opening_hours": "We,Th 16:00-24:00, Fr 16:00-02:00, Sa 12:00-02:00, Su 12:00-23:00", "outdoor_seating": "yes"}}, {"type": "node", "id": 10073407641, "lat": 50.8587384, "lon": 4.3814118, "tags": {"amenity": "bar", "check_date": "2025-02-12", "check_date:opening_hours": "2024-05-05", "internet_access": "wlan", "internet_access:fee": "no", "name": "Brasserie Rogier", "opening_hours": "Mo-Th,Su 08:00-01:00; Fr-Sa 08:00-03:00", "opening_hours:signed": "no", "payment:bancontact": "yes", "payment:mastercard": "yes", "payment:pluxee": "yes", "payment:visa": "yes", "wheelchair": "no"}}, {"type": "node", "id": 10073408358, "lat": 50.8585997, "lon": 4.380903, "tags": {"amenity": "bar", "check_date": "2025-02-12", "internet_access": "wlan", "internet_access:fee": "no", "name": "Cafe Martini", "opening_hours": "07:00-01:00", "payment:cards": "no", "payment:credit_cards": "no", "payment:debit_cards": "no", "wheelchair": "no"}}, {"type": "node", "id": 10130005739, "lat": 50.8597495, "lon": 4.3756272, "tags": {"amenity": "bar", "check_date": "2022-10-26", "name": "Tequila"}}, {"type": "node", "id": 10280734807, "lat": 50.8685679, "lon": 4.3726436, "tags": {"amenity": "bar", "description": "Cocktail-Bar Lounge", "name": "15 15 Lounge", "opening_hours": "Mo-Su 00:00-02:00, 14:00-00:00", "panoramax": "56919ab4-06ff-43f6-b9f8-3ee3e93829c8", "panoramax:0": "81330234-c972-420b-a8ae-6d36c50e0a7c"}}, {"type": "node", "id": 11149301921, "lat": 50.86483, "lon": 4.3666991, "tags": {"amenity": "bar", "name": "Le Brique"}}, {"type": "node", "id": 11489404395, "lat": 50.8613435, "lon": 4.3698628, "tags": {"amenity": "bar", "name": "Pyramid"}}, {"type": "node", "id": 12182896319, "lat": 50.8533543, "lon": 4.3845277, "tags": {"amenity": "bar", "contact:facebook": "lesplanches1030", "contact:instagram": "lesplanches1030", "name": "Les Planches"}}, {"type": "node", "id": 12422917770, "lat": 50.8662262, "lon": 4.3754949, "tags": {"amenity": "bar", "name": "Le Petit Pogge"}}, {"type": "node", "id": 12469370057, "lat": 50.8676415, "lon": 4.3729678, "tags": {"amenity": "bar", "name": "Communal Cafe"}}, {"type": "node", "id": 12473404064, "lat": 50.8720686, "lon": 4.3850012, "tags": {"amenity": "bar", "name": "Cappuccino"}}]}