{"version": 0.6, "generator": "Overpass API 0.7.62.10 2d4cfc48", "osm3s": {"timestamp_osm_base": "2026-02-03T11:37:43Z", "copyright": "The data included in this document is from www.openstreetmap.org. The data is made available under ODbL."}, "elements": [{"type": "node", "id": 866333004, "lat": 50.8752174, "lon": 4.3296063, "tags": {"amenity": "restaurant", "contact:email": "stephanpeemans@gmail.com", "contact:facebook": "https://www.facebook.com/RestaurantPatagaf/", "contact:phone": "+32 2 426 90 93", "contact:website": "https://restaurant-patagaf-jette.be/", "cuisine": "french", "name": "Patagaf", "opening_hours": "Mo-Th 18:30-22:30; Fr-Sa 18:30-23:00", "wheelchair": "limited"}}, {"type": "node", "id": 1221352577, "lat": 50.8691124, "lon": 4.3283387, "tags": {"amenity": "restaurant", "contact:facebook": "https://www.facebook.com/people/Acropolis-Grill-Bar-Jette/100089565793297/", "cuisine": "greek", "name": "Acropolis"}}, {"type": "node", "id": 4220692989, "lat": 50.8729252, "lon": 4.3269783, "tags": {"amenity": "restaurant", "contact:email": "info@restaurantfrenchkiss.com", "contact:phone": "+32 2 425 22 93", "contact:website": "https://www.restaurantfrenchkiss.com/", "cuisine": "french", "name": "French Kiss", "opening_hours": "Tu-Su 12:00-14:30,18:30-22:00; Fr 12:00-14:30,18:30-22:30"}}, {"type": "node", "id": 5212061897, "lat": 50.8762742, "lon": 4.3374355, "tags": {"amenity": "restaurant", "contact:facebook": "https://www.facebook.com/TaverneTerLinden", "contact:mobile": "+32 488 88 06 96", "contact:website": "https://taverneterlinde.ateliergrooteiland.be/", "email": "taverneterlinden@eatvzw.be", "name": "Taverne Ter Linden", "opening_hours": "Mo-We 10:00-17:00; Th,Fr 10:00-22:00", "operator": "EAT vzw"}}, {"type": "node", "id": 5813207425, "lat": 50.8725557, "lon": 4.3328404, "tags": {"amenity": "restaurant", "contact:phone": "+32 2 218 49 11", "contact:website": "https://www.pizzeriabella-jette.be/", "cuisine": "pizza", "delivery": "yes", "delivery:website": "https://www.pizzeriabella-jette.be/", "diet:vegan": "no", "diet:vegetarian": "yes", "name": "Pizzeria Bella", "opening_hours": "Tu-Su 12:00-23:00"}}, {"type": "node", "id": 6447361856, "lat": 50.8732167, "lon": 4.3288273, "tags": {"amenity": "restaurant", "brand": "Pizza Hut", "brand:wikidata": "Q191615", "brand:wikipedia": "en:Pizza Hut", "cuisine": "pizza", "name": "Pizza Hut"}}, {"type": "node", "id": 6693949404, "lat": 50.8736512, "lon": 4.3341914, "tags": {"amenity": "restaurant", "contact:email": "ghassanw7@gmail.com", "contact:facebook": "https://www.facebook.com/people/Cristobald/100063463235776/", "contact:mobile": "+32 475 22 92 04", "contact:website": "http://www.cristobald.be/", "name": "Le Cristobald", "opening_hours": "Mo-Fr 11:00-15:00,19:00-23:00; Sa 11:00-15:00", "outdoor_seating": "yes", "wheelchair": "no"}}, {"type": "node", "id": 6702768752, "lat": 50.8679084, "lon": 4.3291906, "tags": {"amenity": "restaurant", "name": "Prestige", "outdoor_seating": "yes"}}, {"type": "node", "id": 9935362184, "lat": 50.8717383, "lon": 4.3314778, "tags": {"amenity": "restaurant", "contact:facebook": "https://www.facebook.com/RestaurantTransilvaniaBrussel/", "contact:phone": "+32 2 427 94 21", "cuisine": "romanian", "description:ro": "Restaurant Romanesc din Jette-Brussels", "name": "Transilvania", "opening_hours": "Mo off; Tu-Su 12:00-22:00"}}, {"type": "node", "id": 10096370690, "lat": 50.8680802, "lon": 4.3357309, "tags": {"amenity": "restaurant", "cuisine": "pasta;pizza", "name": "P\u00e2t'zza"}}, {"type": "node", "id": 10236031702, "lat": 50.8759864, "lon": 4.3369362, "tags": {"amenity": "restaurant", "contact:email": "contact@pizzabento.be", "contact:facebook": "https://www.facebook.com/people/Pizza-Bento/100063722492718/", "contact:phone": "+32 2 426 00 02", "contact:website": "http://pizzabento.be/", "cuisine": "pizza", "delivery": "yes", "name": "Pizza Bento", "opening_hours": "Tu-Fr 12:00-14:00,18:00-22:30; Sa 18:00-22:30", "takeaway": "only"}}, {"type": "node", "id": 10688397427, "lat": 50.876539, "lon": 4.3335425, "tags": {"amenity": "restaurant", "contact:mobile": "+32 493 43 91 53", "contact:website": "https://pizza-like-pizza-restaurant.business.site/", "cuisine": "pizza", "name": "Pizza Like", "opening_hours": "Mo-Th,Sa 13:00-23:00; Fr,Su 15:00-23:00"}}, {"type": "node", "id": 11234246429, "lat": 50.8751216, "lon": 4.3338047, "tags": {"amenity": "restaurant", "cuisine": "asian", "name": "The Good Friend", "takeaway": "only"}}, {"type": "node", "id": 13246215870, "lat": 50.8732403, "lon": 4.3280286, "tags": {"amenity": "restaurant", "name": "Rawabi Al-Yemen", "origin": "yemeni"}}]}