{"version": 0.6, "generator": "Overpass API 0.7.62.10 2d4cfc48", "osm3s": {"timestamp_osm_base": "2026-02-02T14:40:59Z", "copyright": "The data included in this document is from www.openstreetmap.org. The data is made available under ODbL."}, "elements": [{"type": "node", "id": 1518763139, "lat": 50.8154109, "lon": 4.4170635, "tags": {"amenity": "restaurant", "check_date": "2025-04-20", "cuisine": "italian;pizza", "diet:vegan": "yes", "diet:vegetarian": "yes", "name": "Amore & Fantasia", "opening_hours": "Mo-Fr 11:30-14:00; Tu-Sa 18:00-21:00", "payment:cash": "yes", "payment:credit_cards": "yes", "payment:debit_cards": "yes", "wheelchair": "yes"}}, {"type": "node", "id": 1705233724, "lat": 50.826165, "lon": 4.3974742, "tags": {"airconditioned": "yes", "amenity": "restaurant", "bicycle_parking": "yes", "catering": "yes", "contact:email": "info@lemess.be", "contact:phone": "+32 2 734 03 36", "contact:website": "https://lemess.be/", "cuisine": "french", "lunch": "yes", "name": "Le Mess", "opening_hours": "Mo-Fr 12:00-14:30,18:30-23:00; Sa 18:30-23:00", "outdoor_seating": "no", "payment:american_express": "yes", "payment:cash": "yes", "payment:maestro": "yes", "payment:mastercard": "yes", "payment:visa": "yes", "wheelchair": "no", "wifi": "yes"}}, {"type": "node", "id": 1756205016, "lat": 50.8220328, "lon": 4.4044442, "tags": {"amenity": "restaurant", "cuisine": "chinese", "name": "China Express"}}, {"type": "node", "id": 1756205017, "lat": 50.8241911, "lon": 4.4006945, "tags": {"amenity": "restaurant", "name": "Le Coin"}}, {"type": "node", "id": 1756206727, "lat": 50.8248389, "lon": 4.3996158, "tags": {"amenity": "restaurant", "capacity": "30", "check_date": "2025-04-03", "contact:email": "info@agra-restaurant.be", "contact:phone": "+32 2 732 25 55", "contact:website": "http://www.agra-restaurant.be/", "cuisine": "indian", "name": "Agra", "opening_hours": "Mo-Sa 11:30-14:30, 18:00-00:00", "wheelchair": "no"}}, {"type": "node", "id": 2342974245, "lat": 50.820583, "lon": 4.4078028, "tags": {"amenity": "restaurant", "contact:phone": "+32 2 675 67 34", "contact:website": "http://www.singha.be/html/home.htm", "cuisine": "thai", "diet:vegan": "yes", "diet:vegetarian": "yes", "name": "Villa Singha", "opening_hours": "Th,Fr 12:00-14:00, Tu-Sa 18:30-22:30"}}, {"type": "node", "id": 2659325757, "lat": 50.8244114, "lon": 4.4003277, "tags": {"amenity": "restaurant", "contact:email": "info@pizzeria1032.com", "contact:phone": "+32 2 513 20 63", "contact:website": "https://www.pizzeria1032.com/", "cuisine": "pizza", "name": "Pizzeria 1032", "opening_hours": "Mo-Fr 12:00-14:00, 18:30-22:00; Sa 18:30-22:00; Su off"}}, {"type": "node", "id": 5112269121, "lat": 50.824565, "lon": 4.3995844, "tags": {"amenity": "restaurant", "check_date": "2024-02-05", "contact:phone": "+32 2 646 03 20", "contact:website": "https://www.demasalabox.com/", "level": "0", "name": "De Masala Box", "opening_hours": "Mo-Fr 11:00-15:00; Sa-Su off", "payment:cash": "yes", "payment:credit_cards": "yes", "payment:debit_cards": "yes", "wheelchair": "no"}}, {"type": "node", "id": 5508752810, "lat": 50.8272333, "lon": 4.4020071, "tags": {"amenity": "restaurant", "contact:website": "https://www.pizzeriaitrulli.be/", "cuisine": "pizza", "name": "I Trulli", "opening_hours": "Mo-Fr 11:30-14:00, Mo-Su 17:00-22:00"}}, {"type": "node", "id": 5912301825, "lat": 50.8173173, "lon": 4.4214362, "tags": {"amenity": "restaurant", "contact:email": "info@latapasseria.com", "contact:mobile": "+32 475 37 05 44", "contact:website": "https://www.latapasseria.com/", "cuisine": "peruvian", "name": "La Tapasseria", "opening_hours": "Tu-Sa 12:00-14:00,18:00-22:00"}}, {"type": "node", "id": 5929793402, "lat": 50.8209399, "lon": 4.408108, "tags": {"amenity": "restaurant", "check_date:opening_hours": "2022-01-30", "contact:phone": "+32 2 673 21 46", "contact:website": "https://restaurantalpeperoncino.be", "cuisine": "italian", "diet:vegetarian": "yes", "name": "Al Peperoncino", "opening_hours": "Tu-Su 11:30-14:30,18:30-22:30"}}, {"type": "node", "id": 5929904232, "lat": 50.8206156, "lon": 4.4092528, "tags": {"amenity": "restaurant", "check_date": "2023-11-30", "diet:vegetarian": "no", "name": "Brasserie Saint-Julien", "wheelchair": "yes"}}, {"type": "node", "id": 5937351853, "lat": 50.8175854, "lon": 4.4211421, "tags": {"amenity": "restaurant", "contact:phone": "+32 2 673 70 98", "contact:website": "https://thaiorchid.be", "cuisine": "thai", "description": "Restaurant - Traiteur", "diet:vegan": "yes", "diet:vegetarian": "yes", "internet_access": "wlan", "name": "Thai Orchid", "opening_hours": "Su-Fr 12:00-14:00,18:00-21:30; Sa 18:00-22:00", "takeaway": "yes", "wheelchair": "no"}}, {"type": "node", "id": 5937384815, "lat": 50.8176083, "lon": 4.4199478, "tags": {"amenity": "restaurant", "diet:vegan": "yes", "diet:vegetarian": "yes", "name": "OUD", "wheelchair": "no"}}, {"type": "node", "id": 8083943364, "lat": 50.8175083, "lon": 4.4217143, "tags": {"amenity": "restaurant", "contact:phone": "+32 2 271 13 47", "cuisine": "pizza", "diet:vegetarian": "yes", "name": "Da Maurizio", "opening_hours": "Mo-Fr 12:00-14:00,18:00-22:30; Sa-Su 18:00-22:30", "takeaway": "yes"}}, {"type": "node", "id": 9580248851, "lat": 50.8180148, "lon": 4.4181917, "tags": {"amenity": "restaurant", "contact:facebook": "RestaurantPandaAuderghem", "contact:mobile": "+32 485 35 47 03", "contact:tripadvisor": "7934714", "cuisine": "chinese", "name": "Panda", "takeaway": "yes"}}, {"type": "node", "id": 11059597410, "lat": 50.8173416, "lon": 4.4213642, "tags": {"amenity": "restaurant", "contact:phone": "+32 2 672 09 88", "contact:website": "https://hanaya-sushi-express.be/", "cuisine": "japanese", "diet:vegetarian": "yes", "name": "Hanaya Sushi", "opening_hours": "Mo-We, Fr 11:00-14:30, 18:00-22:00; Th, Sa 18:00-22:00"}}, {"type": "node", "id": 11289272523, "lat": 50.822247, "lon": 4.4037917, "tags": {"amenity": "restaurant", "cuisine": "pasta", "name": "Almi Corner"}}, {"type": "node", "id": 12206585887, "lat": 50.818129, "lon": 4.4187353, "tags": {"amenity": "restaurant", "cuisine": "italian", "diet:vegetarian": "yes", "name": "Caruso", "opening_hours": "Mo-Su 12:00-14:00,18:00-21:30", "takeaway": "yes"}}, {"type": "node", "id": 12585636278, "lat": 50.8233606, "lon": 4.4073929, "tags": {"amenity": "restaurant", "name": "Bistro Bobo"}}, {"type": "node", "id": 12732007653, "lat": 50.8219857, "lon": 4.4052408, "tags": {"amenity": "restaurant", "cuisine": "sushi", "name": "Ninki"}}, {"type": "node", "id": 12735500069, "lat": 50.8247106, "lon": 4.3998295, "tags": {"amenity": "restaurant", "contact:phone": "+32 2 733 49 09", "contact:website": "https://www.tokyoroll.be/", "cuisine": "japanese", "delivery": "yes", "name": "Tokyo Roll", "takeaway": "yes"}}, {"type": "node", "id": 12847994175, "lat": 50.8176456, "lon": 4.4207948, "tags": {"amenity": "restaurant", "contact:phone": "+32 2 673 66 73", "contact:website": "https://www.restaurant-arcenciel.be/", "cuisine": "vietnamese", "description": "Viet & Tha\u00ef", "diet:vegan": "yes", "diet:vegetarian": "yes", "name": "Arc-en-Ciel", "opening_hours": "Mo-Fr 12:00-14:30,18:00-23:00", "takeaway": "yes", "wheelchair": "no"}}, {"type": "node", "id": 12953991701, "lat": 50.8192097, "lon": 4.4149105, "tags": {"amenity": "restaurant", "check_date": "2023-10-25", "contact:phone": "+32 2 675 00 04", "cuisine": "mediterranean", "name": "La Kha\u00efma", "opening_hours": "18:30-23:00"}}, {"type": "node", "id": 13342342301, "lat": 50.8233968, "lon": 4.4015217, "tags": {"amenity": "restaurant", "contact:mobile": "+32 488 38 03 90", "cuisine": "asian", "level": "0", "opening_hours": "Mo-Tu, Th 11:30-14:30, 17:30-21:00; We, Sa 17:30-21:00; Fr 11:30-14:30, 17:30-21:30", "outdoor_seating": "no", "self_service": "no"}}]}