{"version": 0.6, "generator": "Overpass API 0.7.62.10 2d4cfc48", "osm3s": {"timestamp_osm_base": "2026-02-02T17:53:01Z", "copyright": "The data included in this document is from www.openstreetmap.org. The data is made available under ODbL."}, "elements": [{"type": "node", "id": 234524306, "lat": 50.8359295, "lon": 4.3644108, "tags": {"amenity": "restaurant", "contact:email": "info@ultimeatome.be", "contact:facebook": "UltimeAtome.be", "contact:instagram": "_ultime_atome_", "contact:phone": "+32 2 513 48 84", "contact:website": "https://www.ultimeatome.be", "internet_access": "wlan", "internet_access:fee": "no", "name": "L'Ultime Atome", "opening_hours": "Su-Th 08:00-00:30; Fr-Sa 08:00-01:00", "outdoor_seating": "yes", "smoking": "isolated", "website:menu": "https://ultimeatome.be/en/menu", "wheelchair": "no"}}, {"type": "node", "id": 234524310, "lat": 50.8356075, "lon": 4.3648084, "tags": {"amenity": "restaurant", "brewery": "Chouffe;Vedett Blanche;Maes", "contact:phone": "+32 2 511 11 21", "contact:website": "https://www.leclandesbelges.be", "cuisine": "local", "indoor_seating": "yes", "internet_access": "wlan", "name": "Le clan des Belges", "outdoor_seating": "pedestrian_zone", "wheelchair": "limited"}}, {"type": "node", "id": 694336436, "lat": 50.8359501, "lon": 4.3648155, "tags": {"alt_name": "Le 2e \u00e9l\u00e9ment", "amenity": "restaurant", "check_date": "2026-01-24", "check_date:opening_hours": "2026-01-24", "contact:phone": "+32 2 502 00 28", "contact:website": "https://www.2eme-element.be/", "cuisine": "thai", "diet:vegetarian": "yes", "internet_access": "wlan", "name": "Le Deuxi\u00e8me \u00c9l\u00e9ment", "opening_hours": "Mo-Fr 12:00-14:30,18:30-22:30; Sa,Su 18:30-22:30", "payment:maestro": "yes", "payment:mastercard": "yes", "payment:visa": "yes", "source": "survey", "takeaway": "yes", "wheelchair": "limited"}}, {"type": "node", "id": 694372969, "lat": 50.8362608, "lon": 4.3636908, "tags": {"amenity": "restaurant", "cuisine": "japanese", "diet:meat": "yes", "diet:vegan": "no", "diet:vegetarian": "no", "name": "Yamato", "opening_hours": "Mo-Fr 12:00-14:30,18:30-22:00; Sa,Su 12:00-15:30,18:30-22:00", "wheelchair": "limited"}}, {"type": "node", "id": 1631358481, "lat": 50.8386114, "lon": 4.3646222, "tags": {"amenity": "restaurant", "contact:phone": "+32 2 511 84 35", "contact:website": "http://enotecadavalentino.com", "cuisine": "italian", "description": "Restaurant Wine bar", "name": "Enoteca da Valentino", "opening_hours": "Mo-Fr 12:00-15:00,18:00-22:00; Sa 18:30-23:00"}}, {"type": "node", "id": 2183692520, "lat": 50.8360361, "lon": 4.3656667, "tags": {"amenity": "restaurant", "indoor_seating": "yes", "name": "The Green Pepper / Chez Malon", "outdoor_seating": "no"}}, {"type": "node", "id": 2451973587, "lat": 50.8364634, "lon": 4.3635455, "tags": {"amenity": "restaurant", "check_date": "2024-01-01", "contact:email": "info@tadaopoke.cool", "contact:facebook": "https://www.facebook.com/Tadao-619654705173089", "contact:phone": "+32 2 356 32 20", "contact:website": "https://www.tadaopoke.cool", "cuisine": "poke", "diet:vegan": "yes", "diet:vegetarian": "yes", "name": "Tada\u014d", "opening_hours": "Mo-Fr 11:00-22:00; Sa 11:30-22:00; Su 17:00-22:00", "payment:maestro": "yes", "payment:mastercard": "yes", "payment:visa": "yes", "takeaway": "yes", "wheelchair": "yes"}}, {"type": "node", "id": 2451973589, "lat": 50.8365554, "lon": 4.3636588, "tags": {"amenity": "restaurant", "contact:website": "https://www.kneestochin.com/", "cuisine": "asian", "name": "Knees to Chin", "opening_hours": "Mo-Sa 11:30-22:00; Su off"}}, {"type": "node", "id": 2451989321, "lat": 50.8360778, "lon": 4.3646446, "tags": {"amenity": "restaurant", "end_date": "2025-05", "name": "Moutarde", "opening_hours": "12:00-01:00", "opening_hours:kitchen": "12:00-14:00,18:30-22:30"}}, {"type": "node", "id": 2451989322, "lat": 50.8361978, "lon": 4.3644354, "tags": {"amenity": "restaurant", "check_date:opening_hours": "2026-01-24", "contact:facebook": "https://www.facebook.com/littletokyobxl", "contact:instagram": "https://www.instagram.com/littletokyobxl/", "contact:phone": "+32 2 513 48 41", "contact:website": "http://www.littletokyo.be", "cuisine": "japanese", "name": "Little Tokyo", "opening_hours": "Tu-Th 12:00-14:30,18:30-22:30; Fr-Sa 12:00-14:30,18:30-23:00; Su 12:00-17:00", "takeaway": "yes"}}, {"type": "node", "id": 2451989324, "lat": 50.8363004, "lon": 4.3642278, "tags": {"amenity": "restaurant", "contact:website": "https://www.hana-resto.be", "cuisine": "japanese;korean", "name": "Hana"}}, {"type": "node", "id": 2451989334, "lat": 50.836297, "lon": 4.3637509, "tags": {"airconditioned": "no", "amenity": "restaurant", "catering": "yes", "contact:website": "https://deliziedellamamma.be/fr", "internet_access": "wlan", "lunch": "yes", "name": "Winehouse Osteria \u2013 Le Delizie", "opening_hours": "Mo-We 12:00 - 14:30, 18:30 - 22:30; Th-Sa 12:00 - 14:30, 18:30 - 22:30; Sa 12:00 - 14:30, 18:30 - 22:30; Su off", "outdoor_seating": "no", "payment:cash": "yes", "payment:maestro": "yes", "payment:mastercard": "yes", "payment:visa": "yes", "wheelchair": "no"}}, {"type": "node", "id": 2451989338, "lat": 50.8357931, "lon": 4.3646611, "tags": {"amenity": "restaurant", "contact:email": "info@manoamano.be", "contact:phone": "+32 2 502 08 01", "contact:website": "http://www.manoamano.be/#new-page-1", "cuisine": "italian", "name": "Mano \u00e0 Mano", "opening_hours": "Mo-We 12:00-14:30,18:30-23:30;Th-Sa 12:00-14:30, 18:30-00:00;Su 18:30-23:30"}}, {"type": "node", "id": 2452112918, "lat": 50.8364514, "lon": 4.3653857, "tags": {"amenity": "restaurant", "bar": "yes", "contact:mobile": "+32 465 41 50 18", "contact:website": "https://hope-house-african-restaurant.business.site", "cuisine": "african", "name": "Hope House", "outdoor_seating": "yes", "wheelchair": "limited"}}, {"type": "node", "id": 2452583805, "lat": 50.8327238, "lon": 4.3665415, "tags": {"amenity": "restaurant", "check_date": "2023-06-02", "contact:instagram": "https://www.instagram.com/artigiano_della_farina", "contact:mobile": "+32 499 64 62 69", "contact:website": "https://www.artigianodellafarina.be", "cuisine": "pizza", "name": "L'Artigiano della farina", "shop": "vacant", "was:name": "Mano Nera", "was:shop": "hairdresser"}}, {"type": "node", "id": 2456248422, "lat": 50.8333818, "lon": 4.3670788, "tags": {"amenity": "restaurant", "bar": "yes", "contact:instagram": "brasserievollegas", "contact:phone": "+32 2 502 89 17", "contact:website": "https://90folies.com/vollegas", "cuisine": "brasserie;belgian", "highchair": "no", "indoor_seating": "yes", "name": "Volle Gas", "opening_hours": "Mo-Su 12:00-24:00", "opening_hours:kitchen": "Mo-Su 12:00-22:30", "operator": "90 Folies", "operator:wikidata": "Q137780532", "outdoor_seating": "yes", "wheelchair": "no"}}, {"type": "node", "id": 2460607990, "lat": 50.8378331, "lon": 4.3611472, "tags": {"amenity": "restaurant", "check_date:opening_hours": "2025-10-31", "cuisine": "steak_house", "name": "Brussels Grill", "opening_hours:signed": "no", "toilets:wheelchair": "no", "wheelchair": "limited"}}, {"type": "node", "id": 2839619941, "lat": 50.837737, "lon": 4.3684091, "tags": {"amenity": "restaurant", "contact:phone": "+32 2 503 36 48", "contact:website": "https://elturco.be/", "cuisine": "mediterranean", "description": "Restaurant self service de type mediterran\u00e9en, d'influence ottomane", "diet:vegan": "yes", "diet:vegetarian": "yes", "internet_access": "wlan", "name": "El Turco", "opening_hours": "Mo-Fr 11:30-15:00; Tu-Fr 19:00-22:30", "outdoor_seating": "yes", "self_service": "yes", "takeaway": "yes", "wheelchair": "yes"}}, {"type": "node", "id": 3194961918, "lat": 50.8367918, "lon": 4.3638332, "tags": {"amenity": "restaurant", "cuisine": "international", "name": "Le Matonge"}}, {"type": "node", "id": 4026937914, "lat": 50.8334686, "lon": 4.366824, "tags": {"amenity": "restaurant", "contact:phone": "+32 2 540 80 77", "contact:website": "https://www.restaurant-pizzeria-il-nobile-ixelles.be", "cuisine": "pizza", "indoor_seating": "yes", "name": "Il Nobile", "outdoor_seating": "yes", "wheelchair": "limited"}}, {"type": "node", "id": 4026937915, "lat": 50.8331522, "lon": 4.3676703, "tags": {"amenity": "restaurant", "name": "L'\u00eelot Corse", "shop": "wine"}}, {"type": "node", "id": 4026937924, "lat": 50.8334073, "lon": 4.3669866, "tags": {"amenity": "restaurant", "contact:mobile": "+32 484 22 34 57", "contact:website": "https://vinomaniabxl.be", "cuisine": "spanish;tapas", "currency:EUR": "yes", "description:fr": "Bar \u00e0 tapas espagnol", "internet_access": "wlan", "internet_access:fee": "no", "name": "Vinoman\u00eda", "opening_hours": "Tu-Sa 16:30-24:00", "outdoor_seating": "yes", "payment:cash": "yes", "payment:credit_cards": "yes", "payment:debit_cards": "yes", "payment:mastercard": "yes", "payment:meal_voucher": "yes", "payment:visa": "yes", "wheelchair": "limited"}}, {"type": "node", "id": 4026992225, "lat": 50.8338533, "lon": 4.3655293, "tags": {"amenity": "restaurant", "contact:phone": "+32 2 513 53 12", "cuisine": "japanese", "name": "Yamayu Santatsu", "opening_hours": "Tu-Sa 12:00-13:45,19:00-22:00; Su 19:00-22:00", "wheelchair": "limited"}}, {"type": "node", "id": 4030010490, "lat": 50.8325428, "lon": 4.3666438, "tags": {"amenity": "restaurant", "changing_table": "no", "entrance:kerb:height": "0.15", "entrance:ramp": "no", "entrance:step_count": "1", "entrance:width": "0.9", "name": "De Haus", "toilets:wheelchair": "no", "wheelchair:turning_circle": "yes"}}, {"type": "node", "id": 4030010491, "lat": 50.8324829, "lon": 4.3666695, "tags": {"amenity": "restaurant", "changing_table": "yes", "cuisine": "burger", "entrance:kerb:height": "0.09", "entrance:ramp": "no", "entrance:step_count": "1", "entrance:width": "1.75", "name": "L'Amour Fou", "wheelchair": "limited", "wheelchair:turning_circle": "yes"}}, {"type": "node", "id": 4101726707, "lat": 50.8368918, "lon": 4.3653746, "tags": {"amenity": "restaurant", "contact:phone": "+32 2 513 93 31", "cuisine": "italian", "name": "San Giacomo", "opening_hours": "Mo-Fr 12:00-15:00,18:00-23:00; Sa 12:00-15:00,18:00-23:30", "wheelchair": "no"}}, {"type": "node", "id": 4217199692, "lat": 50.8359312, "lon": 4.365295, "tags": {"amenity": "restaurant", "contact:phone": "+32 2 502 90 92", "cuisine": "italian;pizza", "delivery": "yes", "indoor_seating": "yes", "name": "La Cantinetta", "opening_hours": "11:30-14:30; 17:30-22:30", "outdoor_seating": "no", "payment:cash": "yes", "payment:credit_cards": "yes", "payment:debit_cards": "yes", "reservation": "yes", "smoking": "outside", "takeaway": "yes"}}, {"type": "node", "id": 4309062992, "lat": 50.836163, "lon": 4.3678972, "tags": {"amenity": "restaurant", "contact:phone": "+32 2 513 63 61", "contact:website": "https://www.trattorialesans13.be/", "cuisine": "italian", "name": "Le Sans 13"}}, {"type": "node", "id": 4326816989, "lat": 50.8357285, "lon": 4.3647074, "tags": {"amenity": "restaurant", "brewery": "yes", "check_date": "2024-01-01", "contact:phone": "+32 2 502 00 08", "contact:website": "https://www.lesmarmitesdumonde.be", "cuisine": "mauritian", "name": "Les Marmites du Monde", "payment:maestro": "yes", "payment:mastercard": "yes", "payment:visa": "yes"}}, {"type": "node", "id": 4326816991, "lat": 50.8359765, "lon": 4.3647767, "tags": {"amenity": "restaurant", "check_date": "2026-01-24", "check_date:opening_hours": "2026-01-24", "contact:phone": "+32 2 511 53 66", "contact:website": "https://www.saintboniface.be/", "name": "Saint Boniface", "opening_hours": "Mo-Fr 12:00-14:00, Mo-Sa 19:00-22:00", "payment:cash": "yes", "payment:credit_cards": "yes", "payment:debit_cards": "yes"}}, {"type": "node", "id": 4326817089, "lat": 50.8358849, "lon": 4.3651516, "tags": {"amenity": "restaurant", "contact:phone": "+32 2 513 41 65", "contact:website": "https://www.savage.restaurant", "entrance:kerb:height": "0", "entrance:step_count": "0", "entrance:width": "0.88", "indoor_seating": "yes", "internet_access": "wlan", "internet_access:fee": "no", "name": "Savage", "opening_hours": "Tu-Sa 18:00-22:30; We-Fr 12:00-14:00; Su off", "outdoor_seating": "yes", "start_date": "2021", "toilets:wheelchair": "no", "wheelchair": "limited", "wheelchair:description": "Toilet on first floor.", "wheelchair:turning_circle": "yes"}}, {"type": "node", "id": 4415645090, "lat": 50.8381477, "lon": 4.3683847, "tags": {"amenity": "restaurant", "check_date": "2024-10-10", "contact:email": "anciennepoissonnerie@gmail.com", "contact:phone": "+32 2 502 75 05", "contact:website": "http://www.anciennepoissonnerie.be", "cuisine": "italian", "name": "L'Ancienne Poissonnerie", "opening_hours": "Mo-Fr 12:00-15:00, 19:00-23:00; Sa 19:00-23:00", "wheelchair": "no"}}, {"type": "node", "id": 4424621389, "lat": 50.8358017, "lon": 4.3661212, "tags": {"amenity": "restaurant", "brewery": "yes", "changing_table": "no", "check_date:opening_hours": "2025-02-05", "cuisine": "coffee_shop;international", "entrance:kerb:height": "0.12", "entrance:ramp": "no", "entrance:step_count": "1", "entrance:width": "0.94", "food": "regional", "indoor_seating": "yes", "name": "caleo cafe", "opening_hours:signed": "no", "outdoor_seating": "pedestrian_zone", "smoking": "outside", "wheelchair": "no", "wheelchair:turning_circle": "yes"}}, {"type": "node", "id": 4666814252, "lat": 50.8365614, "lon": 4.3655008, "tags": {"amenity": "restaurant", "check_date": "2024-08-02", "contact:mobile": "+32 486 30 26 40", "cuisine": "african;ethiopian", "description": "Ethiopian Restaurant", "diet:vegetarian": "yes", "name": "Soleil d'Afrique", "opening_hours": "Mo-Su 12:00-00:00", "outdoor_seating": "yes", "payment:cash": "yes", "payment:credit_cards": "yes"}}, {"type": "node", "id": 4762465234, "lat": 50.8350766, "lon": 4.3611588, "tags": {"amenity": "restaurant", "bar": "yes", "brewery": "various", "check_date": "2025-07-22", "check_date:diet:vegetarian": "2025-07-22", "contact:website": "http://www.lesbrassins.be/", "delivery": "no", "diet:vegetarian": "no", "level": "0", "name": "Les Brassins", "opening_hours": "Tu-Sa 11:00-24:00", "payment:cash": "yes", "payment:credit_cards": "yes", "payment:debit_cards": "yes", "reservation": "yes", "smoking": "no", "toilets:menstrual_products": "no"}}, {"type": "node", "id": 4762465959, "lat": 50.8359791, "lon": 4.3653321, "tags": {"amenity": "restaurant", "indoor_seating": "yes", "name": "La Signare", "opening_hours": "Mo-Su 11:30-23:59", "outdoor_seating": "no"}}, {"type": "node", "id": 4864707926, "lat": 50.8385969, "lon": 4.3643471, "tags": {"amenity": "restaurant", "check_date": "2023-08-07", "contact:email": "novusbruxelles@gmail.com", "contact:mobile": "+32 477 22 36 97", "contact:website": "https://www.novus-restaurant.be/", "name": "Novus", "note": "will become El Pulgarcito restaurant soon..", "opening_hours": "off"}}, {"type": "node", "id": 4864741401, "lat": 50.838009, "lon": 4.368126, "tags": {"amenity": "restaurant", "start_date": "2020"}}, {"type": "node", "id": 4864772015, "lat": 50.8386836, "lon": 4.3705756, "tags": {"amenity": "restaurant", "contact:email": "bxl.kroket@gmail.com", "contact:phone": "+32 2 580 16 30", "contact:website": "https://kroket.eatbu.com", "diet:vegan": "limited", "diet:vegetarian": "yes", "indoor_seating": "yes", "name": "Kroket", "opening_hours": "Mo, Tu 12:00-14:30; We-Fr 12:00-14:30, 19:00-21:30", "outdoor_seating": "yes", "payment:cards": "yes", "payment:cash": "yes", "service:electricity": "limited", "takeaway": "yes"}}, {"type": "node", "id": 4864777206, "lat": 50.838665, "lon": 4.3705045, "tags": {"amenity": "restaurant", "indoor_seating": "yes", "name": "Le Nouvel Artiste", "outdoor_seating": "yes"}}, {"type": "node", "id": 5110746338, "lat": 50.8358405, "lon": 4.3712513, "tags": {"air_conditioning": "no", "amenity": "restaurant", "contact:email": "info@horlogedusud.be", "contact:fax": "+32 2 503 09 11", "contact:phone": "+32 2 512 18 64", "contact:website": "https://www.horlogedusud.be/", "cuisine": "african", "diet:vegan": "no", "diet:vegetarian": "yes", "indoor_seating": "yes", "name": "L'Horloge du Sud", "opening_hours": "Mo-Fr 11:00-15:00,18:00-24:00; Sa 18:00-24:00; Su,PH off", "outdoor_seating": "yes", "smoking": "outside", "wheelchair": "no"}}, {"type": "node", "id": 5174887914, "lat": 50.8369471, "lon": 4.3650431, "tags": {"airconditioned": "no", "amenity": "restaurant", "catering": "yes", "contact:website": "https://mumtaz.brussels/", "cuisine": "indian", "internet_access": "wlan", "lunch": "yes", "name": "Mumtaz", "opening_hours": "Mo off; Tu,We,Th 12:00 - 14:30, 18:00 - 22:00; Fr 18:00 - 23:00; Sa 12:00 - 15:00, 18:00 - 23:00; Su 12:00 - 14:30, 18:00 - 21:30", "outdoor_seating": "no", "payment:cash": "yes", "payment:maestro": "yes", "payment:mastercard": "yes", "payment:visa": "yes", "wheelchair": "no"}}, {"type": "node", "id": 5435711640, "lat": 50.8361325, "lon": 4.365534, "tags": {"amenity": "restaurant"}}, {"type": "node", "id": 6119928236, "lat": 50.8352541, "lon": 4.3633965, "tags": {"amenity": "restaurant", "cuisine": "indian", "name": "Indian Flavour", "opening_hours": "Mo,Tu,Th-Su 12:00-15:00,18:00-23:00; We 18:00-23:00"}}, {"type": "node", "id": 6325197787, "lat": 50.83636, "lon": 4.3655378, "tags": {"amenity": "restaurant", "cuisine": "african", "name": "Soho", "wheelchair": "no"}}, {"type": "node", "id": 6584884287, "lat": 50.8362687, "lon": 4.3659756, "tags": {"amenity": "restaurant", "cuisine": "african", "indoor_seating": "yes", "name": "Malewa", "opening_hours": "Mo-Sa 11:00-21:00", "outdoor_seating": "sidewalk"}}, {"type": "node", "id": 7082039071, "lat": 50.8382306, "lon": 4.3630461, "tags": {"amenity": "restaurant", "contact:website": "https://www.sushiria.be/", "cuisine": "japanese", "delivery": "yes", "name": "Sushiria", "opening_hours": "Mo-Sa 11:30-15:30,17:30-22:30", "takeaway": "yes"}}, {"type": "node", "id": 7136756886, "lat": 50.8359648, "lon": 4.3711136, "tags": {"amenity": "restaurant", "cuisine": "thai", "name": "Thai Chiangmai"}}, {"type": "node", "id": 7142339596, "lat": 50.8363656, "lon": 4.3645933, "tags": {"amenity": "restaurant", "contact:email": "info@lesyrtaki.net", "contact:phone": "+32 2 512 32 70", "contact:website": "http://www.lesyrtaki.net/", "cuisine": "greek", "name": "Le Syrtaki", "opening_hours": "Mo-Su 12:00-15:00,18:30-23:00; Tu 12:00-15:00", "takeaway": "yes"}}, {"type": "node", "id": 7142339597, "lat": 50.8361249, "lon": 4.3641176, "tags": {"amenity": "restaurant", "contact:email": "info@lesyrtaki.net", "contact:phone": "+32 2 512 32 70", "contact:website": "http://www.lesyrtaki.net/", "cuisine": "greek", "name": "Le Syrtaki", "opening_hours": "Mo-Su 12:00-15:00,18:30-23:00; Tu 12:00-15:00", "takeaway": "yes"}}, {"type": "node", "id": 7154159184, "lat": 50.835875, "lon": 4.3640072, "tags": {"amenity": "restaurant", "check_date": "2025-08-05", "contact:website": "https://www.voltasupperclub.com/", "cuisine": "pizza", "diet:non-vegetarian": "yes", "diet:vegan": "yes", "diet:vegetarian": "yes", "name": "Volta Supper Club", "opening_hours": "Su-We 18:30-23:00; Th-Sa 18:30-23:30"}}, {"type": "node", "id": 7154181518, "lat": 50.8359491, "lon": 4.3641136, "tags": {"amenity": "restaurant", "contact:email": "info@lesyrtaki.net", "contact:phone": "+32 2 512 32 70", "cuisine": "greek", "name": "Le Syrtaki", "opening_hours": "Mo-Su 12:00-15:00,18:30-23:00; Tu 12:00-15:00", "takeaway": "yes"}}, {"type": "node", "id": 7330062336, "lat": 50.8354939, "lon": 4.3694823, "tags": {"amenity": "restaurant", "check_date": "2024-10-13", "check_date:diet:halal": "2024-10-13", "check_date:diet:vegan": "2024-10-13", "check_date:diet:vegetarian": "2024-10-13", "contact:phone": "+32 2 512 49 29", "contact:website": "https://kitchen.onefiveone.be", "cuisine": "mediterranean", "diet:halal": "no", "diet:vegan": "no", "diet:vegetarian": "yes", "indoor_seating": "yes", "name": "Kitchen 151", "note": "Opening hours taken from the front door (as of September 2020); they differ from their website", "opening_hours": "We-Sa 11:00-16:00", "outdoor_seating": "yes", "takeaway": "yes", "wheelchair": "limited"}}, {"type": "node", "id": 7930693912, "lat": 50.8360258, "lon": 4.3646886, "tags": {"amenity": "restaurant", "check_date": "2024-11-09", "contact:facebook": "https://www.facebook.com/kokuramen/", "contact:instagram": "https://www.instagram.com/koku.ramen/", "contact:phone": "+32 2 361 75 41", "contact:tiktok": "https://www.tiktok.com/@koku_ramen", "contact:website": "https://iekeikokuramen.com/", "cuisine": "ramen", "delivery": "no", "name": "Koku Ramen", "opening_hours": "Tu 12:00-14:00; We-Fr 12:00-14:00,19:00-21:00; Sa 12:00-14:00,19:00-21:30; Mo,Su off", "payment:cash": "yes", "payment:credit_cards": "yes", "payment:debit_cards": "yes", "reservation": "no", "takeaway": "no"}}, {"type": "node", "id": 8013258685, "lat": 50.8388365, "lon": 4.3675236, "tags": {"amenity": "restaurant", "contact:mobile": "+32 494 52 62 59", "contact:website": "https://vkous.com/", "cuisine": "hawaiian", "entrance:kerb:height": "0.15", "entrance:step_count": "2", "entrance:width": "0.9", "name": "Vkous", "opening_hours": "Mo 11:00-15:00; Tu-Fr 11:00-15:00,18:30-21:30", "toilets:wheelchair": "yes", "toilets:wheelchair:accessible_via": "stairs", "wheelchair:turning_circle": "yes"}}, {"type": "node", "id": 8049638279, "lat": 50.8356977, "lon": 4.3666669, "tags": {"amenity": "restaurant", "check_date:opening_hours": "2025-02-05", "contact:mobile": "+32 473 49 64 93", "contact:website": "https://www.certo.me/", "cuisine": "italian", "indoor_seating": "yes", "name": "Certo", "opening_hours:signed": "no", "outdoor_seating": "sidewalk", "wheelchair": "no"}}, {"type": "node", "id": 8151683605, "lat": 50.8346801, "lon": 4.3638129, "tags": {"amenity": "restaurant", "contact:instagram": "thefiftyonebrussels", "cuisine": "mediterranean", "diet:vegetarian": "yes", "indoor_seating": "yes", "name": "The Fifty One", "opening_hours": "Tu-Sa 15:00-23:00", "outdoor_seating": "pedestrian_zone", "website:menu": "https://www.thefork.com/restaurant/the-fifty-one-tapas-sharing-plates-bistro-r660315/menu", "wheelchair": "yes"}}, {"type": "node", "id": 8401880797, "lat": 50.835615, "lon": 4.3697697, "tags": {"alt_name": "La Marraine", "amenity": "restaurant", "cuisine": "african", "indoor_seating": "yes", "membership": "yes", "name": "La Mandibule", "opening_hours": "11:00-sunrise", "outdoor_seating": "yes"}}, {"type": "node", "id": 8617596345, "lat": 50.8376929, "lon": 4.3680319, "tags": {"amenity": "restaurant", "cuisine": "soup;salads;coffee", "name": "IKI", "opening_hours:covid19": "Mo-Fr 11:30-15:00; Sa-Su off"}}, {"type": "node", "id": 8617596347, "lat": 50.8375985, "lon": 4.3681618, "tags": {"amenity": "restaurant", "contact:phone": "+32 2 502 22 32", "contact:website": "https://www.restaurantchou.eu", "name": "Chou", "opening_hours:covid19": "Mo-Fr 12:00-14:00,18:30-22:00; Sa 18:30-22:00; Su off"}}, {"type": "node", "id": 9366220883, "lat": 50.8360831, "lon": 4.3657352, "tags": {"amenity": "restaurant", "indoor_seating": "yes", "name": "Les 2 Orients", "outdoor_seating": "no"}}, {"type": "node", "id": 9366220886, "lat": 50.8363409, "lon": 4.3660592, "tags": {"amenity": "restaurant", "contact:phone": "+32 2 608 51 54", "contact:website": "https://osteriabolognese.be", "cuisine": "italian", "delivery": "no", "name": "Osteria Bolognese", "opening_hours": "Tu-Fr 12:00-14:00,19:00-22:15", "outdoor_seating": "yes", "takeaway": "yes"}}, {"type": "node", "id": 9741381509, "lat": 50.8363699, "lon": 4.3605252, "tags": {"amenity": "restaurant", "contact:phone": "+32 2 502 90 98", "cuisine": "persian", "name": "Shuka", "opening_hours": "Mo-We 12:00-19:00; Th-Sa 12:00-20:30; Su off; PH off"}}, {"type": "node", "id": 10291572457, "lat": 50.8353649, "lon": 4.3647729, "tags": {"amenity": "restaurant", "contact:mobile": "+32 485 39 61 01", "cuisine": "asian", "delivery": "yes", "delivery:partner": "takeaway.com", "description": "Dim Sum and Veggies", "name": "May Flower", "opening_hours": "Tu-Sa 12:00-14:30,18:00-22:00"}}, {"type": "node", "id": 10565268288, "lat": 50.8362522, "lon": 4.3675514, "tags": {"amenity": "restaurant", "cuisine": "african", "name": "\u00d4 111", "operator": "Chez Malou"}}, {"type": "node", "id": 10739057542, "lat": 50.8362212, "lon": 4.365914, "tags": {"amenity": "restaurant", "cuisine": "sushi", "indoor_seating": "yes", "name": "Makifornia", "opening_hours": "Mo-Fr 11:00-23:00; Sa,Su 11:30-23:00", "outdoor_seating": "no"}}, {"type": "node", "id": 10739057543, "lat": 50.8363905, "lon": 4.3657036, "tags": {"amenity": "restaurant", "contact:mobile": "+32 465 85 44 94", "contact:website": "https://laakam.be", "cuisine": "african", "name": "Le Laakam"}}, {"type": "node", "id": 10842099584, "lat": 50.8345565, "lon": 4.3616829, "tags": {"amenity": "restaurant", "contact:mobile": "+32 479 40 06 07", "contact:website": "https://epicerie-nomad.be/", "cuisine": "fusion", "indoor_seating": "yes", "name": "L'\u00e9picerie Nomad", "opening_hours": "Tu-Sa 11:00-15:00,18:00-22:00", "outdoor_seating": "yes"}}, {"type": "node", "id": 11200735749, "lat": 50.8362882, "lon": 4.3645205, "tags": {"amenity": "restaurant", "contact:website": "https://www.konchu.eu/", "cuisine": "japanese", "name": "Konchu", "official_name": "Konch\u016b", "opening_hours": "Tu-Sa 12:00-14:30,19:00-22:00"}}, {"type": "node", "id": 11244653188, "lat": 50.8375363, "lon": 4.3719467, "tags": {"amenity": "restaurant", "cuisine": "sandwich;coffee_shop;salad", "name": "So Lunch"}}, {"type": "node", "id": 11273709447, "lat": 50.8378886, "lon": 4.3686954, "tags": {"amenity": "restaurant", "contact:phone": "+32 2 502 52 05", "contact:website": "https://hinodeya.jimdofree.com/", "cuisine": "japanese", "name": "Hinodeya", "opening_hours": "Mo,Tu,Th,Fr 12:00-13:30,19:00-21:30; We 12:00-13:30"}}, {"type": "node", "id": 11346698583, "lat": 50.835603, "lon": 4.3664314, "tags": {"amenity": "restaurant", "contact:mobile": "+32 455 11 85 68", "contact:website": "https://lelonguevie.be/", "cuisine": "tapas", "indoor_seating": "yes", "name": "Le Longue Vie", "opening_hours": "Tu-Sa 18:30-00:30", "outdoor_seating": "sidewalk"}}, {"type": "node", "id": 11392689191, "lat": 50.8354873, "lon": 4.3607027, "tags": {"amenity": "restaurant", "check_date": "2024-01-01", "contact:website": "https://www.bogartfoodiescorner.be", "cuisine": "mediterranean", "name": "Bogart Foodies Corner", "opening_hours": "Mo-Fr 12:00-13:30,19:00-21:30; Sa 19:00-21:30; PH off"}}, {"type": "node", "id": 11423323344, "lat": 50.835644, "lon": 4.3696892, "tags": {"amenity": "restaurant", "contact:website": "https://restaurantletournant.com", "cuisine": "french", "indoor_seating": "yes", "name": "Le Tournant", "opening_hours:signed": "no", "outdoor_seating": "no", "wheelchair": "limited"}}, {"type": "node", "id": 11502834659, "lat": 50.8376852, "lon": 4.3676446, "tags": {"amenity": "restaurant", "contact:email": "info.grilledandtoasty@gmail.com", "contact:mobile": "+32 470 55 70 31", "contact:website": "https://grilledandtoasty.com/", "cuisine": "sandwich", "delivery": "yes", "indoor_seating": "yes", "name": "Grilled & Toasty", "opening_hours": "Mo-Su 12:00-15:00,17:00-23:00", "outdoor_seating": "no", "payment:cash": "yes", "payment:credit_cards": "yes", "payment:debit_cards": "yes", "reservation": "yes", "takeaway": "yes"}}, {"type": "node", "id": 11528546370, "lat": 50.8340891, "lon": 4.3638082, "tags": {"amenity": "restaurant", "check_date": "2024-11-15", "cuisine": "asian", "indoor_seating": "yes", "name": "A-MUI Taiwanese Lunch Box", "opening_hours": "Mo,Sa-Su off; Tu-Th 11:30-14:00; Fr 11:30-14:00,17:30-20:00", "outdoor_seating": "no", "short_name": "A-MUI"}}, {"type": "node", "id": 11581984241, "lat": 50.8365539, "lon": 4.3670517, "tags": {"amenity": "restaurant", "check_date": "2024-02-03", "cuisine": "african", "name": "Mpoko Bazar", "payment:cash": "yes", "payment:credit_cards": "yes", "payment:debit_cards": "yes", "wheelchair": "no"}}, {"type": "node", "id": 11862171743, "lat": 50.8365606, "lon": 4.366922, "tags": {"amenity": "restaurant", "contact:website": "https://www.chezmaloubomboka.com/", "cuisine": "african", "name": "Chez Malou"}}, {"type": "node", "id": 12064917419, "lat": 50.8389847, "lon": 4.3655354, "tags": {"amenity": "restaurant", "club": "social", "contact:fax": "+32 2 513 64 11", "contact:phone": "+32 2 545 04 00", "contact:website": "https://universityfoundation.be/", "name": "Fondation Universitaire - Universitaire Stichting", "name:en": "University Foundation", "name:fr": "Fondation Universitaire", "name:nl": "Universitaire Stichting", "office": "foundation", "ref:vatin": "BE0536049813", "start_date": "1920-07-06", "tourism": "hotel", "wikidata": "Q7894696"}}, {"type": "node", "id": 12292784001, "lat": 50.835825, "lon": 4.363919, "tags": {"amenity": "restaurant", "contact:mobile": "+32 483 08 01 07", "cuisine": "chinese", "name": "Yangguofu Malatang", "name:zh-Latn-pinyin": "\u6768\u56fd\u798f\u9ebb\u8fa3\u70eb", "opening_hours": "Tu-Fr 11:30-14:30,18:00-21:30; Sa-Su 11:30-21:30", "self_service": "only"}}, {"type": "node", "id": 12558789532, "lat": 50.832722, "lon": 4.3636837, "tags": {"amenity": "restaurant", "contact:phone": "+32 2 503 01 80", "cuisine": "italian", "indoor_seating": "yes", "name": "L'Angolo", "outdoor_seating": "no", "wheelchair": "no"}}, {"type": "node", "id": 12558834783, "lat": 50.8357788, "lon": 4.3665205, "tags": {"amenity": "restaurant", "cuisine": "african", "indoor_seating": "yes", "name": "thieyp", "opening_hours": "Mo-Fr 12:00-14:30,18:00-22:00", "outdoor_seating": "no"}}, {"type": "node", "id": 12558864301, "lat": 50.8354094, "lon": 4.3663902, "tags": {"air_conditioning": "yes", "amenity": "restaurant", "contact:instagram": "zouzoubrussels", "contact:mobile": "+32 472 10 21 28", "contact:website": "https://zouzoubrussels.be/", "cuisine": "brunch;burger", "drink:beer": "no", "indoor_seating": "yes", "name": "ZouZou", "opening_hours": "Mo-Su 10:00-18:00", "outdoor_seating": "veranda", "payment:credit_cards": "yes", "payment:debit_cards": "yes", "pets": "yes", "takeaway": "yes", "website:menu": "https://drive.google.com/file/d/1P0wCz39nDpML9iCkrG2_zUV-3Gj3hNtt/view"}}, {"type": "node", "id": 12558877187, "lat": 50.8358951, "lon": 4.3654846, "tags": {"amenity": "restaurant", "indoor_seating": "yes", "name": "l'Archipel", "outdoor_seating": "no"}}, {"type": "node", "id": 12558889360, "lat": 50.836163, "lon": 4.365591, "tags": {"amenity": "restaurant", "name": "Django's"}}, {"type": "node", "id": 13291360522, "lat": 50.8364549, "lon": 4.3673832, "tags": {"amenity": "restaurant", "check_date": "2025-11-09", "contact:facebook": "chckntikka", "contact:mobile": "+32 484 59 22 21", "cuisine": "indian", "name": "Shezan", "opening_hours": "Tu-Su 12:00-15:00,18:00-23:00"}}, {"type": "node", "id": 13418547798, "lat": 50.8361197, "lon": 4.3680156, "tags": {"amenity": "restaurant"}}]}