{"version": 0.6, "generator": "Overpass API 0.7.62.10 2d4cfc48", "osm3s": {"timestamp_osm_base": "2026-02-02T14:30:44Z", "copyright": "The data included in this document is from www.openstreetmap.org. The data is made available under ODbL."}, "elements": [{"type": "node", "id": 623504311, "lat": 50.8082506, "lon": 4.3706525, "tags": {"amenity": "restaurant", "contact:phone": "+32 2 375 01 16", "cuisine": "japanese", "name": "Yagura", "opening_hours": "Tu-Sa 12:00-14:00,19:00-22:00"}}, {"type": "node", "id": 3020178451, "lat": 50.8046087, "lon": 4.365155, "tags": {"amenity": "restaurant", "contact:phone": "+32 2 374 33 15", "contact:website": "https://www.lefouchantant.be/", "cuisine": "french", "internet_access": "no", "name": "Le fou chantant", "smoking": "no", "wheelchair": "no"}}, {"type": "node", "id": 9239881258, "lat": 50.8090883, "lon": 4.3700273, "tags": {"amenity": "restaurant", "contact:email": "contact@bagheerarestaurant.com", "contact:phone": "+32 2 320 50 00", "contact:website": "https://www.bagheerarestaurant.com", "cuisine": "international", "name": "Bagheera", "opening_hours": "Tu-Fr 12:00-14:00, 19:00-23:00; Sa 19:00-23:00"}}, {"type": "node", "id": 10276671405, "lat": 50.8075907, "lon": 4.3708242, "tags": {"amenity": "restaurant", "contact:email": "hello@metplaizier.be", "contact:phone": "+32 2 882 21 20", "contact:website": "https://www.metplaizier.be/", "name": "Met Plaizier", "opening_hours": "Mo-Fr 08:00-17:00"}}, {"type": "node", "id": 11606542970, "lat": 50.8090666, "lon": 4.3696699, "tags": {"alt_name": "Nozomi Sushi", "amenity": "restaurant", "contact:email": "info@nozomisushi.be", "contact:phone": "+32 2 259 17 10", "contact:website": "https://nozomisushi.be/", "cuisine": "japanese;ramen;poke", "name": "Nozomi", "opening_hours": "Mo-Sa 11:30-14:30,17:30-22:30", "takeaway": "yes"}}, {"type": "node", "id": 12029082992, "lat": 50.806936, "lon": 4.3716323, "tags": {"amenity": "restaurant", "contact:website": "https://www.lapiolapizza.com/", "cuisine": "pizza", "name": "La Piola Pizza", "start_date": "2024-07-01"}}, {"type": "node", "id": 12212854993, "lat": 50.8062555, "lon": 4.3578449, "tags": {"amenity": "restaurant", "contact:phone": "+32 2 374 34 17", "contact:website": "https://www.dehoef-1627.com/", "name": "De Hoef 1627"}}]}