{"version": 0.6, "generator": "Overpass API 0.7.62.10 2d4cfc48", "osm3s": {"timestamp_osm_base": "2026-02-03T11:02:00Z", "copyright": "The data included in this document is from www.openstreetmap.org. The data is made available under ODbL."}, "elements": [{"type": "node", "id": 3124859564, "lat": 50.8774207, "lon": 4.3792923, "tags": {"name": "Schaerbeek Gare - Schaarbeek Station", "name:fr": "Schaerbeek Gare", "name:nl": "Schaarbeek Station", "public_transport": "stop_position", "railway": "tram_stop", "tram": "yes"}}, {"type": "node", "id": 3137854334, "lat": 50.8791788, "lon": 4.3748299, "tags": {"name": "Docks Bruxsel", "public_transport": "stop_position", "railway": "tram_stop", "tram": "yes"}}, {"type": "node", "id": 3137854573, "lat": 50.8870083, "lon": 4.3766818, "tags": {"name": "Heembeek", "public_transport": "stop_position", "railway": "tram_stop", "tram": "yes"}}, {"type": "node", "id": 3137854598, "lat": 50.8873428, "lon": 4.3764382, "tags": {"name": "Heembeek", "public_transport": "stop_position", "railway": "tram_stop", "tram": "yes"}}, {"type": "node", "id": 4396616832, "lat": 50.8749188, "lon": 4.3630851, "tags": {"name": "Mabru", "public_transport": "stop_position", "railway": "tram_stop", "tram": "yes"}}, {"type": "node", "id": 4396616833, "lat": 50.8763237, "lon": 4.3645334, "tags": {"name": "Mabru", "public_transport": "stop_position", "railway": "tram_stop", "tram": "yes"}}, {"type": "node", "id": 4456274007, "lat": 50.8793859, "lon": 4.3706911, "tags": {"name": "Docks Bruxsel", "public_transport": "stop_position", "railway": "tram_stop", "tram": "yes"}}, {"type": "node", "id": 4456274010, "lat": 50.8795925, "lon": 4.3712658, "tags": {"name": "Docks Bruxsel", "public_transport": "stop_position", "railway": "tram_stop", "tram": "yes"}}, {"type": "node", "id": 4466490968, "lat": 50.8796021, "lon": 4.3747921, "tags": {"name": "Docks Bruxsel", "public_transport": "stop_position", "railway": "tram_stop", "tram": "yes"}}, {"type": "node", "id": 4788776677, "lat": 50.8781062, "lon": 4.3801977, "tags": {"name": "Schaerbeek Gare - Schaarbeek Station", "name:fr": "Schaerbeek Gare", "name:nl": "Schaarbeek Station", "public_transport": "stop_position", "railway": "tram_stop", "tram": "yes"}}, {"type": "node", "id": 4788784406, "lat": 50.8774015, "lon": 4.379477, "tags": {"name": "Schaerbeek Gare - Schaarbeek Station", "name:fr": "Schaerbeek Gare", "name:nl": "Schaarbeek Station", "public_transport": "stop_position", "railway": "tram_stop", "tram": "yes"}}, {"type": "node", "id": 4788784407, "lat": 50.8774003, "lon": 4.3794302, "tags": {"name": "Schaerbeek Gare - Schaarbeek Station", "name:fr": "Schaerbeek Gare", "name:nl": "Schaarbeek Station", "public_transport": "stop_position", "railway": "tram_stop", "tram": "yes"}}, {"type": "node", "id": 4788784411, "lat": 50.8773974, "lon": 4.37933, "tags": {"name": "Schaerbeek Gare - Schaarbeek Station", "name:fr": "Schaerbeek Gare", "name:nl": "Schaarbeek Station", "public_transport": "stop_position", "railway": "tram_stop", "tram": "yes"}}, {"type": "node", "id": 10599181940, "lat": 50.9084871, "lon": 4.3949099, "tags": {"name": "Mercator", "public_transport": "stop_position", "railway": "tram_stop", "tram": "yes"}}, {"type": "node", "id": 10599181952, "lat": 50.9084513, "lon": 4.3954495, "tags": {"name": "Mercator", "public_transport": "stop_position", "railway": "tram_stop", "tram": "yes"}}, {"type": "node", "id": 10606640119, "lat": 50.8901421, "lon": 4.3774516, "tags": {"name": "Ancre - Anker", "name:fr": "Ancre", "name:nl": "Anker", "public_transport": "stop_position", "railway": "tram_stop", "tram": "yes"}}, {"type": "node", "id": 10606770063, "lat": 50.8964516, "lon": 4.3935318, "tags": {"name": "Chemin Vert - Groenweg", "name:fr": "Chemin Vert", "name:nl": "Groenweg", "public_transport": "stop_position", "railway": "tram_stop", "tram": "yes"}}, {"type": "node", "id": 12020561992, "lat": 50.8869765, "lon": 4.3765843, "tags": {"name": "Heembeek", "public_transport": "stop_position", "railway": "tram_stop", "tram": "yes"}}, {"type": "node", "id": 12099111664, "lat": 50.9082764, "lon": 4.3897857, "tags": {"name": "H\u00f4pital Militaire - Militair Hospitaal", "name:fr": "H\u00f4pital Militaire", "name:nl": "Militair Hospitaal", "public_transport": "stop_position", "railway": "tram_stop", "tram": "yes"}}, {"type": "node", "id": 12099111665, "lat": 50.9079665, "lon": 4.3894034, "tags": {"name": "H\u00f4pital Militaire - Militair Hospitaal", "name:fr": "H\u00f4pital Militaire", "name:nl": "Militair Hospitaal", "public_transport": "stop_position", "railway": "tram_stop", "tram": "yes"}}, {"type": "node", "id": 12122666995, "lat": 50.8903428, "lon": 4.377723, "tags": {"name": "Ancre - Anker", "name:fr": "Ancre", "name:nl": "Anker", "public_transport": "stop_position", "railway": "tram_stop", "tram": "yes"}}, {"type": "node", "id": 12161927117, "lat": 50.8966505, "lon": 4.3940471, "tags": {"name": "Chemin Vert - Groenweg", "name:fr": "Chemin Vert", "name:nl": "Groenweg", "public_transport": "stop_position", "railway": "tram_stop", "tram": "yes"}}, {"type": "node", "id": 12164891677, "lat": 50.8988598, "lon": 4.3975595, "tags": {"name": "Nelson Mandela", "public_transport": "stop_position", "railway": "tram_stop", "tram": "yes"}}, {"type": "node", "id": 12164891678, "lat": 50.899074, "lon": 4.3980796, "tags": {"name": "Nelson Mandela", "public_transport": "stop_position", "railway": "tram_stop", "tram": "yes"}}, {"type": "node", "id": 12164891679, "lat": 50.9030417, "lon": 4.398204, "tags": {"name": "Marguerite Yourcenar", "public_transport": "stop_position", "railway": "tram_stop", "tram": "yes"}}, {"type": "node", "id": 12164891680, "lat": 50.9026987, "lon": 4.3978888, "tags": {"name": "Marguerite Yourcenar", "public_transport": "stop_position", "railway": "tram_stop", "tram": "yes"}}, {"type": "node", "id": 12164891681, "lat": 50.9051584, "lon": 4.4017123, "tags": {"name": "Simone Veil", "public_transport": "stop_position", "railway": "tram_stop", "tram": "yes"}}, {"type": "node", "id": 12164891682, "lat": 50.9049896, "lon": 4.4011647, "tags": {"name": "Simone Veil", "public_transport": "stop_position", "railway": "tram_stop", "tram": "yes"}}, {"type": "node", "id": 12192560283, "lat": 50.8943324, "lon": 4.3828637, "tags": {"name": "Zavelput", "public_transport": "stop_position", "railway": "tram_stop", "tram": "yes"}}, {"type": "node", "id": 12192560284, "lat": 50.8939425, "lon": 4.3828539, "tags": {"name": "Zavelput", "public_transport": "stop_position", "railway": "tram_stop", "tram": "yes"}}, {"type": "node", "id": 12192560285, "lat": 50.8955234, "lon": 4.3891387, "tags": {"name": "Peter Benoit", "public_transport": "stop_position", "railway": "tram_stop", "tram": "yes"}}, {"type": "node", "id": 12192560286, "lat": 50.8951002, "lon": 4.3872505, "tags": {"name": "Peter Benoit", "public_transport": "stop_position", "railway": "tram_stop", "tram": "yes"}}]}