{"version": 0.6, "generator": "Overpass API 0.7.62.10 2d4cfc48", "osm3s": {"timestamp_osm_base": "2026-02-02T19:00:41Z", "copyright": "The data included in this document is from www.openstreetmap.org. The data is made available under ODbL."}, "elements": [{"type": "node", "id": 1770440916, "lat": 50.8011856, "lon": 4.4201765, "tags": {"amenity": "restaurant", "contact:phone": "+32 2 672 32 48", "contact:website": "http://www.psylophone.be/", "cuisine": "regional", "diet:vegan": "yes", "diet:vegetarian": "yes", "name": "Le Psylophone", "opening_hours": "PH,Mo-Su 18:00-22:30, Mo-Fr 12:00-14:00", "takeaway": "yes", "toilets:wheelchair": "no", "wheelchair": "limited"}}, {"type": "node", "id": 2279446187, "lat": 50.8013511, "lon": 4.4219225, "tags": {"amenity": "restaurant", "contact:phone": "+32 2 672 16 01", "contact:website": "https://souverain.be", "cuisine": "indian", "diet:vegan": "yes", "diet:vegetarian": "yes", "name": "Les Rives du Gange", "note": "Name only in French; apparently no official Dutch translation on their website"}}, {"type": "node", "id": 2352444993, "lat": 50.7979083, "lon": 4.4192114, "tags": {"amenity": "restaurant", "contact:phone": "+32 2 675 60 75", "contact:website": "https://via-roma.be/", "cuisine": "italian", "name": "Via Roma", "opening_hours": "Tu-Su 12:00-15:00, 18:30-23:00", "self_service": "no"}}, {"type": "node", "id": 2822043923, "lat": 50.7979412, "lon": 4.4188978, "tags": {"amenity": "restaurant", "name": "La Fraschetta", "opening_hours": "Mo-Su 12:00-14:30, Mo-Th 18:00-22:30, Fr,Sa 18:00-23:00"}}, {"type": "node", "id": 3317440608, "lat": 50.8019388, "lon": 4.4311038, "tags": {"amenity": "restaurant", "contact:email": "info@aureposdeschasseurs.be", "contact:facebook": "aureposdeschasseurs", "contact:fax": "+32 2 674 26 76", "contact:phone": "+32 2 660 46 72", "contact:website": "https://au-repos-des-chasseurs.be/", "cuisine": "french", "diet:pescetarian": "limited", "diet:vegan": "no", "diet:vegetarian": "limited", "indoor_seating": "yes", "lgbtq:signed": "no", "name": "Au Repos des Chasseurs", "opening_hours": "Tu-Sa 12:00-23:00; Su 12:00-18:30", "outdoor_seating": "yes", "ref:vatin": "BE0432439460", "reservation": "yes"}}, {"type": "node", "id": 3317447752, "lat": 50.7940467, "lon": 4.4180475, "tags": {"amenity": "restaurant", "contact:phone": "+32 2 660 66 86", "contact:website": "https://lechapelierfou.be/", "name": "Brasserie Le Chapelier Fou", "opening_hours": "We-Su 10:00-22:00", "wheelchair": "yes"}}, {"type": "node", "id": 3317485996, "lat": 50.7957694, "lon": 4.4176601, "tags": {"amenity": "restaurant", "name": "Le Coriandre"}}, {"type": "node", "id": 3317485997, "lat": 50.7971016, "lon": 4.4122828, "tags": {"amenity": "restaurant", "contact:mobile": "+32 484 98 95 00", "cuisine": "african", "name": "Le Dakar", "opening_hours": "We-Mo 12:00-23:00", "toilets:wheelchair": "no", "wheelchair": "limited"}}, {"type": "node", "id": 3409479016, "lat": 50.7974417, "lon": 4.4132118, "tags": {"amenity": "restaurant", "contact:phone": "+32 2 675 08 00", "contact:website": "https://www.laveraison.be", "name": "La V\u00e9raison"}}, {"type": "node", "id": 3507170935, "lat": 50.7978593, "lon": 4.4185871, "tags": {"amenity": "restaurant", "contact:phone": "+32 2 675 14 68", "name": "Les Filles de Papa"}}, {"type": "node", "id": 6223333929, "lat": 50.7992247, "lon": 4.4181721, "tags": {"amenity": "restaurant", "name": "Fl\u00e2ne", "opening_hours": "Mo off; Tu off; We-Fr 12:00-14:00,19:00-21:00; Sa 19:00-21:00; Su off", "phone": "+32 2 895 77 73", "website": "https://www.flanerestaurant.com/"}}, {"type": "node", "id": 9444269991, "lat": 50.7939701, "lon": 4.4187481, "tags": {"amenity": "restaurant", "contact:phone": "+32 2 660 66 42", "contact:website": "https://la-passerelle.eu/lebarasoupe", "name": "Le Bar \u00e0 Soupe"}}, {"type": "node", "id": 11451823160, "lat": 50.8029214, "lon": 4.4264108, "tags": {"amenity": "restaurant", "contact:phone": "+32 2 669 48 30", "contact:website": "https://mix.brussels/timber/", "level": "2", "name": "Timber", "opening_hours": "Tu-Fr 12:00-14:00, 19:00-21:00; Sa 19:00-21:00", "self_service": "no", "website:menu": "https://mix.brussels/app/uploads/2025/10/timbermenu-011025-eat-en.pdf"}}, {"type": "node", "id": 12194295833, "lat": 50.7941257, "lon": 4.4186716, "tags": {"amenity": "restaurant", "diet:vegan": "yes", "diet:vegetarian": "yes", "name": "Silex"}}, {"type": "node", "id": 13068944309, "lat": 50.7975726, "lon": 4.4177908, "tags": {"amenity": "restaurant", "contact:phone": "+32 2 270 02 40", "cuisine": "regional;belgium", "name": "Chez Bonnette", "opening_hours": "Tu-Sa 18:00-22:00"}}, {"type": "node", "id": 13481887101, "lat": 50.7977641, "lon": 4.4180346, "tags": {"amenity": "restaurant", "cuisine": "chinese", "name": "Le Dragon", "opening_hours": "Tu-Su 12:00-13:40, 18:00-21:00"}}]}