{"version": 0.6, "generator": "Overpass API 0.7.62.10 2d4cfc48", "osm3s": {"timestamp_osm_base": "2026-02-02T15:58:45Z", "copyright": "The data included in this document is from www.openstreetmap.org. The data is made available under ODbL."}, "elements": [{"type": "node", "id": 1518763139, "lat": 50.8154109, "lon": 4.4170635, "tags": {"amenity": "restaurant", "check_date": "2025-04-20", "cuisine": "italian;pizza", "diet:vegan": "yes", "diet:vegetarian": "yes", "name": "Amore & Fantasia", "opening_hours": "Mo-Fr 11:30-14:00; Tu-Sa 18:00-21:00", "payment:cash": "yes", "payment:credit_cards": "yes", "payment:debit_cards": "yes", "wheelchair": "yes"}}, {"type": "node", "id": 1756205016, "lat": 50.8220328, "lon": 4.4044442, "tags": {"amenity": "restaurant", "cuisine": "chinese", "name": "China Express"}}, {"type": "node", "id": 1756205017, "lat": 50.8241911, "lon": 4.4006945, "tags": {"amenity": "restaurant", "name": "Le Coin"}}, {"type": "node", "id": 1756206727, "lat": 50.8248389, "lon": 4.3996158, "tags": {"amenity": "restaurant", "capacity": "30", "check_date": "2025-04-03", "contact:email": "info@agra-restaurant.be", "contact:phone": "+32 2 732 25 55", "contact:website": "http://www.agra-restaurant.be/", "cuisine": "indian", "name": "Agra", "opening_hours": "Mo-Sa 11:30-14:30, 18:00-00:00", "wheelchair": "no"}}, {"type": "node", "id": 1934002559, "lat": 50.8165393, "lon": 4.4368565, "tags": {"amenity": "restaurant", "name": "Le Briefing", "wheelchair": "limited"}}, {"type": "node", "id": 2213731071, "lat": 50.8160114, "lon": 4.4256643, "tags": {"amenity": "restaurant", "check_date": "2024-11-11", "name": "L'Arrosoir"}}, {"type": "node", "id": 2213731072, "lat": 50.8142107, "lon": 4.4339548, "tags": {"amenity": "restaurant", "contact:phone": "+32 2 808 25 20", "contact:website": "https://www.pizza-biologica.be/", "cuisine": "pizza", "name": "Pizza Biologica", "takeaway": "yes"}}, {"type": "node", "id": 2279446192, "lat": 50.8142946, "lon": 4.4267987, "tags": {"amenity": "restaurant", "brand": "Pizza Hut", "brand:website": "https://www.pizzahut.be/", "brand:wikidata": "Q191615", "brand:wikipedia": "en:Pizza Hut", "contact:phone": "+32 2 662 00 00", "cuisine": "pizza", "name": "Pizza Hut", "takeaway": "yes"}}, {"type": "node", "id": 2279446207, "lat": 50.8116847, "lon": 4.4319365, "tags": {"amenity": "restaurant", "check_date": "2025-08-28", "contact:email": "info@restaurant-arthur.be", "contact:phone": "+32 2 514 41 04", "contact:website": "https://restaurant-arthur.be/", "cuisine": "french", "name": "Chez Arthur", "opening_hours": "Mo-Fr 12:00-14:30,18:30-23:00; Sa 18:30-23:00; Su 12:00-15:00", "outdoor_seating": "sidewalk", "start_date": "2020-07-27"}}, {"type": "node", "id": 2321648931, "lat": 50.8142235, "lon": 4.434088, "tags": {"amenity": "restaurant", "contact:phone": "+32 2 673 02 72", "contact:website": "https://les2petitsdiables.be", "cuisine": "italian", "delivery": "yes", "diet:gluten_free": "yes", "indoor_seating": "yes", "name": "Les Deux Petits Diables", "outdoor_seating": "pedestrian_zone", "takeaway": "yes"}}, {"type": "node", "id": 2325789943, "lat": 50.816361, "lon": 4.4265951, "tags": {"amenity": "restaurant", "contact:email": "info@lesaintpaul.be", "contact:phone": "+32 2 675 46 60", "contact:website": "https://lesaintpaul.be/", "cuisine": "burger", "diet:meat": "yes", "diet:vegan": "no", "diet:vegetarian": "yes", "name": "Le Saint Paul", "opening_hours": "Mo-Su 12:00-14:30,18:30-23:00"}}, {"type": "node", "id": 2342974245, "lat": 50.820583, "lon": 4.4078028, "tags": {"amenity": "restaurant", "contact:phone": "+32 2 675 67 34", "contact:website": "http://www.singha.be/html/home.htm", "cuisine": "thai", "diet:vegan": "yes", "diet:vegetarian": "yes", "name": "Villa Singha", "opening_hours": "Th,Fr 12:00-14:00, Tu-Sa 18:30-22:30"}}, {"type": "node", "id": 2479542921, "lat": 50.8160258, "lon": 4.430421, "tags": {"alt_name": "La Soeur du Patron", "amenity": "restaurant", "contact:phone": "+32 2 675 00 92", "contact:website": "https://lasoeurdupatron.be/", "cuisine": "french", "delivery": "yes", "internet_access": "wlan", "name": "La S\u0153ur du Patron", "opening_hours": "Mo-Fr 12:00-15:00,18:30-24:00; Sa 00:00-01:00,18:30-24:00; Su 00:00-01:00", "outdoor_seating": "yes", "payment:american_express": "yes", "payment:bancontact": "yes", "payment:cash": "yes", "payment:maestro": "yes", "payment:mastercard": "yes", "payment:meal_voucher": "yes", "payment:visa": "yes"}}, {"type": "node", "id": 2659325757, "lat": 50.8244114, "lon": 4.4003277, "tags": {"amenity": "restaurant", "contact:email": "info@pizzeria1032.com", "contact:phone": "+32 2 513 20 63", "contact:website": "https://www.pizzeria1032.com/", "cuisine": "pizza", "name": "Pizzeria 1032", "opening_hours": "Mo-Fr 12:00-14:00, 18:30-22:00; Sa 18:30-22:00; Su off"}}, {"type": "node", "id": 3308510361, "lat": 50.8156516, "lon": 4.4264425, "tags": {"amenity": "restaurant", "contact:email": "mazajmarketing@gmail.com", "contact:phone": "+32 2 675 55 10", "contact:website": "https://www.mazaj.be/", "name": "Maza'j"}}, {"type": "node", "id": 5112269121, "lat": 50.824565, "lon": 4.3995844, "tags": {"amenity": "restaurant", "check_date": "2024-02-05", "contact:phone": "+32 2 646 03 20", "contact:website": "https://www.demasalabox.com/", "level": "0", "name": "De Masala Box", "opening_hours": "Mo-Fr 11:00-15:00; Sa-Su off", "payment:cash": "yes", "payment:credit_cards": "yes", "payment:debit_cards": "yes", "wheelchair": "no"}}, {"type": "node", "id": 5171661737, "lat": 50.81206, "lon": 4.4322057, "tags": {"amenity": "restaurant", "check_date": "2025-08-28", "contact:email": "info@letransvaal.be", "contact:phone": "+32 2 660 95 76", "contact:website": "https://www.letransvaal.be/", "name": "Le Transvaal", "outdoor_seating": "yes"}}, {"type": "node", "id": 5912301825, "lat": 50.8173173, "lon": 4.4214362, "tags": {"amenity": "restaurant", "contact:email": "info@latapasseria.com", "contact:mobile": "+32 475 37 05 44", "contact:website": "https://www.latapasseria.com/", "cuisine": "peruvian", "name": "La Tapasseria", "opening_hours": "Tu-Sa 12:00-14:00,18:00-22:00"}}, {"type": "node", "id": 5929793402, "lat": 50.8209399, "lon": 4.408108, "tags": {"amenity": "restaurant", "check_date:opening_hours": "2022-01-30", "contact:phone": "+32 2 673 21 46", "contact:website": "https://restaurantalpeperoncino.be", "cuisine": "italian", "diet:vegetarian": "yes", "name": "Al Peperoncino", "opening_hours": "Tu-Su 11:30-14:30,18:30-22:30"}}, {"type": "node", "id": 5929904232, "lat": 50.8206156, "lon": 4.4092528, "tags": {"amenity": "restaurant", "check_date": "2023-11-30", "diet:vegetarian": "no", "name": "Brasserie Saint-Julien", "wheelchair": "yes"}}, {"type": "node", "id": 5937351853, "lat": 50.8175854, "lon": 4.4211421, "tags": {"amenity": "restaurant", "contact:phone": "+32 2 673 70 98", "contact:website": "https://thaiorchid.be", "cuisine": "thai", "description": "Restaurant - Traiteur", "diet:vegan": "yes", "diet:vegetarian": "yes", "internet_access": "wlan", "name": "Thai Orchid", "opening_hours": "Su-Fr 12:00-14:00,18:00-21:30; Sa 18:00-22:00", "takeaway": "yes", "wheelchair": "no"}}, {"type": "node", "id": 5937384815, "lat": 50.8176083, "lon": 4.4199478, "tags": {"amenity": "restaurant", "diet:vegan": "yes", "diet:vegetarian": "yes", "name": "OUD", "wheelchair": "no"}}, {"type": "node", "id": 6223333930, "lat": 50.8114221, "lon": 4.4310487, "tags": {"amenity": "restaurant", "name": "S\u00e9same"}}, {"type": "node", "id": 6406010317, "lat": 50.8130659, "lon": 4.4287671, "tags": {"amenity": "restaurant", "cuisine": "regional", "name": "Schievelavabo Auderghem", "opening_hours": "Mo-Fr 12:00-14:30, Mo-Su 18:30-22:00"}}, {"type": "node", "id": 8083943364, "lat": 50.8175083, "lon": 4.4217143, "tags": {"amenity": "restaurant", "contact:phone": "+32 2 271 13 47", "cuisine": "pizza", "diet:vegetarian": "yes", "name": "Da Maurizio", "opening_hours": "Mo-Fr 12:00-14:00,18:00-22:30; Sa-Su 18:00-22:30", "takeaway": "yes"}}, {"type": "node", "id": 8324760646, "lat": 50.8146133, "lon": 4.4334306, "tags": {"amenity": "restaurant", "contact:phone": "+32 2 479 18 97", "contact:website": "https://www.restocanaille.be/", "cuisine": "french;international;gastronomic", "name": "Canaille", "opening_hours": "Th-Sa 19:00-24:00", "opening_hours:covid19": "restricted"}}, {"type": "node", "id": 8379073627, "lat": 50.8102015, "lon": 4.4421353, "tags": {"amenity": "restaurant", "contact:phone": "+32 2 850 63 36", "contact:website": "https://www.barcorabelo.com/", "cuisine": "portuguese;belgian", "name": "Barco Rabelo"}}, {"type": "node", "id": 8873367563, "lat": 50.8162322, "lon": 4.42729, "tags": {"amenity": "restaurant", "contact:phone": "+32 2 660 89 42", "contact:website": "http://www.byblos-restaurant.be", "cuisine": "lebanese", "diet:vegetarian": "no", "name": "Byblos", "opening_hours": "Mo-Fr 12:00-14:30,18:30-22:30;Sa 18:30-22:30"}}, {"type": "node", "id": 9580248851, "lat": 50.8180148, "lon": 4.4181917, "tags": {"amenity": "restaurant", "contact:facebook": "RestaurantPandaAuderghem", "contact:mobile": "+32 485 35 47 03", "contact:tripadvisor": "7934714", "cuisine": "chinese", "name": "Panda", "takeaway": "yes"}}, {"type": "node", "id": 10116044128, "lat": 50.8162625, "lon": 4.4285488, "tags": {"amenity": "restaurant", "contact:email": "lepredufour@gmail.com", "contact:phone": "+32 2 675 78 00", "contact:website": "https://lepredufour.be/", "cuisine": "sandwich;salad;pasta", "diet:vegan": "no", "diet:vegetarian": "yes", "name": "Le pr\u00e9 du four"}}, {"type": "node", "id": 11059597410, "lat": 50.8173416, "lon": 4.4213642, "tags": {"amenity": "restaurant", "contact:phone": "+32 2 672 09 88", "contact:website": "https://hanaya-sushi-express.be/", "cuisine": "japanese", "diet:vegetarian": "yes", "name": "Hanaya Sushi", "opening_hours": "Mo-We, Fr 11:00-14:30, 18:00-22:00; Th, Sa 18:00-22:00"}}, {"type": "node", "id": 11289272523, "lat": 50.822247, "lon": 4.4037917, "tags": {"amenity": "restaurant", "cuisine": "pasta", "name": "Almi Corner"}}, {"type": "node", "id": 11395907870, "lat": 50.8166962, "lon": 4.4247805, "tags": {"amenity": "restaurant", "contact:mobile": "+32 472 73 82 81", "cuisine": "vietnamese", "diet:vegetarian": "yes", "name": "Ph\u00f2 & B\u00e1nh M\u00ec", "opening_hours": "Mo-Sa 11:00-15:00, 18:00-21:00"}}, {"type": "node", "id": 11880703041, "lat": 50.8165572, "lon": 4.425448, "tags": {"amenity": "restaurant", "cuisine": "chinese", "diet:vegetarian": "yes", "name": "Noodle Home"}}, {"type": "node", "id": 11880777283, "lat": 50.8163438, "lon": 4.4268263, "tags": {"amenity": "restaurant", "cuisine": "pizza", "name": "Chez Papou"}}, {"type": "node", "id": 11880815478, "lat": 50.8163145, "lon": 4.4279778, "tags": {"amenity": "restaurant", "cuisine": "sushi", "name": "Sushi Net"}}, {"type": "node", "id": 12114734017, "lat": 50.8112668, "lon": 4.4227187, "tags": {"amenity": "restaurant", "contact:website": "http://restaurantlabotte.be/", "cuisine": "italian", "name": "La Botte", "opening_hours": "Mo 12:00-15:00; Tu-Fr 12:00-15:00,18:00-22:30; Sa 18:00-22:30", "toilets:wheelchair": "no", "wheelchair": "yes"}}, {"type": "node", "id": 12186595947, "lat": 50.8159212, "lon": 4.3991239, "tags": {"amenity": "restaurant", "name": "Tasty"}}, {"type": "node", "id": 12206585887, "lat": 50.818129, "lon": 4.4187353, "tags": {"amenity": "restaurant", "cuisine": "italian", "diet:vegetarian": "yes", "name": "Caruso", "opening_hours": "Mo-Su 12:00-14:00,18:00-21:30", "takeaway": "yes"}}, {"type": "node", "id": 12585636278, "lat": 50.8233606, "lon": 4.4073929, "tags": {"amenity": "restaurant", "name": "Bistro Bobo"}}, {"type": "node", "id": 12732007653, "lat": 50.8219857, "lon": 4.4052408, "tags": {"amenity": "restaurant", "cuisine": "sushi", "name": "Ninki"}}, {"type": "node", "id": 12735500069, "lat": 50.8247106, "lon": 4.3998295, "tags": {"amenity": "restaurant", "contact:phone": "+32 2 733 49 09", "contact:website": "https://www.tokyoroll.be/", "cuisine": "japanese", "delivery": "yes", "name": "Tokyo Roll", "takeaway": "yes"}}, {"type": "node", "id": 12847994175, "lat": 50.8176456, "lon": 4.4207948, "tags": {"amenity": "restaurant", "contact:phone": "+32 2 673 66 73", "contact:website": "https://www.restaurant-arcenciel.be/", "cuisine": "vietnamese", "description": "Viet & Tha\u00ef", "diet:vegan": "yes", "diet:vegetarian": "yes", "name": "Arc-en-Ciel", "opening_hours": "Mo-Fr 12:00-14:30,18:00-23:00", "takeaway": "yes", "wheelchair": "no"}}, {"type": "node", "id": 12875192317, "lat": 50.8060073, "lon": 4.4412263, "tags": {"amenity": "restaurant", "name": "Vaso"}}, {"type": "node", "id": 12953991701, "lat": 50.8192097, "lon": 4.4149105, "tags": {"amenity": "restaurant", "check_date": "2023-10-25", "contact:phone": "+32 2 675 00 04", "cuisine": "mediterranean", "name": "La Kha\u00efma", "opening_hours": "18:30-23:00"}}, {"type": "node", "id": 13009476336, "lat": 50.8152038, "lon": 4.4237053, "tags": {"amenity": "restaurant", "brand": "Pizza Hut", "brand:wikidata": "Q191615", "brand:wikipedia": "en:Pizza Hut", "cuisine": "pizza", "diet:vegan": "no", "diet:vegetarian": "yes", "name": "Pizza Hut", "wheelchair": "yes"}}, {"type": "node", "id": 13009483894, "lat": 50.8130312, "lon": 4.4443807, "tags": {"amenity": "restaurant", "name": "Maison du Prieur", "opening_hours": "We-Su 11:00-22:00"}}, {"type": "node", "id": 13342342301, "lat": 50.8233968, "lon": 4.4015217, "tags": {"amenity": "restaurant", "contact:mobile": "+32 488 38 03 90", "cuisine": "asian", "level": "0", "opening_hours": "Mo-Tu, Th 11:30-14:30, 17:30-21:00; We, Sa 17:30-21:00; Fr 11:30-14:30, 17:30-21:30", "outdoor_seating": "no", "self_service": "no"}}, {"type": "node", "id": 13434270101, "lat": 50.814011, "lon": 4.4237642, "tags": {"amenity": "restaurant", "name": "La Taverne"}}]}