{"version": 0.6, "generator": "Overpass API 0.7.62.10 2d4cfc48", "osm3s": {"timestamp_osm_base": "2026-02-02T16:20:59Z", "copyright": "The data included in this document is from www.openstreetmap.org. The data is made available under ODbL."}, "elements": [{"type": "node", "id": 1210483191, "lat": 50.890473, "lon": 4.3296636, "tags": {"amenity": "cafe", "contact:phone": "+32 2 341 18 29", "name": "Bram's", "opening_hours": "Mo-Fr 07:00-18:30; Sa 08:30-15:00"}}, {"type": "node", "id": 1631151656, "lat": 50.8877107, "lon": 4.3275911, "tags": {"amenity": "cafe", "name": "Heymbos"}}, {"type": "node", "id": 2324639473, "lat": 50.8737296, "lon": 4.3237848, "tags": {"amenity": "cafe", "contact:email": "hi.rework.brussels@gmail.com", "contact:mobile": "+32 476 97 72 65", "contact:website": "https://www.re-work.be/", "name": "Re-Work", "office": "coworking", "opening_hours": "Mo-Th 09:00-18:00; Fr 09:00-15:00; Su 10:00-14:00"}}, {"type": "node", "id": 2329297470, "lat": 50.8803797, "lon": 4.3273609, "tags": {"amenity": "cafe", "brewery:note": "Brasserie de la Senne", "name": "Excelsior", "wheelchair": "no"}}, {"type": "node", "id": 6419091538, "lat": 50.8733853, "lon": 4.3241001, "tags": {"amenity": "cafe", "name": "The Old Timer"}}, {"type": "node", "id": 6693936129, "lat": 50.8730746, "lon": 4.3334358, "tags": {"amenity": "cafe", "name": "Le Coin perdu", "toilets:wheelchair": "no", "wheelchair": "limited"}}, {"type": "node", "id": 9033487839, "lat": 50.8684198, "lon": 4.3349971, "tags": {"amenity": "cafe", "name": "Caf\u00e9 Arizona"}}, {"type": "node", "id": 9209889431, "lat": 50.8717536, "lon": 4.3258233, "tags": {"amenity": "cafe", "name": "Le Kemdust"}}, {"type": "node", "id": 9672664873, "lat": 50.8682225, "lon": 4.3345852, "tags": {"amenity": "cafe", "name": "Rafael"}}, {"type": "node", "id": 12944636492, "lat": 50.8686773, "lon": 4.3359016, "tags": {"amenity": "cafe", "name": "Au coin du monde"}}]}