{"version": 0.6, "generator": "Overpass API 0.7.62.10 2d4cfc48", "osm3s": {"timestamp_osm_base": "2026-02-02T17:03:00Z", "copyright": "The data included in this document is from www.openstreetmap.org. The data is made available under ODbL."}, "elements": [{"type": "node", "id": 3127755630, "lat": 50.8414938, "lon": 4.3583956, "tags": {"name": "Royale - Koning", "name:fr": "Royale", "name:nl": "Koning", "public_transport": "stop_position", "railway": "tram_stop", "tram": "yes"}}, {"type": "node", "id": 4278204278, "lat": 50.8415659, "lon": 4.3584427, "tags": {"name": "Royale - Koning", "name:fr": "Royale", "name:nl": "Koning", "public_transport": "stop_position", "railway": "tram_stop", "tram": "yes"}}, {"type": "node", "id": 4443023361, "lat": 50.8437061, "lon": 4.3607546, "tags": {"name": "Palais - Paleizen", "name:fr": "Palais", "name:nl": "Paleizen", "public_transport": "stop_position", "railway": "tram_stop", "tram": "yes"}}, {"type": "node", "id": 4443023362, "lat": 50.8466911, "lon": 4.3623477, "tags": {"name": "Parc - Park", "name:fr": "Parc", "name:nl": "Park", "public_transport": "stop_position", "railway": "tram_stop", "tram": "yes", "wheelchair": "no"}}, {"type": "node", "id": 4443023363, "lat": 50.8471177, "lon": 4.3625292, "tags": {"name": "Parc - Park", "name:fr": "Parc", "name:nl": "Park", "public_transport": "stop_position", "railway": "tram_stop", "tram": "yes", "wheelchair": "limited"}}, {"type": "node", "id": 4902700340, "lat": 50.843993, "lon": 4.3609422, "tags": {"name": "Palais - Paleizen", "name:fr": "Palais", "name:nl": "Paleizen", "public_transport": "stop_position", "railway": "tram_stop", "tram": "yes"}}]}