{"version": 0.6, "generator": "Overpass API 0.7.62.10 2d4cfc48", "osm3s": {"timestamp_osm_base": "2026-02-03T10:35:15Z", "copyright": "The data included in this document is from www.openstreetmap.org. The data is made available under ODbL."}, "elements": [{"type": "node", "id": 2360451038, "lat": 50.8111531, "lon": 4.2829179, "tags": {"amenity": "restaurant", "contact:website": "https://www.au-vogelenzang.be", "cuisine": "lebanese", "name": "Au Vogelenzang"}}, {"type": "node", "id": 3441511974, "lat": 50.8103924, "lon": 4.288859, "tags": {"amenity": "restaurant", "name": "Joe's Grill"}}, {"type": "node", "id": 7354926074, "lat": 50.820177, "lon": 4.280529, "tags": {"amenity": "restaurant", "cuisine": "asian", "name": "Wazawok"}}, {"type": "node", "id": 8240346947, "lat": 50.8139301, "lon": 4.2672213, "tags": {"amenity": "restaurant", "contact:phone": "+32 2 523 08 38", "contact:website": "https://www.erasme.ulb.ac.be/fr/infos-pratiques/commerces-facilites/restauration", "name": "Brasserie Le Pr\u00e9 Vert", "opening_hours": "Mo-Fr 08:00-16:00", "outdoor_seating": "yes"}}, {"type": "node", "id": 9563453431, "lat": 50.8140623, "lon": 4.2683589, "tags": {"amenity": "restaurant", "diet:meat": "yes", "diet:vegetarian": "yes", "name": "Les Presses", "opening_hours": "Mo-Fr 08:00-15:00", "opening_hours:covid19": "restricted"}}, {"type": "node", "id": 9925373101, "lat": 50.8136445, "lon": 4.2661068, "tags": {"amenity": "restaurant", "contact:phone": "+32 2 555 34 89", "contact:website": "https://lejardinderasme.be/", "cuisine": "brasserie", "name": "Le Jardin d'Erasme", "opening_hours": "Mo-Fr 07:00-19:00; Sa-Su 11:00-18:00", "outdoor_seating": "no"}}, {"type": "node", "id": 13258956041, "lat": 50.8078842, "lon": 4.2892592, "tags": {"amenity": "restaurant", "cuisine": "indian", "name": "Taj Mahal"}}]}