{"version": 0.6, "generator": "Overpass API 0.7.62.10 2d4cfc48", "osm3s": {"timestamp_osm_base": "2026-02-02T19:16:02Z", "copyright": "The data included in this document is from www.openstreetmap.org. The data is made available under ODbL."}, "elements": [{"type": "node", "id": 144233067, "lat": 50.8333082, "lon": 4.3570543, "tags": {"name": "St\u00e9phanie - Stefania", "name:fr": "St\u00e9phanie", "name:nl": "Stefania", "public_transport": "stop_position", "railway": "tram_stop", "tram": "yes"}}, {"type": "node", "id": 144233079, "lat": 50.8329629, "lon": 4.3577955, "tags": {"name": "St\u00e9phanie - Stefania", "name:fr": "St\u00e9phanie", "name:nl": "Stefania", "public_transport": "stop_position", "railway": "tram_stop", "tram": "yes"}}, {"type": "node", "id": 144233115, "lat": 50.8294134, "lon": 4.3614891, "tags": {"name": "Defacqz", "public_transport": "stop_position", "railway": "tram_stop", "tram": "yes", "wikidata": "Q47433037"}}, {"type": "node", "id": 488624619, "lat": 50.8249254, "lon": 4.3585916, "tags": {"name": "Trinit\u00e9 - Drievuldigheid", "name:fr": "Trinit\u00e9", "name:nl": "Drievuldigheid", "public_transport": "stop_position", "railway": "tram_stop", "tram": "yes"}}, {"type": "node", "id": 488628710, "lat": 50.8285909, "lon": 4.3622867, "tags": {"name": "Defacqz", "public_transport": "stop_position", "railway": "tram_stop", "tram": "yes", "wikidata": "Q47433037"}}, {"type": "node", "id": 2962344713, "lat": 50.8249893, "lon": 4.3575588, "tags": {"name": "Trinit\u00e9 - Drievuldigheid", "name:fr": "Trinit\u00e9", "name:nl": "Drievuldigheid", "public_transport": "stop_position", "railway": "tram_stop", "tram": "yes"}}, {"type": "node", "id": 3115598739, "lat": 50.8300474, "lon": 4.3560644, "tags": {"name": "Faider", "public_transport": "stop_position", "railway": "tram_stop", "tram": "yes"}}, {"type": "node", "id": 3115600957, "lat": 50.825867, "lon": 4.3546752, "tags": {"name": "Janson", "public_transport": "stop_position", "railway": "tram_stop", "tram": "yes"}}, {"type": "node", "id": 3115600968, "lat": 50.8261327, "lon": 4.3548029, "tags": {"name": "Janson", "public_transport": "stop_position", "railway": "tram_stop", "tram": "yes"}}, {"type": "node", "id": 3115601073, "lat": 50.8295369, "lon": 4.3558394, "tags": {"name": "Faider", "public_transport": "stop_position", "railway": "tram_stop", "tram": "yes"}}, {"type": "node", "id": 3115601138, "lat": 50.8335797, "lon": 4.3571815, "tags": {"name": "St\u00e9phanie - Stefania", "name:fr": "St\u00e9phanie", "name:nl": "Stefania", "public_transport": "stop_position", "railway": "tram_stop", "tram": "yes"}}, {"type": "node", "id": 3124859480, "lat": 50.8268419, "lon": 4.3640894, "tags": {"name": "Bailli - Baljuw", "name:fr": "Bailli", "name:nl": "Baljuw", "public_transport": "stop_position", "railway": "tram_stop", "tram": "yes"}}, {"type": "node", "id": 3124859560, "lat": 50.8276286, "lon": 4.3633255, "tags": {"name": "Bailli - Baljuw", "name:fr": "Bailli", "name:nl": "Baljuw", "public_transport": "stop_position", "railway": "tram_stop", "tram": "yes"}}, {"type": "node", "id": 3132143374, "lat": 50.8331806, "lon": 4.357624, "tags": {"name": "St\u00e9phanie - Stefania", "name:fr": "St\u00e9phanie", "name:nl": "Stefania", "public_transport": "stop_position", "railway": "tram_stop", "tram": "yes"}}, {"type": "node", "id": 4598665121, "lat": 50.8254612, "lon": 4.3542818, "tags": {"name": "Janson", "public_transport": "stop_position", "railway": "tram_stop", "tram": "yes"}}, {"type": "node", "id": 4598677595, "lat": 50.8255306, "lon": 4.3551249, "tags": {"name": "Janson", "public_transport": "stop_position", "railway": "tram_stop", "tram": "yes"}}, {"type": "node", "id": 5243082638, "lat": 50.827159, "lon": 4.3634534, "tags": {"name": "Bailli - Baljuw", "name:fr": "Bailli", "name:nl": "Baljuw", "public_transport": "stop_position", "railway": "tram_stop", "tram": "yes"}}, {"type": "node", "id": 5243082640, "lat": 50.8268087, "lon": 4.3625317, "tags": {"name": "Bailli - Baljuw", "name:fr": "Bailli", "name:nl": "Baljuw", "public_transport": "stop_position", "railway": "tram_stop", "tram": "yes"}}]}