{"version": 0.6, "generator": "Overpass API 0.7.62.10 2d4cfc48", "osm3s": {"timestamp_osm_base": "2026-02-03T10:36:19Z", "copyright": "The data included in this document is from www.openstreetmap.org. The data is made available under ODbL."}, "elements": [{"type": "node", "id": 4973893019, "lat": 50.8211255, "lon": 4.3033462, "tags": {"amenity": "restaurant", "contact:website": "http://www.newmaranello.com", "name": "New Maranello"}}, {"type": "node", "id": 7960001405, "lat": 50.814985, "lon": 4.2967604, "tags": {"amenity": "restaurant", "contact:website": "https://ceria.brussels/info-resto", "cuisine": "international", "name": "Restaurant didactique"}}, {"type": "node", "id": 7960001412, "lat": 50.8142019, "lon": 4.2952367, "tags": {"amenity": "restaurant", "name": "Free-flow"}}, {"type": "node", "id": 11953861220, "lat": 50.8190405, "lon": 4.2994031, "tags": {"amenity": "restaurant", "contact:website": "https://www.anderlecht.be/fr/cafet-1070", "name": "Cafet Colombophiles"}}, {"type": "node", "id": 12569126570, "lat": 50.8168068, "lon": 4.2994904, "tags": {"amenity": "restaurant", "name": "La Marina"}}]}