{"version": 0.6, "generator": "Overpass API 0.7.62.10 2d4cfc48", "osm3s": {"timestamp_osm_base": "2026-02-02T15:58:45Z", "copyright": "The data included in this document is from www.openstreetmap.org. The data is made available under ODbL."}, "elements": [{"type": "node", "id": 1244329802, "lat": 50.8375574, "lon": 4.4088143, "tags": {"name": "Square Mar\u00e9chal Montgomery - Maarschalk Montgomeryplein", "name:fr": "Square Mar\u00e9chal Montgomery", "name:nl": "Maarschalk Montgomeryplein", "railway": "subway_entrance", "ref": "1", "wheelchair": "no"}}, {"type": "node", "id": 1244329825, "lat": 50.8380813, "lon": 4.4082905, "tags": {"name": "Boulevard Brand Whitlock - Brand Whitlocklaan", "name:fr": "Boulevard Brand Whitlock", "name:nl": "Brand Whitlocklaan", "railway": "subway_entrance", "ref": "5", "wheelchair": "no"}}, {"type": "node", "id": 1244329906, "lat": 50.8379859, "lon": 4.4064568, "tags": {"name": "Avenue de Tervuren - Tervurenlaan", "name:fr": "Avenue de Tervuren", "name:nl": "Tervurenlaan", "railway": "subway_entrance", "ref": "4", "wheelchair": "no"}}, {"type": "node", "id": 1244329998, "lat": 50.836847, "lon": 4.4080221, "tags": {"name": "Boulevard Saint-Michel - Sint-Michielslaan", "name:fr": "Boulevard Saint-Michel", "name:nl": "Sint-Michielslaan", "railway": "subway_entrance", "ref": "2", "wheelchair": "no"}}, {"type": "node", "id": 1313570456, "lat": 50.8371238, "lon": 4.4067444, "tags": {"name": "Square Mar\u00e9chal Montgomery - Maarschalk Montgomeryplein", "name:fr": "Square Mar\u00e9chal Montgomery", "name:nl": "Maarschalk Montgomeryplein", "railway": "subway_entrance", "ref": "3", "wheelchair": "no"}}, {"type": "node", "id": 4698032746, "lat": 50.8425969, "lon": 4.4637943, "tags": {"level": "1", "name": "Rue Dominique De Jonghe - Dominique De Jonghestraat", "name:fr": "Rue Dominique De Jonghe", "name:nl": "Dominique De Jonghestraat", "railway": "subway_entrance", "ref": "2", "wheelchair": "no"}}, {"type": "node", "id": 4698032750, "lat": 50.8414022, "lon": 4.4647213, "tags": {"name": "Square Stockel - Stokkel Square", "name:fr": "Square Stockel", "name:nl": "Stokkel Square", "railway": "subway_entrance", "ref": "1", "wheelchair": "yes"}}]}