{"version": 0.6, "generator": "Overpass API 0.7.62.10 2d4cfc48", "osm3s": {"timestamp_osm_base": "2026-02-02T17:23:30Z", "copyright": "The data included in this document is from www.openstreetmap.org. The data is made available under ODbL."}, "elements": [{"type": "node", "id": 2167729834, "lat": 50.8170609, "lon": 4.3553122, "tags": {"amenity": "cafe", "check_date:opening_hours": "2024-07-30", "name": "Le Village du Pain", "opening_hours": "Tu-Th 10:30-18:00; Fr,Sa 10:00-18:00", "shop": "bakery"}}, {"type": "node", "id": 2167729864, "lat": 50.8206582, "lon": 4.354229, "tags": {"amenity": "cafe", "check_date": "2023-09-10", "name": "Chez Franz", "outdoor_seating": "yes", "smoking": "outside"}}, {"type": "node", "id": 2322014482, "lat": 50.8225721, "lon": 4.3538971, "tags": {"amenity": "cafe", "check_date": "2024-07-18", "diet:vegetarian": "yes", "internet_access": "wlan", "internet_access:fee": "no", "name": "L'Atelier", "outdoor_seating": "yes", "smoking": "no"}}, {"type": "node", "id": 2352347474, "lat": 50.8183567, "lon": 4.3461755, "tags": {"amenity": "cafe", "indoor_seating": "yes", "name": "Caf\u00e9 Le Bonheur", "outdoor_seating": "sidewalk"}}, {"type": "node", "id": 4885415629, "lat": 50.819879, "lon": 4.3596948, "tags": {"amenity": "cafe", "brand": "Le Pain Quotidien", "brand:wikidata": "Q2046903", "brand:wikipedia": "en:Le Pain Quotidien", "cuisine": "sandwich", "diet:vegan": "yes", "diet:vegetarian": "yes", "name": "Le Pain Quotidien", "takeaway": "yes"}}, {"type": "node", "id": 5092096841, "lat": 50.8192225, "lon": 4.3613119, "tags": {"amenity": "cafe", "contact:instagram": "https://www.instagram.com/batch.brussels/", "contact:website": "https://www.batchbrussels.com/", "name": "Batch", "opening_hours": "We 11:00-23:00; Sa,Su 09:00-24:00"}}, {"type": "node", "id": 5801705139, "lat": 50.8238276, "lon": 4.3594592, "tags": {"amenity": "cafe", "contact:website": "https://delitraiteur.com/shop/delitraiteur-chatelain/", "full_name": "Delitraiteur Ch\u00e2telain", "name": "Delitraiteur", "opening_hours": "Mo-Su 07:00-22:00", "payment:cash": "yes", "payment:credit_cards": "yes", "payment:maestro": "yes", "payment:mastercard": "yes", "payment:visa": "yes", "shop": "convenience"}}, {"type": "node", "id": 5801705142, "lat": 50.8236836, "lon": 4.3589499, "tags": {"amenity": "cafe", "contact:website": "https://www.edenjapon.be", "cuisine": "tea;coffee_shop", "name": "Eden", "opening_hours": "Tu-Sa 10:00-19:00"}}, {"type": "node", "id": 5910210974, "lat": 50.8183953, "lon": 4.3636814, "tags": {"amenity": "cafe", "cuisine": "coffee_shop", "name": "mal\u014d specialty coffee"}}, {"type": "node", "id": 6969934185, "lat": 50.8231311, "lon": 4.3671823, "tags": {"amenity": "cafe", "contact:facebook": "https://www.facebook.com/kafeibxl/", "contact:phone": "+32 2 808 25 20", "contact:website": "https://www.kafei-bruxelles.be/", "cuisine": "asian;coffee_shop;brunch;pancakes", "name": "Kafei", "opening_hours": "Tu-Th 11:00-18:00; Fr-Su 11:00-17:00; Mo off", "outdoor_seating": "terrace", "reservation": "yes"}}, {"type": "node", "id": 7980571564, "lat": 50.8228975, "lon": 4.353184, "tags": {"amenity": "cafe", "check_date": "2025-03-28", "contact:instagram": "https://www.instagram.com/kami.brussels", "cuisine": "coffee_shop;lunch;organic", "name": "Kami", "opening_hours": "Tu-Fr 08:30-16:00; Sa-Su 10:00-17:00", "payment:cash": "yes", "payment:credit_cards": "yes", "payment:debit_cards": "yes"}}, {"type": "node", "id": 8860469748, "lat": 50.8225557, "lon": 4.3497732, "tags": {"amenity": "cafe", "contact:phone": "+32 2 343 18 48", "name": "Eat a nous", "opening_hours": "Tu 10:00-18:30; We,Th 09:30-18:30; Fr 09:00-15:00"}}, {"type": "node", "id": 9238265153, "lat": 50.8202275, "lon": 4.3591201, "tags": {"amenity": "cafe", "contact:email": "contact@teajolie.be", "contact:website": "https://teajolie.be", "cuisine": "tea_shop", "name": "Tea Jolie", "opening_hours": "Tu-Fr 09:00-18:00; Sa,Su 10:00-18:00"}}, {"type": "node", "id": 9238354199, "lat": 50.8231938, "lon": 4.3530519, "tags": {"amenity": "cafe", "contact:facebook": "https://www.facebook.com/Kaki.CakeBar/", "contact:phone": "+32 2 468 29 62", "cuisine": "coffee_shop;cake;asian;teahouse;dessert", "name": "Kaki Cake Bar", "opening_hours": "Tu-Fr 09:00-18:00; Sa,Su 10:00-18:00", "takeaway": "yes"}}, {"type": "node", "id": 9532094923, "lat": 50.8145414, "lon": 4.3670389, "tags": {"amenity": "cafe", "contact:phone": "+32 2 267 11 57", "cuisine": "swedish;coffee_shop", "name": "Kanel Brussels", "opening_hours": "Tu-Sa 08:00-17:00", "takeaway": "only"}}, {"type": "node", "id": 9646133346, "lat": 50.8156169, "lon": 4.3711196, "tags": {"amenity": "cafe", "contact:email": "hello@stellacoffeebar.be", "contact:instagram": "stellacoffeebar", "contact:mobile": "+32 465 91 09 35", "contact:website": "https://linktr.ee/stellacoffeebar/", "name": "Stella Legrand", "opening_hours": "Mo-Fr 07:30-18:00; Sa-Su 09:00-18:00", "outdoor_seating": "yes"}}, {"type": "node", "id": 9654374703, "lat": 50.8232958, "lon": 4.3585175, "tags": {"amenity": "cafe", "name": "Le Bistro"}}, {"type": "node", "id": 10313603394, "lat": 50.8166049, "lon": 4.3711661, "tags": {"amenity": "cafe", "check_date": "2023-01-06", "cuisine": "coffee_shop", "internet_access": "wlan", "internet_access:fee": "customers", "name": "Caf\u00e9 de la Presse", "opening_hours": "Mo-Fr 07:30-20:00; Sa,Su 08:30-20:00", "outdoor_seating": "yes"}}, {"type": "node", "id": 10777960505, "lat": 50.8233983, "lon": 4.3537354, "tags": {"amenity": "cafe", "contact:instagram": "https://www.instagram.com/medartcafe", "cuisine": "coffee_shop", "indoor_seating": "yes", "name": "Med Art", "outdoor_seating": "no"}}, {"type": "node", "id": 10792703407, "lat": 50.8236365, "lon": 4.3538115, "tags": {"amenity": "cafe", "name": "Olive Restaurant"}}, {"type": "node", "id": 12345723059, "lat": 50.8179377, "lon": 4.3524973, "tags": {"amenity": "cafe", "name": "Roselyne"}}, {"type": "node", "id": 12762971802, "lat": 50.820131, "lon": 4.3682371, "tags": {"amenity": "cafe", "contact:email": "info@thewaynecafe.com", "contact:facebook": "61572520707221", "contact:instagram": "wayne.brussels", "contact:phone": "+32 2 241 86 68", "contact:website": "https://thewaynecafe.com/", "cuisine": "coffee_shop;sandwich", "name": "The Wayne Caf\u00e9", "opening_hours": "Mo-We, Sa 08:00-18:00; Th-Fr 08:00-22:00; Su 10:00-16:00"}}]}