{"version": 0.6, "generator": "Overpass API 0.7.62.10 2d4cfc48", "osm3s": {"timestamp_osm_base": "2026-02-03T11:34:44Z", "copyright": "The data included in this document is from www.openstreetmap.org. The data is made available under ODbL."}, "elements": [{"type": "node", "id": 1811910216, "lat": 50.8860441, "lon": 4.3335669, "tags": {"name": "H\u00f4pital Brugmann - Brugmann-ziekenhuis", "name:fr": "H\u00f4pital Brugmann", "name:nl": "Brugmann-ziekenhuis", "public_transport": "stop_position", "railway": "tram_stop", "tram": "yes"}}, {"type": "node", "id": 1812472837, "lat": 50.8822415, "lon": 4.3354373, "tags": {"name": "Guillaume De Greef", "public_transport": "stop_position", "railway": "tram_stop", "tram": "yes"}}, {"type": "node", "id": 2613006809, "lat": 50.8826221, "lon": 4.3355704, "tags": {"name": "Guillaume De Greef", "public_transport": "stop_position", "railway": "tram_stop", "tram": "yes"}}, {"type": "node", "id": 2613006845, "lat": 50.884224, "lon": 4.3378051, "tags": {"name": "Ernest Salu", "public_transport": "stop_position", "railway": "tram_stop", "tram": "yes"}}, {"type": "node", "id": 2613006894, "lat": 50.8864982, "lon": 4.3426645, "tags": {"name": "Stuyvenbergh", "public_transport": "stop_position", "railway": "tram_stop", "tram": "yes"}}, {"type": "node", "id": 3136264598, "lat": 50.8862209, "lon": 4.3339422, "tags": {"name": "H\u00f4pital Brugmann - Brugmann-ziekenhuis", "name:fr": "H\u00f4pital Brugmann", "name:nl": "Brugmann-ziekenhuis", "public_transport": "stop_position", "railway": "tram_stop", "tram": "yes"}}, {"type": "node", "id": 4899271821, "lat": 50.8899176, "lon": 4.3450362, "tags": {"name": "Saint-Lambert - Sint-Lambertus", "name:fr": "Saint-Lambert", "name:nl": "Sint-Lambertus", "public_transport": "stop_position", "railway": "tram_stop", "tram": "yes"}}, {"type": "node", "id": 5174967130, "lat": 50.8862759, "lon": 4.3421107, "tags": {"name": "Stuyvenbergh", "public_transport": "stop_position", "railway": "tram_stop", "tram": "yes"}}, {"type": "node", "id": 5174984147, "lat": 50.884726, "lon": 4.338981, "tags": {"name": "Ernest Salu", "public_transport": "stop_position", "railway": "tram_stop", "tram": "yes"}}]}