{"version": 0.6, "generator": "Overpass API 0.7.62.10 2d4cfc48", "osm3s": {"timestamp_osm_base": "2026-02-02T14:45:10Z", "copyright": "The data included in this document is from www.openstreetmap.org. The data is made available under ODbL."}, "elements": [{"type": "node", "id": 347350395, "lat": 50.8296471, "lon": 4.3858053, "tags": {"amenity": "pub", "name": "Le Griffon"}}, {"type": "node", "id": 1212142853, "lat": 50.832128, "lon": 4.3873346, "tags": {"amenity": "pub", "check_date:opening_hours": "2023-06-04", "name": "L'Horizon", "opening_hours:signed": "no"}}, {"type": "node", "id": 2360488073, "lat": 50.8285207, "lon": 4.3929631, "tags": {"amenity": "pub", "brewery": "Jupiler;yes", "name": "Le New Bouffons", "opening_hours": "Mo-Fr 07:30-00:00; Sa 08:00-00:00; Su 08:00-20:00"}}, {"type": "node", "id": 4417386289, "lat": 50.8303428, "lon": 4.3806107, "tags": {"amenity": "pub", "name": "Le viking", "smoking": "outside"}}, {"type": "node", "id": 4426224334, "lat": 50.8300116, "lon": 4.3800934, "tags": {"amenity": "pub", "check_date:opening_hours": "2024-08-22", "name": "Taverne Magnolia", "opening_hours:signed": "no"}}, {"type": "node", "id": 4801804094, "lat": 50.8328584, "lon": 4.3929017, "tags": {"amenity": "pub", "check_date": "2025-02-06", "cuisine": "portuguese", "name": "Taverne Avenida", "website": "http://www.taverneavenida.be"}}, {"type": "node", "id": 4972028804, "lat": 50.8276632, "lon": 4.3948925, "tags": {"amenity": "bar", "check_date:opening_hours": "2026-01-22", "name": "Chez Mamou", "opening_hours:signed": "no", "wheelchair": "no"}}, {"type": "node", "id": 9801989077, "lat": 50.8331511, "lon": 4.3861757, "tags": {"amenity": "pub", "name": "Cafe Felix"}}, {"type": "node", "id": 10556497113, "lat": 50.825697, "lon": 4.3990625, "tags": {"amenity": "pub", "check_date": "2025-04-18", "contact:website": "https://cohop.be", "description": "coop\u00e9rative de microbrasseries + une brasserie partag\u00e9e et \u00e9co-responsable proposant des bi\u00e8res artisanales de qualit\u00e9", "food": "sandwich", "microbrewery": "yes", "name": "CoHop", "operator:type": "cooperative", "start_date": "2022"}}, {"type": "node", "id": 12238620493, "lat": 50.8316747, "lon": 4.3856828, "tags": {"amenity": "bar", "contact:mobile": "+32 484 02 01 00", "contact:website": "https://etc.cafe/", "indoor_seating": "yes", "name": "Etcetera", "opening_hours": "Mo-Su 11:00-00:00", "opening_hours:signed": "no", "outdoor_seating": "yes", "payment:cards": "no", "payment:cash": "yes", "short_name": "Etc"}}, {"type": "node", "id": 12830245606, "lat": 50.830411, "lon": 4.38991, "tags": {"amenity": "pub", "name": "Taverne La Chasse", "opening_hours:kitchen": "11:30-21:30"}}]}