{"version": 0.6, "generator": "Overpass API 0.7.62.10 2d4cfc48", "osm3s": {"timestamp_osm_base": "2026-02-02T15:51:31Z", "copyright": "The data included in this document is from www.openstreetmap.org. The data is made available under ODbL."}, "elements": [{"type": "node", "id": 602765935, "lat": 50.7846884, "lon": 4.3866178, "tags": {"amenity": "restaurant", "contact:email": "info@lechaletdelaforet.be", "contact:phone": "+32 2 374 54 16", "contact:website": "https://www.lechaletdelaforet.be/", "name": "Chalet de la For\u00eat", "opening_hours": "Mo-Fr 12:00-14:00,19:00-21:00", "wikidata": "Q2581585", "wikipedia": "nl:Le Chalet de la For\u00eat"}}, {"type": "node", "id": 602765942, "lat": 50.783931, "lon": 4.3789098, "tags": {"amenity": "restaurant", "contact:phone": "+32 2 374 10 93", "contact:website": "https://www.rallyedesautos.be/fr/index.cfm?nocacheid=8875", "name": "Au Rallye des Autos"}}, {"type": "node", "id": 623504311, "lat": 50.8082506, "lon": 4.3706525, "tags": {"amenity": "restaurant", "contact:phone": "+32 2 375 01 16", "cuisine": "japanese", "name": "Yagura", "opening_hours": "Tu-Sa 12:00-14:00,19:00-22:00"}}, {"type": "node", "id": 633688856, "lat": 50.7917631, "lon": 4.3315015, "tags": {"amenity": "restaurant", "contact:phone": "+32 2 332 20 91", "contact:website": "https://schievelavabo.com/restaurants/uccle", "cuisine": "french", "name": "Schievelavabo", "opening_hours": "Mo-Th 12:00-23:00; Fr 12:00-00:00; Sa 18:30-00:00; Su 18:30-23:00"}}, {"type": "node", "id": 707134015, "lat": 50.8136369, "lon": 4.3385398, "tags": {"amenity": "restaurant", "brand": "Pizza Hut", "brand:wikidata": "Q191615", "brand:wikipedia": "en:Pizza Hut", "check_date:opening_hours": "2024-04-10", "cuisine": "pizza", "name": "Pizza Hut", "opening_hours:signed": "no"}}, {"type": "node", "id": 797084329, "lat": 50.8139143, "lon": 4.3388962, "tags": {"amenity": "restaurant", "contact:email": "info@lastazione.be", "contact:phone": "+32 2 524 42 11", "contact:website": "https://lastazione.be/", "craft": "caterer", "cuisine": "italian", "name": "La Stazione Alimentari", "opening_hours": "Tu,We 10:00-19:00; Th-Sa 10:00-22:30"}}, {"type": "node", "id": 1069393817, "lat": 50.792003, "lon": 4.332963, "tags": {"amenity": "restaurant", "cuisine": "moroccan", "name": "Chez Hassan", "website": "https://resto-calvoet.be"}}, {"type": "node", "id": 1641938238, "lat": 50.8039996, "lon": 4.3720254, "tags": {"amenity": "restaurant", "contact:phone": "+32 2 374 57 67", "contact:website": "https://www.il-carpaccio.be", "cuisine": "italian", "description": "Restaurant Il Carpaccio", "name": "Il Carpaccio"}}, {"type": "node", "id": 1894743435, "lat": 50.7877115, "lon": 4.3397635, "tags": {"amenity": "restaurant", "contact:phone": "+32 2 374 47 05", "contact:website": "https://www.labranchedolivier.be/", "cuisine": "french", "name": "La Branche d'Olivier", "opening_hours": "Mo-Fr 12:00-14:30, 19:00-23:00; Sa 19:00-23:00", "wheelchair": "no"}}, {"type": "node", "id": 2349963369, "lat": 50.8027702, "lon": 4.3403789}, {"type": "node", "id": 2349963382, "lat": 50.8028201, "lon": 4.3403794}, {"type": "node", "id": 2349997620, "lat": 50.8041511, "lon": 4.3394694, "tags": {"amenity": "restaurant", "contact:website": "https://tontons.be/", "name": "Les Tontons"}}, {"type": "node", "id": 2349997777, "lat": 50.8027555, "lon": 4.3403813}, {"type": "node", "id": 2349997795, "lat": 50.8027778, "lon": 4.3406014}, {"type": "node", "id": 2349997818, "lat": 50.8028071, "lon": 4.3406671}, {"type": "node", "id": 2349997828, "lat": 50.8028259, "lon": 4.3405574}, {"type": "node", "id": 2349997844, "lat": 50.8028476, "lon": 4.340765}, {"type": "node", "id": 2349997862, "lat": 50.8028671, "lon": 4.340504}, {"type": "node", "id": 2349997864, "lat": 50.8028696, "lon": 4.3405013}, {"type": "node", "id": 2349997876, "lat": 50.8028936, "lon": 4.340719}, {"type": "node", "id": 2349997899, "lat": 50.8029401, "lon": 4.3406725}, {"type": "node", "id": 2420002444, "lat": 50.7922302, "lon": 4.3520245, "tags": {"amenity": "restaurant", "capacity": "100", "cuisine": "regional", "name": "Ventre Saint-Gris", "takeaway": "no"}}, {"type": "node", "id": 3020178451, "lat": 50.8046087, "lon": 4.365155, "tags": {"amenity": "restaurant", "contact:phone": "+32 2 374 33 15", "contact:website": "https://www.lefouchantant.be/", "cuisine": "french", "internet_access": "no", "name": "Le fou chantant", "smoking": "no", "wheelchair": "no"}}, {"type": "node", "id": 3981790357, "lat": 50.7944543, "lon": 4.3652869, "tags": {"amenity": "restaurant", "brand": "Pizza Hut", "brand:wikidata": "Q191615", "brand:wikipedia": "en:Pizza Hut", "cuisine": "pizza", "delivery": "yes", "drive_through": "yes", "name": "Pizza Hut", "opening_hours": "Fr,Sa 11:30-22:30; Su-Th 11:30-22:00", "takeaway": "yes", "wheelchair": "no"}}, {"type": "node", "id": 4388790239, "lat": 50.7920086, "lon": 4.348245, "tags": {"amenity": "restaurant", "award:michelin": "1", "contact:facebook": "https://www.facebook.com/lepigeonnoir/", "contact:instagram": "https://www.instagram.com/lepigeonnoir/", "contact:phone": "+32 2 375 23 74", "contact:website": "https://www.lepigeonnoir.be/", "cuisine": "french", "name": "Le Pigeon Noir", "wikidata": "Q66382938", "wikipedia": "fr:Le Pigeon noir"}}, {"type": "node", "id": 5016260229, "lat": 50.8029878, "lon": 4.3396841, "tags": {"amenity": "restaurant", "cuisine": "swiss", "name": "Au Petit Suisse"}}, {"type": "node", "id": 5056667971, "lat": 50.8125216, "lon": 4.3469979, "tags": {"amenity": "restaurant", "contact:email": "restoaudelice@gmail.com", "contact:phone": "+32 2 344 89 93", "contact:website": "https://www.au-delice.be", "cuisine": "vietnamese", "name": "Au D\u00e9lice", "opening_hours": "Mo off; Tu-Fr 12:00-14:00,18:30-21:30; Sa,Su 18:30-21:30"}}, {"type": "node", "id": 5442918058, "lat": 50.8116604, "lon": 4.3681618, "tags": {"amenity": "restaurant", "contact:email": "info@brasseriesgeorges.be", "contact:phone": "+32 2 347 21 00", "contact:website": "https://www.brasseriesgeorges.be", "cuisine": "seafood;fine_dining;friture;regional", "name": "Les Brasseries Georges", "opening_hours": "Su-We 12:00-23:00; Th-Sa 12:00-00:00"}}, {"type": "node", "id": 5501826363, "lat": 50.793262, "lon": 4.3657499, "tags": {"amenity": "restaurant", "contact:instagram": "https://www.instagram.com/aureposdelamontagne_bxl", "contact:phone": "+32 2 347 72 58", "description": "Ancien caf\u00e9 colombophile, tout est confectionn\u00e9 dans leur cuisine", "name": "Au Repos de la Montagne", "opening_hours": "Tu-Th 18:30-23:00; Fr-Sa 12:00-14:30, 18:30-23:00", "outdoor_seating": "yes", "wheelchair": "no"}}, {"type": "node", "id": 5910235664, "lat": 50.8141888, "lon": 4.3674452, "tags": {"amenity": "restaurant", "contact:phone": "+32 2 344 59 61", "contact:website": "https://www.basculevillage.be/uccle/bascule/shop/Pizzeria_Pulcinella_99", "cuisine": "pizza", "name": "Il Pulcinella", "opening_hours": "Mo-Su 12:00-14:30,18:30-22:30"}}, {"type": "node", "id": 5910246941, "lat": 50.8143938, "lon": 4.3632717, "tags": {"amenity": "restaurant", "check_date:opening_hours": "2021-03-07", "contact:phone": "+32 2 344 07 13", "contact:website": "https://www.resto-cappello.com", "cuisine": "italian", "name": "Cappello", "opening_hours": "Tu-Sa 12:00-14:30,18:30-22:30; Su 12:00-14:30"}}, {"type": "node", "id": 5910290092, "lat": 50.8142595, "lon": 4.3599652, "tags": {"amenity": "restaurant", "contact:phone": "+32 2 347 57 97", "contact:website": "https://www.illionelo.be", "cuisine": "pizza", "name": "Il Lionelo"}}, {"type": "node", "id": 5912212085, "lat": 50.8138451, "lon": 4.3542645, "tags": {"amenity": "restaurant", "check_date:opening_hours": "2021-03-07", "contact:phone": "+32 2 219 49 93", "contact:website": "https://www.luca-bruxelles.com", "cuisine": "italian", "name": "Luca", "opening_hours": "Tu-Sa 10:00-23:00; Su 10:00-17:00"}}, {"type": "node", "id": 5927307148, "lat": 50.7974436, "lon": 4.3362281, "tags": {"amenity": "restaurant", "cuisine": "french", "name": "Bouch\u00e9ry"}}, {"type": "node", "id": 5936636385, "lat": 50.7915779, "lon": 4.3332518, "tags": {"amenity": "restaurant", "check_date": "2024-11-01", "cuisine": "burger", "name": "Green Mango"}}, {"type": "node", "id": 5985329765, "lat": 50.7967532, "lon": 4.3359122, "tags": {"amenity": "restaurant", "cuisine": "french", "name": "Petits Bouchons", "outdoor_seating": "no"}}, {"type": "node", "id": 5985386079, "lat": 50.7945394, "lon": 4.3639468, "tags": {"amenity": "restaurant", "cuisine": "french", "name": "Le Passage"}}, {"type": "node", "id": 6077383335, "lat": 50.7941713, "lon": 4.3343577, "tags": {"amenity": "restaurant", "capacity": "10", "contact:phone": "+32 2 376 31 23", "cuisine": "sushi;asian", "delivery": "yes", "name": "Saveurs d'Asie", "opening_hours": "Mo-Fr 11:30-15:00,17:30-22:30; Sa,Su 12:00-22:30", "outdoor_seating": "no", "takeaway": "yes"}}, {"type": "node", "id": 6372699268, "lat": 50.7960084, "lon": 4.3168373}, {"type": "node", "id": 6372699269, "lat": 50.7960614, "lon": 4.3170334}, {"type": "node", "id": 6372699270, "lat": 50.7960107, "lon": 4.3170677}, {"type": "node", "id": 6372699271, "lat": 50.7959578, "lon": 4.3168716}, {"type": "node", "id": 6535073785, "lat": 50.8124906, "lon": 4.3407081, "tags": {"amenity": "restaurant", "contact:mobile": "+32 494 68 96 60", "contact:website": "https://www.stkildabxl.be/", "name": "St Kilda", "opening_hours": "Mo-Fr 19:00-22:00"}}, {"type": "node", "id": 6966406044, "lat": 50.8070636, "lon": 4.3338194, "tags": {"amenity": "restaurant", "contact:email": "lescrepesdalex@yahoo.com", "contact:mobile": "+32 497 29 86 30", "contact:website": "https://lescrepesdalex.eu/", "cuisine": "crepe", "name": "Les cr\u00eapes d'Alex", "reservation": "required"}}, {"type": "node", "id": 7040321452, "lat": 50.8003123, "lon": 4.3362777, "tags": {"amenity": "restaurant", "contact:phone": "+32 2 851 28 97", "contact:website": "https://www.motherindia.be", "cuisine": "indian", "delivery": "yes", "name": "Mother India", "opening_hours": "Mo-Fr 12:00-22:00; Sa-Su 12:00-23:00", "takeaway": "yes"}}, {"type": "node", "id": 7920884882, "lat": 50.7828942, "lon": 4.3568964, "tags": {"amenity": "restaurant", "contact:phone": "+32 2 374 19 74", "contact:website": "https://restaurant-brasserie-harold-uccle.be/", "name": "Harold"}}, {"type": "node", "id": 7920972397, "lat": 50.7857843, "lon": 4.376978, "tags": {"amenity": "restaurant", "contact:email": "fortjaco@colonelbrussels.com", "contact:phone": "+32 2 733 42 24", "contact:website": "https://www.colonelbrussels.com/reservation-fort-jaco", "name": "Colonel Fort Jaco", "outdoor_seating": "yes", "takeaway": "yes"}}, {"type": "node", "id": 8950800945, "lat": 50.8138438, "lon": 4.3449169, "tags": {"amenity": "restaurant", "check_date:opening_hours": "2024-10-05", "cuisine": "italian", "name": "Primo Spettacolo", "opening_hours": "Mo,Tu,Th-Sa 12:00-14:30,18:30-21:30; We 12:00-14:30"}}, {"type": "node", "id": 9135642964, "lat": 50.7929845, "lon": 4.3478909, "tags": {"amenity": "restaurant", "contact:mobile": "+32 479 09 03 99", "contact:website": "https://aumarranca.be/", "name": "Au Marranca", "opening_hours": "Mo,We,Th,Su 12:00-14:30,18:30-22:30; Tu off; Fr,Sa 12:00-14:30,18:30-23:00", "payment:american_express": "yes", "payment:cash": "yes", "payment:debit_cards": "yes", "payment:mastercard": "yes", "payment:payconiq": "yes", "payment:visa": "yes", "start_date": "2025-05-08", "wheelchair": "yes"}}, {"type": "node", "id": 9239881258, "lat": 50.8090883, "lon": 4.3700273, "tags": {"amenity": "restaurant", "contact:email": "contact@bagheerarestaurant.com", "contact:phone": "+32 2 320 50 00", "contact:website": "https://www.bagheerarestaurant.com", "cuisine": "international", "name": "Bagheera", "opening_hours": "Tu-Fr 12:00-14:00, 19:00-23:00; Sa 19:00-23:00"}}, {"type": "node", "id": 9595706227, "lat": 50.7966104, "lon": 4.374775, "tags": {"amenity": "restaurant", "contact:phone": "+32 2 375 12 00", "contact:website": "https://www.tenshi-sushi.be/", "cuisine": "asian", "name": "Tenshi Sushi", "opening_hours": "Mo 11:30-14:30, 18:00-22:30; Tu-Sa 11:30-14:30, 18:00-21:30; Su 17:30-21:30"}}, {"type": "node", "id": 9710052224, "lat": 50.787137, "lon": 4.3299893, "tags": {"amenity": "restaurant", "name": "Casa Santos", "website": "https://casasantos.be/"}}, {"type": "node", "id": 9743457705, "lat": 50.7887596, "lon": 4.3461432, "tags": {"access": "private", "amenity": "restaurant", "cuisine": "international;french;cantine", "description:fr": "Cantine du Lyc\u00e9e fran\u00e7ais", "diet:halal": "yes", "diet:healthy": "yes", "diet:meat": "yes", "diet:vegetarian": "yes", "noname": "yes", "opening_hours": "Mo-Fr 11:30-13:30", "operator": "Lyc\u00e9e Fran\u00e7ais Jean-Monnet"}}, {"type": "node", "id": 10011853317, "lat": 50.8019886, "lon": 4.3737197, "tags": {"amenity": "restaurant", "name": "La Pomme de Pin"}}, {"type": "node", "id": 10265639779, "lat": 50.8067204, "lon": 4.3377661, "tags": {"amenity": "restaurant", "contact:instagram": "https://www.instagram.com/amakara_be/", "contact:website": "https://www.amakara-cuisine.com", "cuisine": "japanese", "name": "Amakara", "opening_hours": "\"by appointment\""}}, {"type": "node", "id": 10276671405, "lat": 50.8075907, "lon": 4.3708242, "tags": {"amenity": "restaurant", "contact:email": "hello@metplaizier.be", "contact:phone": "+32 2 882 21 20", "contact:website": "https://www.metplaizier.be/", "name": "Met Plaizier", "opening_hours": "Mo-Fr 08:00-17:00"}}, {"type": "node", "id": 10648359659, "lat": 50.807214, "lon": 4.3369488, "tags": {"amenity": "restaurant", "check_date": "2024-02-20", "contact:phone": "+32 2 345 97 31", "contact:website": "https://piree.be/", "cuisine": "greek", "delivery": "yes", "internet_access": "wlan", "name": "Les Enfants du Pir\u00e9e", "opening_hours": "Mo,Tu off; We-Su 12:00-14:30,18:30-23:30; Fr,Sa 12:00-14:30,18:30-00:30", "payment:american_express": "yes", "payment:maestro": "yes", "payment:mastercard": "yes", "payment:visa": "yes"}}, {"type": "node", "id": 10722398520, "lat": 50.8137735, "lon": 4.3566188, "tags": {"amenity": "restaurant", "contact:instagram": "https://www.instagram.com/seven.brussels/", "contact:website": "https://www.seven-brussels.com/", "name": "Seven", "opening_hours": "Mo,We-Fr 08:00-17:00; Sa, Su 10:00-18:00", "opening_hours:kitchen": "Mo,We-Fr 08:00-15:00; Sa, Su 10:00-16:00", "reservation": "no"}}, {"type": "node", "id": 10789516789, "lat": 50.7941029, "lon": 4.3797438, "tags": {"amenity": "restaurant", "contact:phone": "+32 2 374 45 81", "contact:website": "https://www.royalracing1891.be/le-club/bar-restaurant", "cuisine": "regional;french;burger;steak_house", "name": "Royal Racing Club"}}, {"type": "node", "id": 11152765859, "lat": 50.8024711, "lon": 4.339623, "tags": {"amenity": "restaurant", "contact:email": "pozbrussels@gmail.com", "contact:mobile": "+32 484 27 58 95", "contact:website": "https://pozbrussels.be/fr/etablissements/9163703003201405140", "cuisine": "coffee", "opening_hours": "Mo-Su 09:00-18:00", "payment:cards": "yes", "payment:cash": "yes", "payment:qr_code": "no", "reservation": "no", "wheelchair": "yes"}}, {"type": "node", "id": 11178897480, "lat": 50.7886478, "lon": 4.3753458, "tags": {"amenity": "restaurant", "contact:phone": "+32 2 376 77 78", "contact:website": "https://jaco.brussels/", "cuisine": "italian", "name": "Jaco"}}, {"type": "node", "id": 11194805243, "lat": 50.7983206, "lon": 4.3381521, "tags": {"amenity": "restaurant", "contact:email": "chezlumarestaurant@gmail.com", "contact:mobile": "+32 498 14 83 83", "contact:website": "https://www.chezluma.be/", "cuisine": "french", "name": "Chez Luma", "opening_hours": "We-Su 18:00-23:30"}}, {"type": "node", "id": 11465395222, "lat": 50.7804493, "lon": 4.3255126, "tags": {"amenity": "restaurant", "cuisine": "french", "name": "Sans Chi Chi", "phone": "+32 2 725 65 29", "website": "https://www.sans-chi-chi.com/"}}, {"type": "node", "id": 11533339716, "lat": 50.7945576, "lon": 4.3645636, "tags": {"amenity": "restaurant", "changing_table": "no", "contact:phone": "+32 2 372 06 07", "contact:website": "https://pastacommedia.com", "cuisine": "italian", "entrance:kerb:height": "0.1", "entrance:ramp": "no", "entrance:step_count": "1", "entrance:width": "1", "name": "Pasta Commedia", "opening_hours": "Mo-Su 12:00-14:30,19:00-23:00", "toilets:wheelchair": "no", "wheelchair:turning_circle": "yes"}}, {"type": "node", "id": 11606542970, "lat": 50.8090666, "lon": 4.3696699, "tags": {"alt_name": "Nozomi Sushi", "amenity": "restaurant", "contact:email": "info@nozomisushi.be", "contact:phone": "+32 2 259 17 10", "contact:website": "https://nozomisushi.be/", "cuisine": "japanese;ramen;poke", "name": "Nozomi", "opening_hours": "Mo-Sa 11:30-14:30,17:30-22:30", "takeaway": "yes"}}, {"type": "node", "id": 11685131376, "lat": 50.7962764, "lon": 4.3966603, "tags": {"amenity": "restaurant", "diet:vegan": "no", "diet:vegetarian": "yes", "name": "Woodpecker Drohme", "website:menu": "https://woodpecker.family/menu-drohme/"}}, {"type": "node", "id": 11685293316, "lat": 50.7948486, "lon": 4.3646519, "tags": {"amenity": "restaurant", "indoor_seating": "yes", "name": "Le refuge", "outdoor_seating": "yes"}}, {"type": "node", "id": 11685293317, "lat": 50.7948615, "lon": 4.3647399, "tags": {"amenity": "restaurant", "cuisine": "thai", "name": "Thai Smile"}}, {"type": "node", "id": 11788412423, "lat": 50.7845113, "lon": 4.3780555, "tags": {"amenity": "restaurant", "check_date:opening_hours": "2025-03-07", "contact:email": "il.giardino@skynet.be", "contact:facebook": "il.giardino.50", "contact:instagram": "restaurant.ilgiardino", "contact:phone": "+32 2 374 35 16", "contact:website": "https://www.ilgiardino-uccle.be/", "cuisine": "italian;pizza", "name": "Il Giardino", "opening_hours": "Mo-Su 12:00-14:30,18:30-22:45", "reservation": "yes", "toilets": "yes"}}, {"type": "node", "id": 11922107770, "lat": 50.8100732, "lon": 4.3373117, "tags": {"amenity": "restaurant", "name": "Meat Mozart"}}, {"type": "node", "id": 11951887613, "lat": 50.8140448, "lon": 4.350043, "tags": {"amenity": "restaurant", "contact:phone": "+32 2 770 28 63", "cuisine": "pizza", "indoor_seating": "yes", "name": "Pizzeria Nom\u00e8a", "outdoor_seating": "yes"}}, {"type": "node", "id": 12029082992, "lat": 50.806936, "lon": 4.3716323, "tags": {"amenity": "restaurant", "contact:website": "https://www.lapiolapizza.com/", "cuisine": "pizza", "name": "La Piola Pizza", "start_date": "2024-07-01"}}, {"type": "node", "id": 12204839628, "lat": 50.8136948, "lon": 4.3452799, "tags": {"amenity": "restaurant", "cuisine": "sushi", "name": "Manga Sushi", "opening_hours": "Mo-Sa 11:30-14:30,17:30-21:30; Su 17:30-21:30", "outdoor_seating": "no"}}, {"type": "node", "id": 12212854993, "lat": 50.8062555, "lon": 4.3578449, "tags": {"amenity": "restaurant", "contact:phone": "+32 2 374 34 17", "contact:website": "https://www.dehoef-1627.com/", "name": "De Hoef 1627"}}, {"type": "node", "id": 12212859262, "lat": 50.7969537, "lon": 4.3750781, "tags": {"amenity": "restaurant", "contact:website": "https://www.blueelephant.com/", "cuisine": "thai", "name": "Blue Elephant"}}, {"type": "node", "id": 12212890833, "lat": 50.8079705, "lon": 4.3367225, "tags": {"amenity": "restaurant", "contact:email": "info@spijtigenduivel.com", "contact:phone": "+32 2 344 34 55", "contact:website": "https://www.spijtigenduivel.com/", "cuisine": "regional", "name": "Au Vieux Spijtigen Duivel", "opening_hours": "Mo-Su 11:30-23:30"}}, {"type": "node", "id": 12231385582, "lat": 50.8004808, "lon": 4.3751431, "tags": {"amenity": "restaurant", "contact:phone": "+32 2 375 80 80", "contact:website": "https://citedudragon.be/brussels/fr/", "cuisine": "chinese", "diet:vegetarian": "yes", "fax": "+32 2 375 69 77", "name": "La Cit\u00e9 du Dragon", "opening_hours": "Mo-Su 12:00-14:30,18:30-22:30"}}, {"type": "node", "id": 12231393703, "lat": 50.7811229, "lon": 4.3806226, "tags": {"amenity": "restaurant", "contact:facebook": "BrasserieDuPrincedOrange", "contact:fax": "+32 2 375 81 34", "contact:phone": "+32 2 375 23 05", "cuisine": "french", "internet_access": "no", "name": "Brasserie du Prince d'Orange", "opening_hours": "Mo-Fr 11:00-22:00; Sa,Su 11:00-23:00", "smoking": "no", "start_date": "1911", "wikidata": "Q125121618"}}, {"type": "node", "id": 12293867666, "lat": 50.8137896, "lon": 4.3482545, "tags": {"amenity": "restaurant", "contact:website": "https://www.civico6-pizzeria.be/en/", "cuisine": "pizza", "name": "Civico 6"}}, {"type": "node", "id": 12309549642, "lat": 50.8117012, "lon": 4.3572662, "tags": {"amenity": "restaurant", "name": "Le Pilea", "website": "https://lepilea.be"}}, {"type": "node", "id": 12313788545, "lat": 50.8032069, "lon": 4.3400595, "tags": {"amenity": "restaurant"}}, {"type": "node", "id": 12313819868, "lat": 50.8031733, "lon": 4.3398189, "tags": {"amenity": "restaurant"}}, {"type": "node", "id": 12313823215, "lat": 50.8034931, "lon": 4.340446, "tags": {"amenity": "restaurant"}}, {"type": "node", "id": 12313995953, "lat": 50.8142287, "lon": 4.3472682, "tags": {"amenity": "restaurant", "cuisine": "japanese"}}, {"type": "node", "id": 12412040181, "lat": 50.7901351, "lon": 4.3746036, "tags": {"amenity": "restaurant", "contact:mobile": "+32 497 24 21 86", "cuisine": "moroccan", "description": "Restaurant-traiteur marocain", "name": "Nomade", "opening_hours": "Mo-Su 11:00-23:00", "takeaway": "yes", "website": "https://nomade.brussels"}}, {"type": "node", "id": 12523281849, "lat": 50.7892894, "lon": 4.375206, "tags": {"amenity": "restaurant", "contact:email": "fortjaco@thaicafe.be", "contact:phone": "+32 2 888 80 80", "contact:website": "https://thai.cafe/", "cuisine": "thai", "name": "Thai Caf\u00e9", "outdoor_seating": "yes", "takeaway": "yes"}}, {"type": "node", "id": 12523379019, "lat": 50.7875482, "lon": 4.3762319, "tags": {"amenity": "restaurant", "check_date:opening_hours": "2025-01-22", "contact:mobile": "+32 472 82 55 30", "contact:website": "https://lamed.be/", "cuisine": "lebanese", "name": "La Med", "opening_hours": "Mo-Su 11:00-23:00", "takeaway": "yes"}}, {"type": "node", "id": 12565979161, "lat": 50.8033689, "lon": 4.3386797, "tags": {"amenity": "restaurant", "contact:email": "info@leparvis.be", "contact:phone": "+32 2 850 87 53", "contact:website": "https://leparvis.be/", "cuisine": "belgian;french", "diet:vegetarian": "no", "name": "Le Parvis", "opening_hours": "Tu-Sa 12:00-23:00; Su 12:00-18:00", "wheelchair": "no"}}, {"type": "node", "id": 12604312530, "lat": 50.7879561, "lon": 4.3759357, "tags": {"amenity": "restaurant", "contact:email": "chezfleur@hotmail.com", "contact:phone": "+32 2 374 30 74", "contact:website": "https://www.commechezfleur.be/", "cuisine": "thai;vietnamese", "delivery": "yes", "name": "Comme Chez Fleur", "opening_hours": "Mo-Sa 12:00-14:30,18:00-22:30; PH 18:00-22:30", "takeaway": "yes"}}, {"type": "node", "id": 12640367641, "lat": 50.8048329, "lon": 4.3720292, "tags": {"amenity": "restaurant", "check_date:opening_hours": "2025-03-06", "contact:phone": "+32 2 374 04 88", "contact:website": "https://shillasushi.com/", "cuisine": "japanese;sushi", "delivery": "yes", "name": "Shilla Sushi", "opening_hours": "Mo-Su 11:00-15:00,17:30-22:30; We off", "takeaway": "yes", "toilets": "yes"}}, {"type": "node", "id": 12957844264, "lat": 50.7955403, "lon": 4.3728254, "tags": {"amenity": "restaurant", "contact:website": "https://www.showakoi.be/", "cuisine": "japanese", "name": "Showa Ko\u00ef"}}, {"type": "node", "id": 13095330590, "lat": 50.8101013, "lon": 4.344563, "tags": {"amenity": "restaurant", "cuisine": "fondue", "name": "Henri 1er"}}, {"type": "node", "id": 13140779332, "lat": 50.7952912, "lon": 4.3969514, "tags": {"amenity": "restaurant", "name": "Clubhouse Drohme"}}, {"type": "way", "id": 680584766, "nodes": [6372699268, 6372699269, 6372699270, 6372699271, 6372699268], "tags": {"amenity": "restaurant", "contact:phone": "+32 2 333 38 30", "cuisine": "thai", "description:fr": "Restaurant de Nemo 33", "opening_hours": "Mo, Tu, Fr 12:00-14:30,19:00-22:30; Th-Fr 12:00-14:30,19:00-23:30; Sa-Su 12:00-22:30"}}, {"type": "way", "id": 1057618025, "nodes": [2349997899, 2349997862, 2349997864, 2349963382, 2349963369, 2349997777, 2349997828, 2349997795, 2349997818, 2349997844, 2349997876, 2349997899], "tags": {"amenity": "restaurant", "contact:email": "info@caffealdente.com", "contact:phone": "+32 2 343 45 23", "contact:website": "https://caffealdente.com/", "description:it": "Osteria, negozio, enoteca", "diet:vegetarian": "yes", "name": "Caffe Al Dente", "opening_hours": "Tu-Fr 12:00-14:30,19:00-22:30; Sa 19:00-22:30"}}]}