{"version": 0.6, "generator": "Overpass API 0.7.62.10 2d4cfc48", "osm3s": {"timestamp_osm_base": "2026-02-02T16:12:54Z", "copyright": "The data included in this document is from www.openstreetmap.org. The data is made available under ODbL."}, "elements": [{"type": "node", "id": 1259503545, "lat": 50.8628657, "lon": 4.3065669, "tags": {"amenity": "restaurant", "name": "La Luna"}}, {"type": "node", "id": 1286129914, "lat": 50.8676117, "lon": 4.3410749, "tags": {"amenity": "restaurant", "cuisine": "waffle", "description": "gaufres sal\u00e9es pr\u00e9par\u00e9es \u00e0 partir de diff\u00e9rentes p\u00e2tes comme au cheddar, au brocoli, aux tomates s\u00e9ch\u00e9es ou au pesto basilic", "name": "Roquette"}}, {"type": "node", "id": 1631382670, "lat": 50.8596709, "lon": 4.3412833, "tags": {"amenity": "restaurant", "contact:mobile": "+32 494 28 10 01", "cuisine": "syrian", "name": "Les Jours de Damas", "name:ar": "\u0627\u064a\u0627\u0645 \u062f\u0645\u0634\u0642", "takeaway": "yes"}}, {"type": "node", "id": 2532385379, "lat": 50.8547034, "lon": 4.3156825, "tags": {"amenity": "restaurant", "name": "Le Sanglier", "opening_hours": "10:00-22:00", "smoking": "separated"}}, {"type": "node", "id": 2534393043, "lat": 50.8499558, "lon": 4.330032, "tags": {"amenity": "restaurant", "name": "Buffalo"}}, {"type": "node", "id": 2915241131, "lat": 50.857491, "lon": 4.3199423, "tags": {"amenity": "restaurant", "cuisine": "kebab", "name": "Snack Karreveld", "opening_hours": "10:00-01:00", "smoking": "outside"}}, {"type": "node", "id": 2915242607, "lat": 50.8577741, "lon": 4.3181045, "tags": {"amenity": "restaurant", "capacity": "50", "contact:website": "https://brasserie-lestrappistes.be", "cuisine": "warm_dishes", "fixme": "opening_hours tag has no start time", "name": "Les Trappistes", "opening_hours": "\"until 22:00\"", "outdoor_seating": "yes", "smoking": "separated"}}, {"type": "node", "id": 4047451445, "lat": 50.8555125, "lon": 4.3428285, "tags": {"amenity": "restaurant", "changing_table": "no", "contact:email": "hola@lepharedukanaal.com", "contact:facebook": "https://www.facebook.com/lepharedukanaal", "contact:instagram": "https://www.instagram.com/lepharedukanaal", "contact:phone": "+32 2 410 06 84", "contact:website": "https://lepharedukanaal.com/", "cuisine": "coffee_shop;local;organic;lunch;breakfast;brunch", "diet:vegan": "yes", "diet:vegetarian": "yes", "entrance:kerb:height": "0.08", "entrance:ramp": "no", "entrance:step_count": "1", "entrance:width": "0.8", "internet_access": "wlan", "name": "Le Phare du Kanaal", "opening_hours": "Mo-Fr 09:00-20:00; Sa 10:00-18:00; Su[1] 10:00-18:00; PH off", "reservation": "yes", "smoking": "no", "toilets:wheelchair": "no", "wheelchair": "yes", "wheelchair:turning_circle": "yes"}}, {"type": "node", "id": 4147566099, "lat": 50.8533171, "lon": 4.3152265, "tags": {"amenity": "restaurant", "cuisine": "italian;pizza", "delivery": "yes", "name": "Calabria", "outdoor_seating": "yes", "takeaway": "yes"}}, {"type": "node", "id": 4416861451, "lat": 50.8528879, "lon": 4.3306033, "tags": {"amenity": "restaurant", "cuisine": "pizza"}}, {"type": "node", "id": 4516072189, "lat": 50.8565618, "lon": 4.3345631, "tags": {"amenity": "restaurant", "name": "Le Palais De Balkis", "name:fr": "Le Palais De Balkis"}}, {"type": "node", "id": 4816543421, "lat": 50.8660711, "lon": 4.3390176, "tags": {"amenity": "restaurant", "cuisine": "burger;kebab;friture", "internet_access": "wlan", "name": "Ultra Food", "name:fr": "Ultra Food", "opening_hours": "Mo-Fr 11:30-03:00; Sa-Su 12:00-03:00"}}, {"type": "node", "id": 5022909021, "lat": 50.8455748, "lon": 4.2852436, "tags": {"amenity": "restaurant", "cuisine": "italian;italian_pizza", "name": "Pollino", "name:fr": "Pollino", "opening_hours": "Mo-Su 11:00-00:00"}}, {"type": "node", "id": 5033880922, "lat": 50.8508749, "lon": 4.3374142, "tags": {"amenity": "restaurant", "contact:email": "belmundo@ateliergrooteiland.be", "contact:phone": "+32 2 669 08 45", "contact:website": "https://belmundo.ateliergrooteiland.be/", "name": "Bel Mundo", "opening_hours": "Mo-Fr 12:00-14:30; Th-Fr 18:00-21:00"}}, {"type": "node", "id": 6578495040, "lat": 50.8608728, "lon": 4.3378901, "tags": {"amenity": "restaurant"}}, {"type": "node", "id": 6644802356, "lat": 50.8565761, "lon": 4.310316, "tags": {"amenity": "restaurant", "name": "Le Chalet"}}, {"type": "node", "id": 7151303747, "lat": 50.8607753, "lon": 4.3399224, "tags": {"amenity": "restaurant", "name": "AFT'Heure", "website": "https://www.aftheure.be/"}}, {"type": "node", "id": 7737567261, "lat": 50.85552, "lon": 4.337439, "tags": {"amenity": "restaurant", "contact:mobile": "+32 487 38 38 93", "cuisine": "pizza", "diet:vegan": "limited", "diet:vegetarian": "limited", "name": "Royale Pizza", "opening_hours": "Mo-Su 16:00-01:00"}}, {"type": "node", "id": 7817921649, "lat": 50.8571902, "lon": 4.344436, "tags": {"amenity": "restaurant", "contact:email": "cafelulukabanl@gmail.com", "contact:facebook": "https://www.facebook.com/Caf%C3%A9-LuLu-Kanal-106045237819469", "contact:instagram": "https://www.instagram.com/cafelulukanal/", "contact:phone": "+32 2 633 68 57", "contact:website": "https://www.luluhomeinterior.be/en/cafe-lulu-kanal-en/", "cuisine": "fusion;cafe;salad", "name": "Caf\u00e9 LuLu Kanal", "opening_hours": "Mo-Th, Su 09:00-18:00; Fr-Sa 09:00-19:00", "opening_hours:covid19": "Mo-We 09:30-18:00; Th,Fr 16:00-21:00; Sa,Su 09:00-17:00", "outdoor_seating": "yes", "payment:cash": "yes", "payment:maestro": "yes", "payment:mastercard": "yes", "payment:visa": "yes"}}, {"type": "node", "id": 9562502613, "lat": 50.8515033, "lon": 4.3332078, "tags": {"amenity": "restaurant", "cuisine": "breakfast", "diet:vegetarian": "limited", "fixme": "Freeform tag `cuisine` used, to be doublechecked", "name": "Brunchy", "opening_hours": "Sa-Th 09:00-18:00", "payment:cards": "yes", "payment:cash": "yes", "takeaway": "yes", "wheelchair": "limited"}}, {"type": "node", "id": 9675079986, "lat": 50.8674268, "lon": 4.3399788, "tags": {"amenity": "restaurant", "full_name": "Brasserie Le Mirage", "name": "Le Mirage"}}, {"type": "node", "id": 9883890893, "lat": 50.8475949, "lon": 4.3285438, "tags": {"amenity": "restaurant", "bar": "yes", "contact:phone": "+32 2 289 00 59", "contact:website": "https://barrecyclart.be/", "diet:vegan": "yes", "indoor_seating": "yes", "name": "Resto Bar Recyclart", "opening_hours": "Tu 18:00-00:00; We-Fr 10:00-17:00", "outdoor_seating": "yes", "reservation": "required", "wikidata": "Q116068113"}}, {"type": "node", "id": 10852508419, "lat": 50.8571497, "lon": 4.3387413, "tags": {"amenity": "restaurant", "contact:website": "https://al-andalous.be/fr", "indoor_seating": "yes", "name": "Al Andalus", "outdoor_seating": "yes"}}, {"type": "node", "id": 11149193099, "lat": 50.8535204, "lon": 4.3388132, "tags": {"amenity": "restaurant", "name": "Kandinsky"}}, {"type": "node", "id": 11346088607, "lat": 50.8623833, "lon": 4.346863, "tags": {"amenity": "restaurant", "name": "La Table Cosy"}}, {"type": "node", "id": 11812643282, "lat": 50.8590751, "lon": 4.34106, "tags": {"amenity": "restaurant", "contact:mobile": "+32 486 66 64 60", "contact:website": "https://jerusalemoldcity.be/", "cuisine": "palestinian", "delivery": "yes", "name": "Jerusalem Old City", "opening_hours": "Th 17:30-22:00; Fr-Su 11:00-22:00", "reservation": "yes"}}, {"type": "node", "id": 12663063201, "lat": 50.8639005, "lon": 4.3441132, "tags": {"amenity": "restaurant", "contact:mobile": "+32 468 26 07 56", "contact:website": "https://hanami.brussels/", "name": "Hanami"}}, {"type": "node", "id": 12791415801, "lat": 50.8498829, "lon": 4.333052, "tags": {"amenity": "restaurant", "cuisine": "arab", "name": "Macadamiam", "opening_hours": "Mo-Tu, Th-Fr 09:30-16:30; Sa-Su 10:00-19:00"}}, {"type": "node", "id": 13188757006, "lat": 50.8580355, "lon": 4.3398062, "tags": {"amenity": "restaurant", "cuisine": "syrian", "name": "Papay Food"}}, {"type": "node", "id": 13230256139, "lat": 50.854485, "lon": 4.3307057, "tags": {"amenity": "restaurant", "contact:website": "https://www.cassonade.be/", "name": "Cassonade", "opening_hours": "Tu-Fr 12:00-14:30"}}]}