{"version": 0.6, "generator": "Overpass API 0.7.62.10 2d4cfc48", "osm3s": {"timestamp_osm_base": "2026-02-02T16:19:59Z", "copyright": "The data included in this document is from www.openstreetmap.org. The data is made available under ODbL."}, "elements": [{"type": "node", "id": 2882378617, "lat": 50.8788061, "lon": 4.4036771, "tags": {"name": "Fonson", "public_transport": "stop_position", "railway": "tram_stop", "tram": "yes"}}, {"type": "node", "id": 2882407588, "lat": 50.8800045, "lon": 4.4071389, "tags": {"name": "Van Cutsem", "public_transport": "stop_position", "railway": "tram_stop", "tram": "yes"}}, {"type": "node", "id": 2883418718, "lat": 50.8667322, "lon": 4.4024869, "tags": {"name": "Evere Shopping", "public_transport": "stop_position", "railway": "tram_stop", "tram": "yes"}}, {"type": "node", "id": 2883418784, "lat": 50.8676483, "lon": 4.4028884, "tags": {"name": "Evere Shopping", "public_transport": "stop_position", "railway": "tram_stop", "tram": "yes"}}, {"type": "node", "id": 4452452763, "lat": 50.8769021, "lon": 4.4132521, "tags": {"name": "Da Vinci", "public_transport": "stop_position", "railway": "tram_stop", "tram": "yes"}}, {"type": "node", "id": 4470678712, "lat": 50.8760292, "lon": 4.4105155, "tags": {"name": "Da Vinci", "public_transport": "stop_position", "railway": "tram_stop", "tram": "yes"}}, {"type": "node", "id": 4470678714, "lat": 50.8762447, "lon": 4.4110546, "tags": {"name": "Da Vinci", "public_transport": "stop_position", "railway": "tram_stop", "tram": "yes"}}, {"type": "node", "id": 4511792477, "lat": 50.8718694, "lon": 4.4066494, "tags": {"name": "Lekaerts", "public_transport": "stop_position", "railway": "tram_stop", "tram": "yes"}}, {"type": "node", "id": 4511792478, "lat": 50.8715002, "lon": 4.4062412, "tags": {"name": "Lekaerts", "public_transport": "stop_position", "railway": "tram_stop", "tram": "yes"}}, {"type": "node", "id": 4545257218, "lat": 50.8767728, "lon": 4.4118418, "tags": {"name": "Da Vinci", "public_transport": "stop_position", "railway": "tram_stop", "tram": "yes"}}, {"type": "node", "id": 4788242144, "lat": 50.8769418, "lon": 4.4008324, "tags": {"name": "Paix - Vrede", "name:fr": "Paix", "name:nl": "Vrede", "public_transport": "stop_position", "railway": "tram_stop", "tram": "yes"}}, {"type": "node", "id": 4788242152, "lat": 50.8769163, "lon": 4.4008725, "tags": {"name": "Paix - Vrede", "name:fr": "Paix", "name:nl": "Vrede", "public_transport": "stop_position", "railway": "tram_stop", "tram": "yes"}}, {"type": "node", "id": 4985390370, "lat": 50.8801592, "lon": 4.4074933, "tags": {"name": "Van Cutsem", "public_transport": "stop_position", "railway": "tram_stop", "tram": "yes"}}, {"type": "node", "id": 4985408158, "lat": 50.8790532, "lon": 4.4038845, "tags": {"name": "Fonson", "public_transport": "stop_position", "railway": "tram_stop", "tram": "yes"}}, {"type": "node", "id": 4985435257, "lat": 50.8759181, "lon": 4.3928382, "tags": {"name": "Tilleul - Linde", "name:fr": "Tilleul", "name:nl": "Linde", "public_transport": "stop_position", "railway": "tram_stop", "tram": "yes"}}]}