{"version": 0.6, "generator": "Overpass API 0.7.62.10 2d4cfc48", "osm3s": {"timestamp_osm_base": "2026-02-10T15:51:14Z", "copyright": "The data included in this document is from www.openstreetmap.org. The data is made available under ODbL."}, "elements": [{"type": "node", "id": 8004729317, "lat": 50.8464563, "lon": 4.3377777, "tags": {"amenity": "cafe", "name": "Melody", "outdoor_seating": "terrace"}}, {"type": "node", "id": 9981424310, "lat": 50.8455964, "lon": 4.3391009, "tags": {"amenity": "cafe", "entrance:kerb:height": "0", "entrance:step_count": "0", "entrance:width": "0.7", "name": "Venezia", "outdoor_seating": "sidewalk", "wheelchair:turning_circle": "yes"}}, {"type": "node", "id": 11989782161, "lat": 50.847773, "lon": 4.3402209, "tags": {"amenity": "cafe", "contact:website": "https://www.lasenne-brussels.be", "name": "La Senne"}}, {"type": "node", "id": 12643811253, "lat": 50.8477159, "lon": 4.3456939, "tags": {"amenity": "cafe", "cuisine": "cake;coffee_shop", "name": "Jon's Cafe", "opening_hours": "Mo-Su 11:00-04:00"}}]}