{"version": 0.6, "generator": "Overpass API 0.7.62.10 2d4cfc48", "osm3s": {"timestamp_osm_base": "2026-02-03T09:42:05Z", "copyright": "The data included in this document is from www.openstreetmap.org. The data is made available under ODbL."}, "elements": [{"type": "node", "id": 1200215878, "lat": 50.8703645, "lon": 4.3430174, "tags": {"amenity": "cafe", "name": "L` Orchid\u00e8e"}}, {"type": "node", "id": 1276843844, "lat": 50.8675949, "lon": 4.3404238, "tags": {"amenity": "cafe", "name": "Le Jubile"}}, {"type": "node", "id": 7287577732, "lat": 50.8635292, "lon": 4.3482639, "tags": {"amenity": "cafe", "brand": "Le Pain Quotidien", "brand:wikidata": "Q2046903", "brand:wikipedia": "en:Le Pain Quotidien", "contact:phone": "+32 2 344 47 52", "contact:website": "https://www.lepainquotidien.com/be/fr/locations/tour-taxis/Avenue-du-Port-86C", "cuisine": "coffee_shop", "delivery": "yes", "name": "Le Pain Quotidien", "opening_hours": "Mo-Fr 08:00-15:00", "takeaway": "yes", "wheelchair": "yes"}}, {"type": "node", "id": 8830368193, "lat": 50.8603637, "lon": 4.3419187, "tags": {"amenity": "cafe", "check_date:opening_hours": "2022-06-22", "contact:instagram": "https://www.instagram.com/brolcoffeehouse/", "contact:mobile": "+32 470 01 29 61", "cuisine": "coffee_shop;juice;pastry;mediterranean", "name": "BROL", "opening_hours:signed": "no", "outdoor_seating": "garden"}}, {"type": "node", "id": 9166948797, "lat": 50.8706622, "lon": 4.3482841, "tags": {"amenity": "cafe", "contact:email": "koffieentreami.e.s@gmail.com", "contact:facebook": "https://www.facebook.com/KoffieEntreAmies", "cuisine": "coffee_shop", "description": "Koffie Entre Ami.e.s est un bar \u00e0 caf\u00e9 coop\u00e9rative \u00e0 BeHere, Brussels. Een ontmoetingsplek met goede koffie, thee, kombucha, jus, cakes et des lunch-to-go. Come meet us for your daily fix!", "name": "Koffie Entre Ami.e.s"}}, {"type": "node", "id": 9236179265, "lat": 50.8670396, "lon": 4.3420711, "tags": {"amenity": "cafe", "contact:phone": "+32 2 303 85 74", "contact:website": "https://www.replicabookshop.be", "cuisine": "coffee_shop", "name": "Replica Bookshop", "opening_hours": "We-Su 10:00-18:00", "operator": "Malu Baert", "shop": "books", "start_date": "2021-11-03"}}, {"type": "node", "id": 9901834198, "lat": 50.866417, "lon": 4.3503932}, {"type": "node", "id": 9916335299, "lat": 50.8663879, "lon": 4.3504842}, {"type": "node", "id": 9916335300, "lat": 50.8664473, "lon": 4.3505318}, {"type": "node", "id": 9916335301, "lat": 50.8664764, "lon": 4.3504408}, {"type": "node", "id": 11967448169, "lat": 50.8618509, "lon": 4.3499657, "tags": {"amenity": "cafe", "contact:email": "hello@kosto.cafe", "contact:website": "https://www.kosto.cafe", "name": "Kosto", "opening_hours": "Mo-Fr 08:00-18:00; Sa,Su 09:00-18:00"}}, {"type": "way", "id": 1081996999, "nodes": [9901834198, 9916335301, 9916335300, 9916335299, 9901834198], "tags": {"amenity": "cafe", "indoor": "room", "level": "0", "name": "Koffiebar", "panoramax": "0023f657-96ba-4787-b7f1-49c38f56dac7", "payment:cards": "yes", "payment:cash": "yes", "wheelchair": "yes"}}]}