{"version": 0.6, "generator": "Overpass API 0.7.62.10 2d4cfc48", "osm3s": {"timestamp_osm_base": "2026-02-02T17:58:15Z", "copyright": "The data included in this document is from www.openstreetmap.org. The data is made available under ODbL."}, "elements": [{"type": "node", "id": 3981790357, "lat": 50.7944543, "lon": 4.3652869, "tags": {"amenity": "restaurant", "brand": "Pizza Hut", "brand:wikidata": "Q191615", "brand:wikipedia": "en:Pizza Hut", "cuisine": "pizza", "delivery": "yes", "drive_through": "yes", "name": "Pizza Hut", "opening_hours": "Fr,Sa 11:30-22:30; Su-Th 11:30-22:00", "takeaway": "yes", "wheelchair": "no"}}, {"type": "node", "id": 5501826363, "lat": 50.793262, "lon": 4.3657499, "tags": {"amenity": "restaurant", "contact:instagram": "https://www.instagram.com/aureposdelamontagne_bxl", "contact:phone": "+32 2 347 72 58", "description": "Ancien caf\u00e9 colombophile, tout est confectionn\u00e9 dans leur cuisine", "name": "Au Repos de la Montagne", "opening_hours": "Tu-Th 18:30-23:00; Fr-Sa 12:00-14:30, 18:30-23:00", "outdoor_seating": "yes", "wheelchair": "no"}}, {"type": "node", "id": 5985386079, "lat": 50.7945394, "lon": 4.3639468, "tags": {"amenity": "restaurant", "cuisine": "french", "name": "Le Passage"}}, {"type": "node", "id": 7920884882, "lat": 50.7828942, "lon": 4.3568964, "tags": {"amenity": "restaurant", "contact:phone": "+32 2 374 19 74", "contact:website": "https://restaurant-brasserie-harold-uccle.be/", "name": "Harold"}}, {"type": "node", "id": 11533339716, "lat": 50.7945576, "lon": 4.3645636, "tags": {"amenity": "restaurant", "changing_table": "no", "contact:phone": "+32 2 372 06 07", "contact:website": "https://pastacommedia.com", "cuisine": "italian", "entrance:kerb:height": "0.1", "entrance:ramp": "no", "entrance:step_count": "1", "entrance:width": "1", "name": "Pasta Commedia", "opening_hours": "Mo-Su 12:00-14:30,19:00-23:00", "toilets:wheelchair": "no", "wheelchair:turning_circle": "yes"}}, {"type": "node", "id": 11685293316, "lat": 50.7948486, "lon": 4.3646519, "tags": {"amenity": "restaurant", "indoor_seating": "yes", "name": "Le refuge", "outdoor_seating": "yes"}}, {"type": "node", "id": 11685293317, "lat": 50.7948615, "lon": 4.3647399, "tags": {"amenity": "restaurant", "cuisine": "thai", "name": "Thai Smile"}}, {"type": "node", "id": 12412040181, "lat": 50.7901351, "lon": 4.3746036, "tags": {"amenity": "restaurant", "contact:mobile": "+32 497 24 21 86", "cuisine": "moroccan", "description": "Restaurant-traiteur marocain", "name": "Nomade", "opening_hours": "Mo-Su 11:00-23:00", "takeaway": "yes", "website": "https://nomade.brussels"}}, {"type": "node", "id": 12957844264, "lat": 50.7955403, "lon": 4.3728254, "tags": {"amenity": "restaurant", "contact:website": "https://www.showakoi.be/", "cuisine": "japanese", "name": "Showa Ko\u00ef"}}]}