{"version": 0.6, "generator": "Overpass API 0.7.62.10 2d4cfc48", "osm3s": {"timestamp_osm_base": "2026-02-02T17:12:11Z", "copyright": "The data included in this document is from www.openstreetmap.org. The data is made available under ODbL."}, "elements": [{"type": "node", "id": 6018021475, "lat": 50.8732968, "lon": 4.3414863, "tags": {"amenity": "pub", "name": "Sun caf\u00e9", "outdoor_seating": "yes"}}, {"type": "node", "id": 9633795052, "lat": 50.8790659, "lon": 4.3425607, "tags": {"amenity": "pub", "name": "Rouge & Noir"}}, {"type": "node", "id": 10236124140, "lat": 50.8770654, "lon": 4.3416056, "tags": {"amenity": "pub", "name": "Caf\u00e9 Flore", "outdoor_seating": "yes"}}, {"type": "node", "id": 10236151164, "lat": 50.8727592, "lon": 4.3415821, "tags": {"amenity": "pub", "name": "Pannenhuis"}}, {"type": "node", "id": 11263158538, "lat": 50.8770565, "lon": 4.3446723, "tags": {"amenity": "pub"}}, {"type": "node", "id": 11263195422, "lat": 50.8786623, "lon": 4.3455959, "tags": {"amenity": "pub", "name": "Tirona"}}, {"type": "node", "id": 11333726306, "lat": 50.8770535, "lon": 4.3419801, "tags": {"amenity": "pub", "name": "Caf\u00e9 Renard"}}, {"type": "node", "id": 11336512260, "lat": 50.8769211, "lon": 4.343291, "tags": {"amenity": "pub", "name": "Caf\u00e9 L\u00e9opold"}}, {"type": "node", "id": 11582506138, "lat": 50.8774246, "lon": 4.3456223, "tags": {"amenity": "pub", "name": "Chez Bi-Jeanne"}}, {"type": "node", "id": 11582567155, "lat": 50.8774601, "lon": 4.3457908, "tags": {"amenity": "pub", "name": "Anisa Balkan"}}, {"type": "node", "id": 11769788765, "lat": 50.87123, "lon": 4.3424487, "tags": {"amenity": "pub", "contact:instagram": "noordouest.brussels", "contact:website": "https://noordouest.brussels/", "name": "NoordOuest", "opening_hours": "Th-Fr 14:00-22:00", "operator:type": "private_non_profit", "operator:wikidata": "Q131343560", "wikidata": "Q131343496"}}, {"type": "node", "id": 11805537841, "lat": 50.8783394, "lon": 4.3457467, "tags": {"amenity": "pub", "name": "Taverne Bockstael"}}, {"type": "node", "id": 12567509075, "lat": 50.8790219, "lon": 4.3465701, "tags": {"amenity": "nightclub", "contact:facebook": "https://www.facebook.com/people/Rotana-CLUB/100063523361656/", "contact:mobile": "+32 485 75 62 24", "name": "Rotana Club", "opening_hours": "Fr-Su 23:30-07:00"}}]}