{"version": 0.6, "generator": "Overpass API 0.7.62.10 2d4cfc48", "osm3s": {"timestamp_osm_base": "2026-02-03T08:42:30Z", "copyright": "The data included in this document is from www.openstreetmap.org. The data is made available under ODbL."}, "elements": [{"type": "node", "id": 1247151765, "lat": 50.8311686, "lon": 4.346368}, {"type": "node", "id": 1247151787, "lat": 50.8311669, "lon": 4.3464111}, {"type": "node", "id": 2727516209, "lat": 50.8325545, "lon": 4.3431507, "tags": {"amenity": "restaurant", "contact:website": "https://restolosagaves.be/", "cuisine": "mexican", "entrance:kerb:height": "0.13", "entrance:step_count": "1", "entrance:width": "0.7", "name": "Los Agaves"}}, {"type": "node", "id": 3100698156, "lat": 50.8321711, "lon": 4.3457516, "tags": {"amenity": "restaurant"}}, {"type": "node", "id": 3100734056, "lat": 50.8309803, "lon": 4.345993, "tags": {"amenity": "restaurant", "check_date": "2025-11-30", "cuisine": "cameroonian", "name": "Le Vieux Mila"}}, {"type": "node", "id": 3100734060, "lat": 50.8310344, "lon": 4.345977, "tags": {"amenity": "restaurant", "cuisine": "grill;steak_house", "name": "La Braise"}}, {"type": "node", "id": 3100748349, "lat": 50.8311499, "lon": 4.3463661}, {"type": "node", "id": 3100748351, "lat": 50.8311509, "lon": 4.3464123}, {"type": "node", "id": 3100748355, "lat": 50.8311329, "lon": 4.3462043}, {"type": "node", "id": 3100748359, "lat": 50.8311351, "lon": 4.3464135}, {"type": "node", "id": 3100748362, "lat": 50.8311707, "lon": 4.3462091}, {"type": "node", "id": 3100748363, "lat": 50.8311644, "lon": 4.3463676}, {"type": "node", "id": 3100748368, "lat": 50.8312072, "lon": 4.3462136}, {"type": "node", "id": 3100748370, "lat": 50.8311995, "lon": 4.3464087}, {"type": "node", "id": 3354136359, "lat": 50.8303197, "lon": 4.3389169, "tags": {"amenity": "restaurant", "capacity": "50", "contact:mobile": "+32 484 70 89 58", "cuisine": "pizza", "name": "Posto al sole (Chez Momo)", "opening_hours": "Tu-Fr 12:00-15:00,18:00-23:00, Sa-Su 18:00-23:00", "smoking": "outside", "takeaway": "yes"}}, {"type": "node", "id": 3377281734, "lat": 50.8308218, "lon": 4.3458289, "tags": {"amenity": "restaurant", "capacity": "20", "check_date": "2025-08-05", "contact:website": "http://www.brusselskitchen.com/chana/bruxelles/restaurant", "cuisine": "falafel;pakora;greek", "diet:vegan": "yes", "diet:vegetarian": "yes", "name": "Chana", "smoking": "no", "takeaway": "yes"}}, {"type": "node", "id": 4396143203, "lat": 50.8304774, "lon": 4.3457461, "tags": {"amenity": "restaurant", "check_date": "2025-11-14", "contact:mobile": "+32 471 35 72 42", "diet:gluten_free": "yes", "diet:vegan": "yes", "diet:vegetarian": "yes", "name": "Archie", "opening_hours": "Mo-We 12:00-17:30; Th-Sa 12:00-23:00", "wheelchair": "yes"}}, {"type": "node", "id": 4603608017, "lat": 50.8358332, "lon": 4.3398881, "tags": {"amenity": "restaurant", "changing_table": "no", "changing_table:adult": "no", "contact:website": "https://www.entrenousbxl.com/", "cuisine": "italian", "delivery": "yes", "diet:vegan": "no", "diet:vegetarian": "yes", "drive_through": "no", "entrance:kerb:height": "0.11", "entrance:step_count": "1", "entrance:width": "0.85", "name": "Entre nous", "opening_hours": "Mo-Fr 10:00-17:00", "outdoor_seating": "no", "ramp:wheelchair": "no", "smoking": "no", "wheelchair:turning_circle": "no"}}, {"type": "node", "id": 5264406562, "lat": 50.8325685, "lon": 4.3438436, "tags": {"amenity": "restaurant", "contact:website": "https://www.holysmokebrussels.com", "diet:vegetarian": "no", "name": "Holy Smoke", "opening_hours": "Tu-Sa 19:00-22:30, We-Sa 12:00-14:00", "wheelchair": "no"}}, {"type": "node", "id": 5343845810, "lat": 50.8303367, "lon": 4.3451937, "tags": {"amenity": "restaurant", "check_date": "2025-08-05", "contact:mobile": "+32 477 53 31 92", "contact:website": "https://broebbeleir.be", "cuisine": "burger", "name": "Broebbeleir", "outdoor_seating": "pedestrian_zone"}}, {"type": "node", "id": 5514117221, "lat": 50.8299616, "lon": 4.3435729, "tags": {"amenity": "restaurant", "check_date": "2025-10-22", "cuisine": "pizza", "name": "Le Milano"}}, {"type": "node", "id": 6348609386, "lat": 50.8338262, "lon": 4.335858, "tags": {"amenity": "restaurant", "name": "Bun's"}}, {"type": "node", "id": 6815893035, "lat": 50.8307256, "lon": 4.3453991, "tags": {"amenity": "restaurant", "check_date": "2025-08-05", "name": "Inanna"}}, {"type": "node", "id": 6815904448, "lat": 50.8310526, "lon": 4.3462265, "tags": {"amenity": "restaurant", "check_date": "2025-11-30", "contact:phone": "+32 2 537 41 27", "contact:website": "https://www.milleetunenuits.be", "cuisine": "couscous", "description": "Sp\u00e9cialit\u00e9s orientales", "name": "Mille et une nuits", "opening_hours": "Tu-Su 18:30-23:00"}}, {"type": "node", "id": 7947521689, "lat": 50.83251, "lon": 4.3456933, "tags": {"amenity": "restaurant", "diet:vegetarian": "no", "name": "La perle bleue"}}, {"type": "node", "id": 9654578108, "lat": 50.8308859, "lon": 4.3459623, "tags": {"amenity": "restaurant", "contact:phone": "+32 2 346 63 89", "contact:website": "https://www.greenmango.be", "cuisine": "burger", "description": "Burger & juice", "indoor_seating": "yes", "name": "Green Mango", "operator": "Green Mango", "outdoor_seating": "yes", "wheelchair": "limited"}}, {"type": "node", "id": 10139554918, "lat": 50.8305814, "lon": 4.3460213, "tags": {"amenity": "restaurant", "changing_table": "yes", "check_date": "2026-02-01", "contact:facebook": "saborlatinoresto", "name": "Sabor Latino", "toilets": "yes", "toilets:menstrual_products": "no", "toilets:wheelchair": "no"}}, {"type": "node", "id": 10159158596, "lat": 50.8335587, "lon": 4.3447467, "tags": {"amenity": "restaurant", "name": "K.No.p"}}, {"type": "node", "id": 10178196872, "lat": 50.8305431, "lon": 4.3388532, "tags": {"amenity": "restaurant", "contact:facebook": "https://www.facebook.com/RestoKritiCEVHarmony", "contact:instagram": "https://www.instagram.com/restaurantkriti/", "contact:phone": "+32 2 538 00 22", "contact:website": "https://www.kriti.be/", "cuisine": "greek", "name": "Kriti", "opening_hours": "Tu-Sa 12:00-15:00, 18:00-22:30; Su 12:00-22:30"}}, {"type": "node", "id": 10178196873, "lat": 50.8303682, "lon": 4.3389157, "tags": {"amenity": "restaurant", "contact:phone": "+32 2 850 39 86", "contact:website": "https://mykonos-grill.be/", "cuisine": "greek", "name": "Mykonos Grill", "opening_hours": "Mo, We-Fr 11:45-15:00, 17:30-23:00; Sa 11:45-22:00; Su 11:00-23:00"}}, {"type": "node", "id": 10292592243, "lat": 50.8316282, "lon": 4.3436176, "tags": {"amenity": "restaurant", "check_date": "2025-07-26", "check_date:diet:vegan": "2025-07-26", "check_date:diet:vegetarian": "2025-07-26", "contact:email": "info@laporteuse.eu", "contact:phone": "+32 2 537 66 46", "contact:website": "https://laporteuse.eu", "cuisine": "belgian;regional", "diet:vegan": "no", "diet:vegetarian": "yes", "highchair": "yes", "indoor_seating": "yes", "name": "La Porteuse d'Eau", "opening_hours": "Tu-Su 11:00-23:30", "outdoor_seating": "yes", "reservation": "yes", "wheelchair": "no"}}, {"type": "node", "id": 10312580067, "lat": 50.8366379, "lon": 4.3394353, "tags": {"amenity": "restaurant", "check_date": "2026-01-30", "cuisine": "italian", "name": "A modo mio", "opening_hours": "Mo-Fr 11:00-22:00", "wheelchair": "yes"}}, {"type": "node", "id": 10555005116, "lat": 50.8316119, "lon": 4.3448935, "tags": {"amenity": "restaurant", "contact:website": "https://smala.brussels/resto-smala/", "name": "Smala"}}, {"type": "node", "id": 10555029228, "lat": 50.8316594, "lon": 4.3448977, "tags": {"amenity": "restaurant", "contact:website": "https://churrasqueiraportugalia.be/", "cuisine": "portuguese", "entrance:kerb:height": "0.34", "entrance:step_count": "3", "entrance:width": "0.82", "indoor_seating": "yes", "name": "Churrasqueira Portugalia", "opening_hours": "Tu-Su 10:00-22:00", "outdoor_seating": "yes", "takeaway": "yes"}}, {"type": "node", "id": 10612983005, "lat": 50.8354278, "lon": 4.3393053, "tags": {"amenity": "restaurant", "name": "Chez Antonio"}}, {"type": "node", "id": 10905595496, "lat": 50.8299641, "lon": 4.3380945, "tags": {"amenity": "restaurant", "diet:halal": "yes", "name": "Pasta Soultana"}}, {"type": "node", "id": 11186526660, "lat": 50.8274145, "lon": 4.3445613, "tags": {"amenity": "restaurant", "contact:instagram": "@monopoli.brussels", "cuisine": "italian", "description": "Cucina dalla regione della Puglia", "diet:vegetarian": "yes", "name": "Monopoli"}}, {"type": "node", "id": 11947849644, "lat": 50.8350582, "lon": 4.3393234, "tags": {"amenity": "restaurant", "changing_table": "no", "changing_table:adult": "no", "contact:phone": "+32 2 537 54 34", "contact:website": "https://www.lesateliersdumidi.be/", "diet:vegan": "no", "diet:vegetarian": "no", "entrance:step_count": "0", "entrance:width": "0.69", "name": "Ateliers du midi", "wheelchair:turning_circle": "no"}}, {"type": "node", "id": 12050323825, "lat": 50.8364593, "lon": 4.3398365, "tags": {"amenity": "restaurant", "cuisine": "sandwich", "name": "Mammouth", "opening_hours": "Mo-Fr 11:30 - 17:30", "outdoor_seating": "yes", "smoking": "outside", "takeaway": "yes"}}, {"type": "node", "id": 12211778975, "lat": 50.8313496, "lon": 4.3432587, "tags": {"amenity": "restaurant", "contact:website": "https://sinsenncuisine.be/", "cuisine": "japanese", "name": "Sinsenn"}}, {"type": "node", "id": 12971576342, "lat": 50.8331922, "lon": 4.3370497, "tags": {"amenity": "restaurant", "cuisine": "african", "name": "Petite Restauration Sp\u00e9cialit\u00e9s Africaines"}}, {"type": "node", "id": 13033642677, "lat": 50.8318711, "lon": 4.3461388, "tags": {"amenity": "restaurant", "contact:website": "https://ioda.be/", "name": "iOda"}}, {"type": "node", "id": 13037800034, "lat": 50.8282419, "lon": 4.3424552, "tags": {"amenity": "restaurant", "contact:instagram": "https://www.instagram.com/elmekan.brussels/", "contact:mobile": "+32 497 77 78 87", "contact:website": "https://elmekan.com/", "cuisine": "pizza", "diet:lactose_free": "yes", "diet:organic": "yes", "diet:vegan": "yes", "diet:vegetarian": "yes", "name": "El Mekan", "note": "Payments by VISA or Mastercard not accepted.", "opening_hours": "Tu-Sa 18:00-22:00", "outdoor_seating": "yes", "takeaway": "yes"}}, {"type": "way", "id": 1046453508, "nodes": [3100748368, 3100748362, 3100748355, 3100748359, 3100748351, 3100748349, 3100748363, 1247151765, 1247151787, 3100748370, 3100748368], "tags": {"amenity": "restaurant", "check_date": "2024-08-31", "contact:email": "saintgilles@standardpizza.be", "contact:phone": "+32 2 218 33 30", "contact:website": "https://standardpizza.be/standard-saint-gilles-fr.html", "cuisine": "pizza", "full_name": "Standard Saint-Gilles - Standard Sint-Gillis", "name": "Standard", "opening_hours": "Mo,We,Th 17:30-22:30; Fr 17:30-23:00; Sa 13:00-23:00; Su 13:00-20:00; Tu off"}}]}