{"version": 0.6, "generator": "Overpass API 0.7.62.10 2d4cfc48", "osm3s": {"timestamp_osm_base": "2026-02-02T17:43:00Z", "copyright": "The data included in this document is from www.openstreetmap.org. The data is made available under ODbL."}, "elements": [{"type": "node", "id": 306122013, "lat": 50.8275767, "lon": 4.3711196, "tags": {"amenity": "restaurant", "contact:email": "flagey@mammaroma.be", "contact:phone": "+32 2 640 42 80", "contact:website": "https://www.mammaroma.com", "cuisine": "pizza;italian", "diet:vegan": "no", "diet:vegetarian": "yes", "name": "Mamma Roma", "opening_hours": "Mo-Su 12:00-22:00; Th-Sa 12:00-22:30", "wheelchair": "no"}}, {"type": "node", "id": 1631413162, "lat": 50.8188712, "lon": 4.3789652, "tags": {"alt_name": "Les Sept Saveurs", "amenity": "restaurant", "check_date:opening_hours": "2024-05-23", "indoor_seating": "yes", "name": "Les 7 Saveurs", "opening_hours:signed": "no", "outdoor_seating": "yes", "wheelchair": "no"}}, {"type": "node", "id": 1776158625, "lat": 50.8207458, "lon": 4.3767746, "tags": {"amenity": "restaurant", "check_date:opening_hours": "2024-05-23", "name": "Delicieux", "opening_hours": "Su-Fr 11:30-14:00, Mo-Su 17:00-22:30"}}, {"type": "node", "id": 2302371944, "lat": 50.823753, "lon": 4.3741641, "tags": {"amenity": "restaurant", "check_date:opening_hours": "2024-05-23", "name": "Canterbury", "opening_hours:signed": "no"}}, {"type": "node", "id": 2466682759, "lat": 50.823099, "lon": 4.367099, "tags": {"amenity": "restaurant", "cuisine": "asian", "name": "Phopho", "opening_hours": "Mo-Th 11:30-14:00,19:00-22:00, Fr,Sa 12:00-15:00,19:00-23:00", "website": "http://phopho.be/", "wheelchair": "no"}}, {"type": "node", "id": 2471016204, "lat": 50.8171241, "lon": 4.3815077, "tags": {"amenity": "restaurant", "check_date:opening_hours": "2024-05-23", "indoor_seating": "yes", "name": "Snack\u00f4p\u00e2tes", "opening_hours:signed": "no", "outdoor_seating": "no"}}, {"type": "node", "id": 3321089465, "lat": 50.8245392, "lon": 4.3661905, "tags": {"amenity": "restaurant", "contact:website": "https://maisondistrie.be/", "cuisine": "mediterranean", "name": "Maison d'Istrie", "opening_hours": "Mo-Th 11:30-23:00; Fr 11:30-24:00; Sa 12:00-24:00", "outdoor_seating": "yes"}}, {"type": "node", "id": 3457024517, "lat": 50.8183513, "lon": 4.37912, "tags": {"amenity": "restaurant", "check_date:opening_hours": "2024-05-16", "contact:phone": "+32 2 647 13 62", "name": "La Tourelle", "opening_hours:signed": "no", "toilets:wheelchair": "no", "wheelchair": "limited"}}, {"type": "node", "id": 3977652798, "lat": 50.8276993, "lon": 4.3709456, "tags": {"amenity": "restaurant", "indoor_seating": "yes", "name": "Viandes d'Exception", "outdoor_seating": "no", "source": "local_knowledge"}}, {"type": "node", "id": 4388784730, "lat": 50.8172663, "lon": 4.372183, "tags": {"amenity": "restaurant", "check_date:opening_hours": "2024-02-14", "cuisine": "french", "name": "La Villa in the Sky", "opening_hours:signed": "no"}}, {"type": "node", "id": 4415282095, "lat": 50.827392, "lon": 4.3714111, "tags": {"amenity": "restaurant", "contact:email": "hello@nonalife.com", "cuisine": "pizza", "description": "Nona Pizza Flagey", "diet:vegetarian": "yes", "indoor_seating": "yes", "name": "Nona", "opening_hours": "Mo-Su 12:00+", "outdoor_seating": "yes", "takeaway": "yes", "website": "https://www.nonalife.com", "wheelchair": "no"}}, {"type": "node", "id": 4426898812, "lat": 50.8275918, "lon": 4.3681351, "tags": {"amenity": "restaurant", "check_date": "2026-02-02", "cuisine": "vietnamese", "indoor_seating": "yes", "name": "Indochine", "outdoor_seating": "no", "wheelchair": "limited"}}, {"type": "node", "id": 4426898813, "lat": 50.8276104, "lon": 4.3683646, "tags": {"amenity": "restaurant", "cuisine": "tapas", "indoor_seating": "yes", "name": "Le Fabiola", "outdoor_seating": "no"}}, {"type": "node", "id": 4438541893, "lat": 50.8228515, "lon": 4.366914, "tags": {"amenity": "restaurant", "contact:email": "info@leverest.be", "contact:phone": "+32 2 647 57 77", "contact:website": "https://leverest.be/", "description": "Nepalese and indian cuisine.", "name": "L'Everest", "name:fr": "L'Everest", "opening_hours": "Mo-Sa 18:00-22:30"}}, {"type": "node", "id": 4665152946, "lat": 50.8219334, "lon": 4.3668765, "tags": {"amenity": "restaurant", "contact:instagram": "mauvaischoix_restaurant", "contact:website": "https://mauvaischoix.be/", "diet:vegetarian": "only", "name": "Mauvais Choix"}}, {"type": "node", "id": 4665152947, "lat": 50.8221556, "lon": 4.3669305, "tags": {"amenity": "restaurant", "cuisine": "vietnamese", "name": "Le Tournesol", "opening_hours": "Mo-Fr 11:00-16:00", "source": "survey"}}, {"type": "node", "id": 4665152948, "lat": 50.8218379, "lon": 4.3669283, "tags": {"amenity": "restaurant", "cuisine": "belgian", "name": "Le Bugatti", "opening_hours": "We-Su 18:30-22:30", "source": "survey"}}, {"type": "node", "id": 4761953842, "lat": 50.8276558, "lon": 4.3711709, "tags": {"amenity": "restaurant", "check_date": "2023-06-07", "contact:email": "info@umamido.be", "contact:phone": "+32 2 640 40 57", "contact:website": "https://www.umamido.be/locations-pages/umamido-flagey", "cuisine": "noodle", "full_name": "Umamido Flagey", "name": "Umam\u00ecdo", "wheelchair": "no"}}, {"type": "node", "id": 5338752282, "lat": 50.8162522, "lon": 4.3828087, "tags": {"amenity": "restaurant", "contact:website": "https://atabaoburger.be/", "cuisine": "burger", "delivery": "yes", "indoor_seating": "yes", "internet_access": "no", "name": "ATA Bao & Burger", "opening_hours": "Mo-Fr 12:00-15:00,18:00-22:00, Sa-Su 12:00-22:00", "outdoor_seating": "no", "payment:cash": "yes", "payment:visa": "yes", "takeaway": "yes", "toilets:access": "customers"}}, {"type": "node", "id": 5340846921, "lat": 50.822989, "lon": 4.3674136, "tags": {"amenity": "restaurant", "contact:phone": "+32 2 649 90 13", "contact:website": "https://greenmango.be/en/vleurgat/", "delivery": "yes", "name": "Green Mango", "opening_hours": "Mo-Th 12:00-14:30, 18:30-22:00; Fr-Sa 12:00-14:30, 18:30-23:00, Su 18:30-22:00", "outdoor_seating": "no", "smoking": "no", "takeaway": "yes", "toilets:wheelchair": "no", "website:menu": "https://greenmango.be/en/product-category/menu-en/", "wheelchair": "limited"}}, {"type": "node", "id": 5362155498, "lat": 50.8274933, "lon": 4.3710227, "tags": {"amenity": "restaurant", "cuisine": "peruvian", "name": "Machu Picchu", "wheelchair": "no"}}, {"type": "node", "id": 5645832475, "lat": 50.8251729, "lon": 4.370774, "tags": {"amenity": "restaurant", "check_date": "2024-06-26", "check_date:opening_hours": "2024-05-22", "name": "Kifkif", "opening_hours": "12:00-14:00,18:30-22:30", "outdoor_seating": "yes"}}, {"type": "node", "id": 5706636525, "lat": 50.8271597, "lon": 4.3707432, "tags": {"amenity": "restaurant", "check_date:opening_hours": "2023-03-16", "contact:phone": "+32 2 648 40 25", "contact:website": "http://aglioeolio.be/info.html", "name": "Aglio e Oglio", "opening_hours:signed": "no", "wheelchair": "limited"}}, {"type": "node", "id": 5827349070, "lat": 50.820851, "lon": 4.3767899, "tags": {"amenity": "restaurant", "contact:email": "oishii.food.ixelles@gmail.com", "contact:phone": "+32 2 520 68 81", "contact:website": "https://www.oishii-food.be/", "cuisine": "japanese", "name": "Oishii Food", "opening_hours": "Tu-Fr 12:00-14:30,17:30-21:30; Sa,Su 17:30-21:30"}}, {"type": "node", "id": 6301082291, "lat": 50.8235482, "lon": 4.3687041, "tags": {"amenity": "restaurant", "contact:phone": "+32 2 611 06 22", "contact:website": "https://www.kokuban.be/", "cuisine": "japanese", "name": "Kokuban", "opening_hours": "Mo-Sa 12:00-14:00,19:00-22:00", "wikidata": "Q1919689", "wikipedia": "nl:Kokuban"}}, {"type": "node", "id": 6409534291, "lat": 50.82305, "lon": 4.3674097, "tags": {"amenity": "restaurant", "check_date:opening_hours": "2024-02-22", "name": "Qahwah", "opening_hours:signed": "no"}}, {"type": "node", "id": 6757619016, "lat": 50.8271118, "lon": 4.3706912, "tags": {"amenity": "restaurant", "name": "Le Bar \u00c0 Vins", "opening_hours": "Mo,Tu 11:30-23:00, We,Th 11:30-23:00, Fr 10:30-24:00, Sa 15:00-01:00, Su 15:00-22:30", "wheelchair": "no"}}, {"type": "node", "id": 6780405145, "lat": 50.8162473, "lon": 4.3765389, "tags": {"amenity": "restaurant", "check_date:opening_hours": "2024-02-22", "indoor_seating": "yes", "name": "La Truffe Noire", "opening_hours:signed": "no", "outdoor_seating": "no"}}, {"type": "node", "id": 6780405156, "lat": 50.8193014, "lon": 4.3712876, "tags": {"amenity": "restaurant", "check_date:opening_hours": "2024-02-15", "name": "Ayda", "opening_hours:signed": "no"}}, {"type": "node", "id": 6968287541, "lat": 50.8260103, "lon": 4.3700677, "tags": {"amenity": "restaurant", "bar": "yes", "contact:facebook": "https://facebook.com/bistrococina/", "contact:instagram": "https://www.instagram.com/explore/locations/150871355601941/bistro-nazionale/", "contact:phone": "+32 2 657 09 75", "contact:website": "https://www.squadracocina.com/bistro-nazionale", "cuisine": "italian", "indoor_seating": "yes", "name": "Bistro Nazionale", "opening_hours": "Mo-Su 12:00-14:30, 18:30-22:30", "outdoor_seating": "yes", "wheelchair": "limited"}}, {"type": "node", "id": 7099504885, "lat": 50.8196874, "lon": 4.3713681, "tags": {"amenity": "restaurant", "check_date:opening_hours": "2024-03-14", "contact:phone": "+32 2 648 34 76", "diet:vegan": "yes", "name": "CHYL", "opening_hours:signed": "no"}}, {"type": "node", "id": 7179059886, "lat": 50.8224397, "lon": 4.3666523, "tags": {"amenity": "restaurant", "contact:phone": "+32 2 647 88 02", "contact:website": "https://dolcerestaurant.be", "cuisine": "italian", "delivery": "yes", "name": "Dolce", "opening_hours": "Mo-Fr 12:00-14:30, 19:00-22:30; Sa 19:00-22:45", "takeaway": "yes"}}, {"type": "node", "id": 7254852555, "lat": 50.8275221, "lon": 4.3710683, "tags": {"amenity": "restaurant", "contact:email": "otacos.bruxellesflagey@resto-tacos.com", "contact:phone": "+32 2 346 70 95", "contact:website": "https://o-tacos.com/be-fr/", "name": "O\u2019Tacos Flagey - Ixelles", "opening_hours": "Mo-Th 11:00-23:00; Fr 11:00-24:00; Sa 00:00-01:00,12:00-24:00; Su 00:00-01:00,12:00-23:00", "wheelchair": "no"}}, {"type": "node", "id": 7324824824, "lat": 50.8277265, "lon": 4.3711825, "tags": {"amenity": "restaurant", "contact:facebook": "https://www.facebook.com/lecomptoiracroquer/", "contact:mobile": "+32 493 46 84 11", "cuisine": "italian;pasta", "diet:vegetarian": "yes", "name": "Baracca Boy\u2019s", "takeaway": "only", "wheelchair": "yes"}}, {"type": "node", "id": 7704369886, "lat": 50.8276753, "lon": 4.3708743, "tags": {"amenity": "restaurant", "contact:email": "info@takumi.be", "contact:phone": "+32 2 523 84 73", "cuisine": "japanese", "indoor_seating": "yes", "name": "Takumi", "opening_hours": "Mo-Su 12:00-15:00, 18:00-21:00", "outdoor_seating": "yes", "website": "https://takumiramennoodles.com/be/brussels-flagey/"}}, {"type": "node", "id": 7910206785, "lat": 50.8276338, "lon": 4.3692861, "tags": {"amenity": "restaurant", "check_date": "2026-02-02", "cuisine": "thai", "indoor_seating": "yes", "name": "Walkin' Tha\u00ef", "opening_hours": "Mo,Tu,Th 12:00-14:30,18:30-22:00; Fr 12:00-14:30,18:30-22:30; Sa 18:30-22:30; Su 18:00-22:00", "outdoor_seating": "no"}}, {"type": "node", "id": 7978455585, "lat": 50.8276889, "lon": 4.3707687, "tags": {"amenity": "restaurant", "check_date": "2026-01-31", "name": "Cocina pizza"}}, {"type": "node", "id": 9881777070, "lat": 50.8156589, "lon": 4.3711922, "tags": {"amenity": "restaurant", "check_date": "2023-01-27", "contact:email": "info@osteriaromana.be", "contact:instagram": "osteriaromanabruxelles", "contact:phone": "+32 2 648 13 95", "contact:website": "https://www.osteriaromana.be/", "cuisine": "italian", "currency:XBT": "yes", "name": "Osteria Romana", "opening_hours": "Tu-Sa 18:30-00:30", "payment:lightning": "yes", "payment:lightning_contactless": "no", "payment:onchain": "no", "reservation": "recommended", "takeaway": "yes"}}, {"type": "node", "id": 10182206965, "lat": 50.8229302, "lon": 4.3673675, "tags": {"amenity": "restaurant", "contact:phone": "+32 2 411 87 57", "contact:website": "https://verdo.brussels/", "description": "Plant-based house", "diet:vegan": "only", "name": "Verd\u014d", "opening_hours": "Mo-We 11:00-14:00; Th,Fr 11:00-14:00,19:00-23:00"}}, {"type": "node", "id": 10601763362, "lat": 50.8227502, "lon": 4.3667689, "tags": {"amenity": "restaurant", "check_date": "2023-02-02", "contact:phone": "+32 2 726 96 76", "contact:website": "https://sunnybao.be", "cuisine": "asian", "name": "Sunny Bao", "opening_hours": "Mo-Fr 11:00-19:00; Sa 12:00-18:00; Su off", "payment:mastercard": "yes", "payment:visa": "yes"}}, {"type": "node", "id": 11136010305, "lat": 50.8274651, "lon": 4.3653865, "tags": {"amenity": "restaurant", "contact:mobile": "+32 484 57 08 40", "contact:website": "https://www.greenhouse-brussels.be/", "cuisine": "international", "diet:vegan": "only", "diet:vegetarian": "only", "name": "Green House", "opening_hours": "Sa-We 12:00-15:00, 18:00-22:00; Th 17:00-21:00"}}, {"type": "node", "id": 11298155729, "lat": 50.8172877, "lon": 4.380657, "tags": {"amenity": "restaurant", "contact:phone": "+32 2 649 21 49", "contact:website": "https://nonbedaigaku.be", "cuisine": "japanese", "indoor_seating": "yes", "name": "Nonbe Daigaku", "opening_hours": "Tu-Sa 12:00-14:00,19:00-22:00", "outdoor_seating": "no", "wheelchair": "no"}}, {"type": "node", "id": 11298203496, "lat": 50.8175761, "lon": 4.380216, "tags": {"amenity": "restaurant", "check_date:opening_hours": "2024-04-17", "cuisine": "indian", "name": "Punjab", "opening_hours:signed": "no"}}, {"type": "node", "id": 11298203502, "lat": 50.8177331, "lon": 4.3804999, "tags": {"amenity": "restaurant", "check_date:opening_hours": "2024-05-23", "name": "Pho 799", "opening_hours:signed": "no"}}, {"type": "node", "id": 11736437026, "lat": 50.8159758, "lon": 4.3827626, "tags": {"amenity": "restaurant", "name": "Le Pickwick", "opening_hours": "Mo-Fr 10:00-24:00,10:30-23:30"}}, {"type": "node", "id": 11736437027, "lat": 50.8160166, "lon": 4.3826973, "tags": {"amenity": "restaurant", "check_date:opening_hours": "2024-03-15", "name": "La Braisi\u00e8re", "opening_hours:signed": "no"}}, {"type": "node", "id": 12135994288, "lat": 50.8187173, "lon": 4.3794805, "tags": {"amenity": "restaurant", "contact:mobile": "+32 471 97 58 64", "cuisine": "syrian", "name": "Damascus House"}}, {"type": "node", "id": 12173735214, "lat": 50.8261566, "lon": 4.3701608, "tags": {"amenity": "restaurant", "contact:website": "https://www.cicciomatto.com", "cuisine": "painza", "name": "Ciccio", "opening_hours": "Tu-Sa 12:00-14:00, 18:30-22:00"}}, {"type": "node", "id": 12568927406, "lat": 50.8191871, "lon": 4.3697108, "tags": {"amenity": "restaurant", "contact:phone": "+32 2 318 18 58", "contact:website": "https://www.lavillaemily.be/", "name": "La Villa Emily", "opening_hours": "Tu-Fr 12:00-14:00,19:00-22:00; Sa 19:00-22:00", "wikidata": "Q66381148", "wikipedia": "fr:La Villa Emily"}}, {"type": "node", "id": 13006913165, "lat": 50.8203682, "lon": 4.3696611, "tags": {"amenity": "restaurant", "bar": "yes", "name": "The Avenue"}}, {"type": "node", "id": 13473395006, "lat": 50.8156658, "lon": 4.3716957, "tags": {"air_conditioning": "yes", "amenity": "restaurant", "bar": "yes", "branch": "Bruxelles Legrand", "brand": "HUGGYS", "changing_table": "yes", "contact:email": "h6@huggys.be", "contact:phone": "+32 2 344 87 95", "contact:website": "https://www.huggys.be/restaurants/bruxelles-1-legrand", "cuisine": "burger", "delivery": "yes", "diet:chicken": "yes", "diet:fish": "yes", "diet:gluten_free": "yes", "diet:halal": "yes", "diet:local": "yes", "diet:meat": "yes", "diet:vegan": "yes", "diet:vegetarian": "yes", "highchair": "yes", "name": "Huggys Bruxelles Legrand", "opening_hours": "Mo-Su 12:00-22:00", "outdoor_seating": "yes", "payment:cards": "yes", "payment:cash": "yes", "payment:contactless": "yes", "payment:credit_cards": "yes", "payment:debit_cards": "yes", "payment:maestro": "yes", "payment:mastercard": "yes", "payment:visa": "yes", "reservation": "recommended", "stroller": "yes", "takeaway": "yes", "toilets": "yes", "website:menu": "https://www.huggys.be/menus/menu-bx", "wheelchair": "yes"}}]}