{"version": 0.6, "generator": "Overpass API 0.7.62.10 2d4cfc48", "osm3s": {"timestamp_osm_base": "2026-02-02T17:56:11Z", "copyright": "The data included in this document is from www.openstreetmap.org. The data is made available under ODbL."}, "elements": [{"type": "node", "id": 602765935, "lat": 50.7846884, "lon": 4.3866178, "tags": {"amenity": "restaurant", "contact:email": "info@lechaletdelaforet.be", "contact:phone": "+32 2 374 54 16", "contact:website": "https://www.lechaletdelaforet.be/", "name": "Chalet de la For\u00eat", "opening_hours": "Mo-Fr 12:00-14:00,19:00-21:00", "wikidata": "Q2581585", "wikipedia": "nl:Le Chalet de la For\u00eat"}}, {"type": "node", "id": 1770440916, "lat": 50.8011856, "lon": 4.4201765, "tags": {"amenity": "restaurant", "contact:phone": "+32 2 672 32 48", "contact:website": "http://www.psylophone.be/", "cuisine": "regional", "diet:vegan": "yes", "diet:vegetarian": "yes", "name": "Le Psylophone", "opening_hours": "PH,Mo-Su 18:00-22:30, Mo-Fr 12:00-14:00", "takeaway": "yes", "toilets:wheelchair": "no", "wheelchair": "limited"}}, {"type": "node", "id": 1934002559, "lat": 50.8165393, "lon": 4.4368565, "tags": {"amenity": "restaurant", "name": "Le Briefing", "wheelchair": "limited"}}, {"type": "node", "id": 2213731072, "lat": 50.8142107, "lon": 4.4339548, "tags": {"amenity": "restaurant", "contact:phone": "+32 2 808 25 20", "contact:website": "https://www.pizza-biologica.be/", "cuisine": "pizza", "name": "Pizza Biologica", "takeaway": "yes"}}, {"type": "node", "id": 2279446187, "lat": 50.8013511, "lon": 4.4219225, "tags": {"amenity": "restaurant", "contact:phone": "+32 2 672 16 01", "contact:website": "https://souverain.be", "cuisine": "indian", "diet:vegan": "yes", "diet:vegetarian": "yes", "name": "Les Rives du Gange", "note": "Name only in French; apparently no official Dutch translation on their website"}}, {"type": "node", "id": 2279446192, "lat": 50.8142946, "lon": 4.4267987, "tags": {"amenity": "restaurant", "brand": "Pizza Hut", "brand:website": "https://www.pizzahut.be/", "brand:wikidata": "Q191615", "brand:wikipedia": "en:Pizza Hut", "contact:phone": "+32 2 662 00 00", "cuisine": "pizza", "name": "Pizza Hut", "takeaway": "yes"}}, {"type": "node", "id": 2279446207, "lat": 50.8116847, "lon": 4.4319365, "tags": {"amenity": "restaurant", "check_date": "2025-08-28", "contact:email": "info@restaurant-arthur.be", "contact:phone": "+32 2 514 41 04", "contact:website": "https://restaurant-arthur.be/", "cuisine": "french", "name": "Chez Arthur", "opening_hours": "Mo-Fr 12:00-14:30,18:30-23:00; Sa 18:30-23:00; Su 12:00-15:00", "outdoor_seating": "sidewalk", "start_date": "2020-07-27"}}, {"type": "node", "id": 2321648931, "lat": 50.8142235, "lon": 4.434088, "tags": {"amenity": "restaurant", "contact:phone": "+32 2 673 02 72", "contact:website": "https://les2petitsdiables.be", "cuisine": "italian", "delivery": "yes", "diet:gluten_free": "yes", "indoor_seating": "yes", "name": "Les Deux Petits Diables", "outdoor_seating": "pedestrian_zone", "takeaway": "yes"}}, {"type": "node", "id": 2352444993, "lat": 50.7979083, "lon": 4.4192114, "tags": {"amenity": "restaurant", "contact:phone": "+32 2 675 60 75", "contact:website": "https://via-roma.be/", "cuisine": "italian", "name": "Via Roma", "opening_hours": "Tu-Su 12:00-15:00, 18:30-23:00", "self_service": "no"}}, {"type": "node", "id": 2479542921, "lat": 50.8160258, "lon": 4.430421, "tags": {"alt_name": "La Soeur du Patron", "amenity": "restaurant", "contact:phone": "+32 2 675 00 92", "contact:website": "https://lasoeurdupatron.be/", "cuisine": "french", "delivery": "yes", "internet_access": "wlan", "name": "La S\u0153ur du Patron", "opening_hours": "Mo-Fr 12:00-15:00,18:30-24:00; Sa 00:00-01:00,18:30-24:00; Su 00:00-01:00", "outdoor_seating": "yes", "payment:american_express": "yes", "payment:bancontact": "yes", "payment:cash": "yes", "payment:maestro": "yes", "payment:mastercard": "yes", "payment:meal_voucher": "yes", "payment:visa": "yes"}}, {"type": "node", "id": 2822043923, "lat": 50.7979412, "lon": 4.4188978, "tags": {"amenity": "restaurant", "name": "La Fraschetta", "opening_hours": "Mo-Su 12:00-14:30, Mo-Th 18:00-22:30, Fr,Sa 18:00-23:00"}}, {"type": "node", "id": 3308510361, "lat": 50.8156516, "lon": 4.4264425, "tags": {"amenity": "restaurant", "contact:email": "mazajmarketing@gmail.com", "contact:phone": "+32 2 675 55 10", "contact:website": "https://www.mazaj.be/", "name": "Maza'j"}}, {"type": "node", "id": 3317440608, "lat": 50.8019388, "lon": 4.4311038, "tags": {"amenity": "restaurant", "contact:email": "info@aureposdeschasseurs.be", "contact:facebook": "aureposdeschasseurs", "contact:fax": "+32 2 674 26 76", "contact:phone": "+32 2 660 46 72", "contact:website": "https://au-repos-des-chasseurs.be/", "cuisine": "french", "diet:pescetarian": "limited", "diet:vegan": "no", "diet:vegetarian": "limited", "indoor_seating": "yes", "lgbtq:signed": "no", "name": "Au Repos des Chasseurs", "opening_hours": "Tu-Sa 12:00-23:00; Su 12:00-18:30", "outdoor_seating": "yes", "ref:vatin": "BE0432439460", "reservation": "yes"}}, {"type": "node", "id": 3317447752, "lat": 50.7940467, "lon": 4.4180475, "tags": {"amenity": "restaurant", "contact:phone": "+32 2 660 66 86", "contact:website": "https://lechapelierfou.be/", "name": "Brasserie Le Chapelier Fou", "opening_hours": "We-Su 10:00-22:00", "wheelchair": "yes"}}, {"type": "node", "id": 3317447753, "lat": 50.8081779, "lon": 4.4186276, "tags": {"amenity": "restaurant", "contact:phone": "+32 2 672 54 34", "cuisine": "italian", "name": "Il Vespino", "operator": "Rinoceronte SPRL", "wheelchair": "limited"}}, {"type": "node", "id": 3317485996, "lat": 50.7957694, "lon": 4.4176601, "tags": {"amenity": "restaurant", "name": "Le Coriandre"}}, {"type": "node", "id": 3317485997, "lat": 50.7971016, "lon": 4.4122828, "tags": {"amenity": "restaurant", "contact:mobile": "+32 484 98 95 00", "cuisine": "african", "name": "Le Dakar", "opening_hours": "We-Mo 12:00-23:00", "toilets:wheelchair": "no", "wheelchair": "limited"}}, {"type": "node", "id": 3409479016, "lat": 50.7974417, "lon": 4.4132118, "tags": {"amenity": "restaurant", "contact:phone": "+32 2 675 08 00", "contact:website": "https://www.laveraison.be", "name": "La V\u00e9raison"}}, {"type": "node", "id": 3507170935, "lat": 50.7978593, "lon": 4.4185871, "tags": {"amenity": "restaurant", "contact:phone": "+32 2 675 14 68", "name": "Les Filles de Papa"}}, {"type": "node", "id": 5171661737, "lat": 50.81206, "lon": 4.4322057, "tags": {"amenity": "restaurant", "check_date": "2025-08-28", "contact:email": "info@letransvaal.be", "contact:phone": "+32 2 660 95 76", "contact:website": "https://www.letransvaal.be/", "name": "Le Transvaal", "outdoor_seating": "yes"}}, {"type": "node", "id": 6223333929, "lat": 50.7992247, "lon": 4.4181721, "tags": {"amenity": "restaurant", "name": "Fl\u00e2ne", "opening_hours": "Mo off; Tu off; We-Fr 12:00-14:00,19:00-21:00; Sa 19:00-21:00; Su off", "phone": "+32 2 895 77 73", "website": "https://www.flanerestaurant.com/"}}, {"type": "node", "id": 6223333930, "lat": 50.8114221, "lon": 4.4310487, "tags": {"amenity": "restaurant", "name": "S\u00e9same"}}, {"type": "node", "id": 6406010317, "lat": 50.8130659, "lon": 4.4287671, "tags": {"amenity": "restaurant", "cuisine": "regional", "name": "Schievelavabo Auderghem", "opening_hours": "Mo-Fr 12:00-14:30, Mo-Su 18:30-22:00"}}, {"type": "node", "id": 7230625832, "lat": 50.7887334, "lon": 4.466982, "tags": {"amenity": "restaurant", "cuisine": "french", "name": "Barbizon by Enjoy", "opening_hours:covid19": "closed"}}, {"type": "node", "id": 7230625833, "lat": 50.7885714, "lon": 4.4664482, "tags": {"access": "permissive", "amenity": "restaurant", "contact:phone": "+32 2 657 11 35", "contact:website": "http://www.royalcrc.com/", "name": "The Country Riding Club", "opening_hours": "Tu-Su 10:00-19:00"}}, {"type": "node", "id": 8324760646, "lat": 50.8146133, "lon": 4.4334306, "tags": {"amenity": "restaurant", "contact:phone": "+32 2 479 18 97", "contact:website": "https://www.restocanaille.be/", "cuisine": "french;international;gastronomic", "name": "Canaille", "opening_hours": "Th-Sa 19:00-24:00", "opening_hours:covid19": "restricted"}}, {"type": "node", "id": 8379073627, "lat": 50.8102015, "lon": 4.4421353, "tags": {"amenity": "restaurant", "contact:phone": "+32 2 850 63 36", "contact:website": "https://www.barcorabelo.com/", "cuisine": "portuguese;belgian", "name": "Barco Rabelo"}}, {"type": "node", "id": 9444269991, "lat": 50.7939701, "lon": 4.4187481, "tags": {"amenity": "restaurant", "contact:phone": "+32 2 660 66 42", "contact:website": "https://la-passerelle.eu/lebarasoupe", "name": "Le Bar \u00e0 Soupe"}}, {"type": "node", "id": 10116044128, "lat": 50.8162625, "lon": 4.4285488, "tags": {"amenity": "restaurant", "contact:email": "lepredufour@gmail.com", "contact:phone": "+32 2 675 78 00", "contact:website": "https://lepredufour.be/", "cuisine": "sandwich;salad;pasta", "diet:vegan": "no", "diet:vegetarian": "yes", "name": "Le pr\u00e9 du four"}}, {"type": "node", "id": 10789516789, "lat": 50.7941029, "lon": 4.3797438, "tags": {"amenity": "restaurant", "contact:phone": "+32 2 374 45 81", "contact:website": "https://www.royalracing1891.be/le-club/bar-restaurant", "cuisine": "regional;french;burger;steak_house", "name": "Royal Racing Club"}}, {"type": "node", "id": 11451823160, "lat": 50.8029214, "lon": 4.4264108, "tags": {"amenity": "restaurant", "contact:phone": "+32 2 669 48 30", "contact:website": "https://mix.brussels/timber/", "level": "2", "name": "Timber", "opening_hours": "Tu-Fr 12:00-14:00, 19:00-21:00; Sa 19:00-21:00", "self_service": "no", "website:menu": "https://mix.brussels/app/uploads/2025/10/timbermenu-011025-eat-en.pdf"}}, {"type": "node", "id": 11685131376, "lat": 50.7962764, "lon": 4.3966603, "tags": {"amenity": "restaurant", "diet:vegan": "no", "diet:vegetarian": "yes", "name": "Woodpecker Drohme", "website:menu": "https://woodpecker.family/menu-drohme/"}}, {"type": "node", "id": 12114734017, "lat": 50.8112668, "lon": 4.4227187, "tags": {"amenity": "restaurant", "contact:website": "http://restaurantlabotte.be/", "cuisine": "italian", "name": "La Botte", "opening_hours": "Mo 12:00-15:00; Tu-Fr 12:00-15:00,18:00-22:30; Sa 18:00-22:30", "toilets:wheelchair": "no", "wheelchair": "yes"}}, {"type": "node", "id": 12194295833, "lat": 50.7941257, "lon": 4.4186716, "tags": {"amenity": "restaurant", "diet:vegan": "yes", "diet:vegetarian": "yes", "name": "Silex"}}, {"type": "node", "id": 12365437007, "lat": 50.7939729, "lon": 4.4814971, "tags": {"amenity": "restaurant", "name": "L'Auberge Bretonne"}}, {"type": "node", "id": 12875192317, "lat": 50.8060073, "lon": 4.4412263, "tags": {"amenity": "restaurant", "name": "Vaso"}}, {"type": "node", "id": 13009483894, "lat": 50.8130312, "lon": 4.4443807, "tags": {"amenity": "restaurant", "name": "Maison du Prieur", "opening_hours": "We-Su 11:00-22:00"}}, {"type": "node", "id": 13068944309, "lat": 50.7975726, "lon": 4.4177908, "tags": {"amenity": "restaurant", "contact:phone": "+32 2 270 02 40", "cuisine": "regional;belgium", "name": "Chez Bonnette", "opening_hours": "Tu-Sa 18:00-22:00"}}, {"type": "node", "id": 13140779332, "lat": 50.7952912, "lon": 4.3969514, "tags": {"amenity": "restaurant", "name": "Clubhouse Drohme"}}, {"type": "node", "id": 13434270101, "lat": 50.814011, "lon": 4.4237642, "tags": {"amenity": "restaurant", "name": "La Taverne"}}, {"type": "node", "id": 13481887101, "lat": 50.7977641, "lon": 4.4180346, "tags": {"amenity": "restaurant", "cuisine": "chinese", "name": "Le Dragon", "opening_hours": "Tu-Su 12:00-13:40, 18:00-21:00"}}]}