{"version": 0.6, "generator": "Overpass API 0.7.62.10 2d4cfc48", "osm3s": {"timestamp_osm_base": "2026-02-03T08:44:30Z", "copyright": "The data included in this document is from www.openstreetmap.org. The data is made available under ODbL."}, "elements": [{"type": "node", "id": 4892514008, "lat": 50.8339923, "lon": 4.3428824, "tags": {"name": "Porte de Hal - Hallepoort", "name:etymology:wikidata": "Q2988142", "name:fr": "Porte de Hal", "name:nl": "Hallepoort", "network": "IBXL", "network:wikidata": "Q114957008", "operator": "STIB/MIVB", "operator:wikidata": "Q1631655", "public_transport": "station", "railway": "station", "ref:STIB_MIVB": "34", "station": "subway", "subway": "yes", "wheelchair": "no", "wikidata": "Q2475970", "wikipedia": "fr:Porte de Hal (m\u00e9tro de Bruxelles)"}}, {"type": "node", "id": 6587283782, "lat": 50.8327988, "lon": 4.3428865, "tags": {"name": "Porte de Hal - Hallepoort", "name:etymology:wikidata": "Q2988142", "name:fr": "Porte de Hal", "name:nl": "Hallepoort", "network": "IBXL", "network:wikidata": "Q114957008", "operator": "STIB/MIVB", "operator:wikidata": "Q1631655", "public_transport": "station", "railway": "station", "ref:STIB_MIVB": "64", "station": "subway", "tram": "yes", "wheelchair": "no", "wikidata": "Q2475970", "wikipedia": "fr:Porte de Hal (m\u00e9tro de Bruxelles)"}}, {"type": "node", "id": 6588316478, "lat": 50.8298326, "lon": 4.3461376, "tags": {"name": "Parvis de Saint-Gilles - Sint-Gillisvoorplein", "name:fr": "Parvis de Saint-Gilles", "name:nl": "Sint-Gillisvoorplein", "network": "IBXL", "network:wikidata": "Q114957008", "operator": "STIB/MIVB", "operator:wikidata": "Q1631655", "public_transport": "station", "railway": "station", "ref:STIB_MIVB": "65", "station": "subway", "tram": "yes", "wheelchair": "no", "wikidata": "Q2417248", "wikipedia": "en:Parvis de Saint-Gilles premetro station"}}]}