{"version": 0.6, "generator": "Overpass API 0.7.62.10 2d4cfc48", "osm3s": {"timestamp_osm_base": "2026-02-02T17:54:05Z", "copyright": "The data included in this document is from www.openstreetmap.org. The data is made available under ODbL."}, "elements": [{"type": "node", "id": 2452583805, "lat": 50.8327238, "lon": 4.3665415, "tags": {"amenity": "restaurant", "check_date": "2023-06-02", "contact:instagram": "https://www.instagram.com/artigiano_della_farina", "contact:mobile": "+32 499 64 62 69", "contact:website": "https://www.artigianodellafarina.be", "cuisine": "pizza", "name": "L'Artigiano della farina", "shop": "vacant", "was:name": "Mano Nera", "was:shop": "hairdresser"}}, {"type": "node", "id": 3322996450, "lat": 50.8277901, "lon": 4.3680715, "tags": {"amenity": "restaurant", "check_date": "2026-02-02", "contact:phone": "+32 2 361 56 59", "contact:website": "https://www.bapanddak.be/", "cuisine": "korean", "indoor_seating": "yes", "name": "Bap and Dak", "opening_hours": "Mo-Su 11:30-22:00", "outdoor_seating": "no"}}, {"type": "node", "id": 3322996453, "lat": 50.8276819, "lon": 4.3653862, "tags": {"amenity": "restaurant", "cuisine": "vietnamese", "indoor_seating": "yes", "name": "L'Escale au Vietnam", "opening_hours": "Mo,Tu,Th,Fr 11:30-14:30,18:30-22:30", "outdoor_seating": "no"}}, {"type": "node", "id": 3322996458, "lat": 50.8278049, "lon": 4.3683468, "tags": {"amenity": "restaurant", "contact:email": "itaewonbbq@gmail.com", "contact:mobile": "+32 492 07 80 94", "contact:website": "https://www.itaewon.be/", "cuisine": "asian;korean", "indoor_seating": "yes", "name": "Itaewon", "opening_hours": "Mo-Su 18:00-22:30", "outdoor_seating": "no"}}, {"type": "node", "id": 3705787249, "lat": 50.8351676, "lon": 4.3592408, "tags": {"amenity": "restaurant", "contact:facebook": "https://www.facebook.com/lusfiziu/", "contact:mobile": "+32 483 02 35 89", "cuisine": "italian", "name": "Lu Sfiziu"}}, {"type": "node", "id": 4030010490, "lat": 50.8325428, "lon": 4.3666438, "tags": {"amenity": "restaurant", "changing_table": "no", "entrance:kerb:height": "0.15", "entrance:ramp": "no", "entrance:step_count": "1", "entrance:width": "0.9", "name": "De Haus", "toilets:wheelchair": "no", "wheelchair:turning_circle": "yes"}}, {"type": "node", "id": 4030010491, "lat": 50.8324829, "lon": 4.3666695, "tags": {"amenity": "restaurant", "changing_table": "yes", "cuisine": "burger", "entrance:kerb:height": "0.09", "entrance:ramp": "no", "entrance:step_count": "1", "entrance:width": "1.75", "name": "L'Amour Fou", "wheelchair": "limited", "wheelchair:turning_circle": "yes"}}, {"type": "node", "id": 4426898812, "lat": 50.8275918, "lon": 4.3681351, "tags": {"amenity": "restaurant", "check_date": "2026-02-02", "cuisine": "vietnamese", "indoor_seating": "yes", "name": "Indochine", "outdoor_seating": "no", "wheelchair": "limited"}}, {"type": "node", "id": 4426898813, "lat": 50.8276104, "lon": 4.3683646, "tags": {"amenity": "restaurant", "cuisine": "tapas", "indoor_seating": "yes", "name": "Le Fabiola", "outdoor_seating": "no"}}, {"type": "node", "id": 4762465234, "lat": 50.8350766, "lon": 4.3611588, "tags": {"amenity": "restaurant", "bar": "yes", "brewery": "various", "check_date": "2025-07-22", "check_date:diet:vegetarian": "2025-07-22", "contact:website": "http://www.lesbrassins.be/", "delivery": "no", "diet:vegetarian": "no", "level": "0", "name": "Les Brassins", "opening_hours": "Tu-Sa 11:00-24:00", "payment:cash": "yes", "payment:credit_cards": "yes", "payment:debit_cards": "yes", "reservation": "yes", "smoking": "no", "toilets:menstrual_products": "no"}}, {"type": "node", "id": 5478051471, "lat": 50.8293752, "lon": 4.362219, "tags": {"amenity": "restaurant", "name": "JeanBon", "opening_hours": "Mo-Fr 08:30-16:30; Sa 09:30-16:00"}}, {"type": "node", "id": 5688864736, "lat": 50.8277572, "lon": 4.363885, "tags": {"amenity": "restaurant", "name": "Rouge tomate", "opening_hours": "Mo-Fr 12:00-14:30; Sa 19:00-22:30"}}, {"type": "node", "id": 5901814490, "lat": 50.8311862, "lon": 4.3683857, "tags": {"amenity": "restaurant", "contact:phone": "+32 2 646 44 49", "contact:website": "https://www.restaurant-grec-ixelles.be/#restaurant-ouzerie-grecque", "cuisine": "greek", "name": "Ouzerie Mezedopolio", "opening_hours": "Mo-Sa 18:30-24:00"}}, {"type": "node", "id": 6524745157, "lat": 50.8358938, "lon": 4.3579764, "tags": {"airconditioned": "yes", "amenity": "restaurant", "catering": "yes", "contact:phone": "+32 2 511 20 78", "contact:website": "https://confucius.be", "cuisine": "chinese", "internet_access": "wlan", "lunch": "yes", "name": "Le Confucius", "opening_hours": "Su,Mo,We,Th 12:00-14:00, 18:30-22:00; Fr 12:00-14:00, 18:30-22:10; Sa 18:30 - 22:15", "outdoor_seating": "no", "payment:cash": "yes", "payment:maestro": "yes", "payment:mastercard": "yes", "payment:visa": "yes", "takeaway": "yes", "wheelchair": "no"}}, {"type": "node", "id": 6818337097, "lat": 50.8294281, "lon": 4.3699139, "tags": {"amenity": "restaurant", "contact:mobile": "+32 485 63 61 15", "contact:phone": "+32 2 646 20 44", "cuisine": "chinese", "description": "Resto traiteur chinois", "indoor_seating": "yes", "name": "China Express", "opening_hours": "We-Su 12:00-14:30,18:00-23:00", "operator": "Teng sprl", "outdoor_seating": "no", "wheelchair": "no"}}, {"type": "node", "id": 6966406042, "lat": 50.8302299, "lon": 4.3629777, "tags": {"amenity": "restaurant", "contact:phone": "+32 2 647 68 03", "name": "Le local", "opening_hours": "Tu-Fr 12:00 - 14:00; We-Sa 19:00-22:00; Sa 11:00-15:00"}}, {"type": "node", "id": 7074885213, "lat": 50.8320642, "lon": 4.3674255, "tags": {"amenity": "restaurant", "contact:email": "resto@o-roots.com", "contact:phone": "+32 2 513 05 45", "contact:website": "http://o-roots.com", "cuisine": "syrian", "name": "O\u2019Roots", "opening_hours": "Mo-Fr 11:00-15:00,18:00-23:00; Sa 18:00-23:00"}}, {"type": "node", "id": 7216168185, "lat": 50.8285626, "lon": 4.3630914, "tags": {"amenity": "restaurant", "contact:website": "https://www.manhattns.com/location/avenue-louise", "cuisine": "burger", "diet:vegetarian": "yes", "name": "Manhattn's Burgers", "opening_hours": "Mo-Su 11:30-22:30"}}, {"type": "node", "id": 7910206785, "lat": 50.8276338, "lon": 4.3692861, "tags": {"amenity": "restaurant", "check_date": "2026-02-02", "cuisine": "thai", "indoor_seating": "yes", "name": "Walkin' Tha\u00ef", "opening_hours": "Mo,Tu,Th 12:00-14:30,18:30-22:00; Fr 12:00-14:30,18:30-22:30; Sa 18:30-22:30; Su 18:00-22:00", "outdoor_seating": "no"}}, {"type": "node", "id": 8151683605, "lat": 50.8346801, "lon": 4.3638129, "tags": {"amenity": "restaurant", "contact:instagram": "thefiftyonebrussels", "cuisine": "mediterranean", "diet:vegetarian": "yes", "indoor_seating": "yes", "name": "The Fifty One", "opening_hours": "Tu-Sa 15:00-23:00", "outdoor_seating": "pedestrian_zone", "website:menu": "https://www.thefork.com/restaurant/the-fifty-one-tapas-sharing-plates-bistro-r660315/menu", "wheelchair": "yes"}}, {"type": "node", "id": 10842099584, "lat": 50.8345565, "lon": 4.3616829, "tags": {"amenity": "restaurant", "contact:mobile": "+32 479 40 06 07", "contact:website": "https://epicerie-nomad.be/", "cuisine": "fusion", "indoor_seating": "yes", "name": "L'\u00e9picerie Nomad", "opening_hours": "Tu-Sa 11:00-15:00,18:00-22:00", "outdoor_seating": "yes"}}, {"type": "node", "id": 11136010305, "lat": 50.8274651, "lon": 4.3653865, "tags": {"amenity": "restaurant", "contact:mobile": "+32 484 57 08 40", "contact:website": "https://www.greenhouse-brussels.be/", "cuisine": "international", "diet:vegan": "only", "diet:vegetarian": "only", "name": "Green House", "opening_hours": "Sa-We 12:00-15:00, 18:00-22:00; Th 17:00-21:00"}}, {"type": "node", "id": 11392689191, "lat": 50.8354873, "lon": 4.3607027, "tags": {"amenity": "restaurant", "check_date": "2024-01-01", "contact:website": "https://www.bogartfoodiescorner.be", "cuisine": "mediterranean", "name": "Bogart Foodies Corner", "opening_hours": "Mo-Fr 12:00-13:30,19:00-21:30; Sa 19:00-21:30; PH off"}}, {"type": "node", "id": 11528546370, "lat": 50.8340891, "lon": 4.3638082, "tags": {"amenity": "restaurant", "check_date": "2024-11-15", "cuisine": "asian", "indoor_seating": "yes", "name": "A-MUI Taiwanese Lunch Box", "opening_hours": "Mo,Sa-Su off; Tu-Th 11:30-14:00; Fr 11:30-14:00,17:30-20:00", "outdoor_seating": "no", "short_name": "A-MUI"}}, {"type": "node", "id": 11594654023, "lat": 50.8343224, "lon": 4.3590023, "tags": {"amenity": "restaurant", "cuisine": "tibetan", "name": "Bodja"}}, {"type": "node", "id": 12050736669, "lat": 50.8362331, "lon": 4.3576258, "tags": {"amenity": "restaurant", "contact:website": "https://www.cocobrussels.com/", "name": "Coco Brussels", "opening_hours": "We-Sa 19:00-02:30"}}, {"type": "node", "id": 12558789532, "lat": 50.832722, "lon": 4.3636837, "tags": {"amenity": "restaurant", "contact:phone": "+32 2 503 01 80", "cuisine": "italian", "indoor_seating": "yes", "name": "L'Angolo", "outdoor_seating": "no", "wheelchair": "no"}}, {"type": "node", "id": 12924826110, "lat": 50.8313152, "lon": 4.3603449, "tags": {"amenity": "restaurant", "contact:website": "https://samourai-bruxelles.com/", "cuisine": "japanese", "name": "Samourai", "opening_hours": "Su,Mo off; Tu-Sa 12:00-14:00,19:00-21:30"}}, {"type": "node", "id": 13517921858, "lat": 50.8311347, "lon": 4.3604268, "tags": {"amenity": "restaurant", "contact:instagram": "https://www.instagram.com/mimirestaurant106", "contact:website": "https://mimirestaurant.be", "cuisine": "italian", "name": "Mimi"}}]}