{"version": 0.6, "generator": "Overpass API 0.7.62.10 2d4cfc48", "osm3s": {"timestamp_osm_base": "2026-02-02T17:08:02Z", "copyright": "The data included in this document is from www.openstreetmap.org. The data is made available under ODbL."}, "elements": [{"type": "node", "id": 331953377, "lat": 50.8415512, "lon": 4.3525901, "tags": {"amenity": "restaurant", "contact:phone": "+32 2 502 25 12", "contact:website": "https://www.skievelatsablon.be/", "cuisine": "regional", "name": "Skievelat", "opening_hours": "12:00-22:30"}}, {"type": "node", "id": 2659564164, "lat": 50.8376914, "lon": 4.3482543, "tags": {"amenity": "restaurant", "contact:email": "thejudgyvegan@gmail.com", "contact:facebook": "TheJudgyVeganCafe", "contact:instagram": "thejudgyvegan", "contact:phone": "+32 2 540 80 38", "contact:website": "https://www.thejudgyvegan.com/", "cuisine": "cake", "diet:vegan": "only", "indoor_seating": "yes", "name": "The Judgy Vegan", "opening_hours": "Th-Fr 17:30-22:30; Sa-Su 10:30-21:30", "outdoor_seating": "yes"}}, {"type": "node", "id": 2665165909, "lat": 50.8409482, "lon": 4.3514601, "tags": {"amenity": "restaurant", "check_date": "2025-05-01", "cuisine": "burger", "indoor_seating": "yes", "name": "Berlin Fabrik", "outdoor_seating": "yes"}}, {"type": "node", "id": 2665165935, "lat": 50.83828, "lon": 4.3509474, "tags": {"amenity": "restaurant", "check_date:opening_hours": "2025-07-29", "name": "Lazy Bear", "opening_hours:signed": "no"}}, {"type": "node", "id": 2665166322, "lat": 50.8395093, "lon": 4.3534273, "tags": {"amenity": "restaurant", "indoor_seating": "yes", "name": "Orphyse Chaussette", "opening_hours": "Tu-Sa 12:00-14:30,19:00-22:30", "outdoor_seating": "yes"}}, {"type": "node", "id": 3083236694, "lat": 50.8367993, "lon": 4.3480667, "tags": {"amenity": "restaurant", "capacity": "55", "change:XLT-ZINN": "yes", "check_date:opening_hours": "2023-02-02", "contact:email": "info@leauchaude.be", "contact:facebook": "https://www.facebook.com/het.warm.water", "contact:mobile": "+32 493 37 81 64", "contact:website": "https://www.leauchaude.be/", "cuisine": "regional", "diet:vegan": "yes", "diet:vegetarian": "only", "name": "L'Eau Chaude - Het Warm Water", "name:fr": "L'Eau Chaude", "name:nl": "Het Warm Water", "opening_hours": "Tu-Su 11:00-16:00", "opening_hours:kitchen": "Tu-Su 12:00-15:00", "organic": "only", "outdoor_seating": "yes", "smoking": "outside", "takeaway": "no"}}, {"type": "node", "id": 3984753218, "lat": 50.8334979, "lon": 4.3452329, "tags": {"amenity": "restaurant", "contact:phone": "+32 2 539 44 54", "contact:website": "https://le-bistro.be/", "cuisine": "regional", "name": "Le Bistro", "outdoor_seating": "yes"}}, {"type": "node", "id": 4430436892, "lat": 50.8417833, "lon": 4.3521693, "tags": {"amenity": "restaurant", "check_date": "2025-06-24", "contact:email": "vluxurycercle@gmail.com", "contact:phone": "+32 2 503 83 66", "cuisine": "pizza", "indoor_seating": "yes", "internet_access": "wlan", "name": "La Dolce Mia", "opening_hours": "Tu-Sa 11:30-15:00,18:00-22:00; Su 12:00-18:00", "outdoor_seating": "yes"}}, {"type": "node", "id": 4618471006, "lat": 50.8367324, "lon": 4.3484714, "tags": {"amenity": "restaurant", "contact:website": "https://fishtank.be", "cuisine": "fish", "name": "Fish Tank", "opening_hours": "We-Th 12:00-15:00; Fr-Sa 12:00-21:00; Su 12:00-18:00"}}, {"type": "node", "id": 4837010521, "lat": 50.8388755, "lon": 4.3505452, "tags": {"amenity": "restaurant", "name": "Easy Tiempo"}}, {"type": "node", "id": 5111596351, "lat": 50.8396032, "lon": 4.3526652, "tags": {"amenity": "restaurant", "check_date:opening_hours": "2023-02-07", "contact:phone": "+32 2 513 51 95", "name": "Le Corbier", "opening_hours:signed": "no"}}, {"type": "node", "id": 5415874973, "lat": 50.8399348, "lon": 4.3494951, "tags": {"amenity": "restaurant", "check_date": "2023-02-13", "contact:email": "brussels@aljannah.be", "contact:phone": "+32 2 514 08 44", "contact:website": "https://www.aljannah.be/", "cuisine": "lebanese", "name": "Al Jannah", "opening_hours": "Th-Tu 12:00-22:30"}}, {"type": "node", "id": 5469271321, "lat": 50.8388459, "lon": 4.3505159, "tags": {"amenity": "restaurant", "contact:email": "brasserie.ploegmans@gmail.com", "contact:phone": "+32 2 503 21 24", "contact:website": "https://ploegmans.wordpress.com/", "cuisine": "local;french", "name": "Brasserie Ploegmans", "opening_hours": "Mo off; Tu-Th 12:00-14:30,19:00-22:00; Fr-Sa 12:00-14:30,19:00-22:30; Su 12:00-14:30"}}, {"type": "node", "id": 6598940702, "lat": 50.8387051, "lon": 4.3504193, "tags": {"amenity": "restaurant", "check_date": "2025-06-24", "check_date:opening_hours": "2023-07-04", "contact:phone": "+32 2 502 17 78", "contact:website": "https://lesvignesduliban.be/", "cuisine": "lebanese", "indoor_seating": "yes", "name": "Les Vignes du Liban", "opening_hours": "Mo-Fr 12:00-14:00,18:00-22:00; Sa,Su 12:00-22:00", "opening_hours:signed": "no", "outdoor_seating": "yes"}}, {"type": "node", "id": 7102117586, "lat": 50.8371752, "lon": 4.3470661, "tags": {"amenity": "restaurant", "cuisine": "regional", "indoor_seating": "yes", "name": "P'titi", "outdoor_seating": "yes"}}, {"type": "node", "id": 7104235086, "lat": 50.8369782, "lon": 4.3479122, "tags": {"amenity": "restaurant", "check_date": "2025-04-27", "name": "Les anciennes bruxelles"}}, {"type": "node", "id": 7149864187, "lat": 50.8410295, "lon": 4.3513142, "tags": {"amenity": "restaurant", "contact:email": "info@poischiche.be", "contact:website": "https://www.poischiche.be/", "cuisine": "oriental;lebanese;arab;mediterranean", "diet:vegetarian": "yes", "indoor_seating": "yes", "internet_access": "wlan", "name": "Pois Chiche", "opening_hours": "Mo-We 12:00-21:00; Th-Fr 12:00-22:00; Sa 11:00-22:00; Su 11:00-21:00", "outdoor_seating": "yes"}}, {"type": "node", "id": 7199717964, "lat": 50.8357788, "lon": 4.3503506, "tags": {"amenity": "restaurant", "contact:phone": "+32 2 513 10 91", "name": "L'Inattendu"}}, {"type": "node", "id": 7272488740, "lat": 50.8356296, "lon": 4.3506114, "tags": {"amenity": "restaurant", "contact:email": "info@leslarmesdutigre.be", "contact:phone": "+32 2 512 18 77", "contact:website": "https://www.leslarmesdutigre.be/", "cuisine": "thai", "delivery": "yes", "name": "Les Larmes du Tigre", "opening_hours": "We,Th 12:00-14:00,19:00-22:00; Fr 12:00-14:00,19:00-22:30; Sa 19:00-22:30; Su 12:00-14:00,19:00-21:00", "takeaway": "yes"}}, {"type": "node", "id": 7581502876, "lat": 50.8382388, "lon": 4.349755, "tags": {"amenity": "restaurant", "contact:facebook": "https://www.facebook.com/Nonnopiadineria", "cuisine": "italian", "delivery": "no", "diet:vegan": "yes", "diet:vegetarian": "yes", "indoor_seating": "yes", "name": "Nonno", "outdoor_seating": "yes", "reservation": "no", "takeaway": "yes"}}, {"type": "node", "id": 7704742943, "lat": 50.8417517, "lon": 4.3518834, "tags": {"amenity": "restaurant", "check_date": "2024-01-02", "contact:mobile": "+32 485 70 31 11", "contact:phone": "+32 2 502 17 07", "cuisine": "lebanese;palestinian", "diet:vegan": "yes", "diet:vegetarian": "yes", "indoor_seating": "yes", "name": "Jaffa", "opening_hours": "Tu-Sa 12:00-23:00; Su 12:00-21:30", "outdoor_seating": "sidewalk", "ref:vatin": "BE0660970074", "wheelchair": "limited"}}, {"type": "node", "id": 8450305004, "lat": 50.8403749, "lon": 4.3503211, "tags": {"amenity": "restaurant", "check_date": "2024-08-28", "contact:facebook": "https://www.facebook.com/labonnechere.be/", "contact:instagram": "https://www.instagram.com/labonnechere.be", "contact:phone": "+32 2 523 75 55", "contact:website": "https://www.labonnechere.be/", "delivery": "no", "name": "La Bonne Ch\u00e8re", "opening_hours": "Mo,Su off; Tu-Sa 19:00-20:30; Th-Fr 12:00-13:30", "outdoor_seating": "yes", "takeaway": "yes"}}, {"type": "node", "id": 8450305006, "lat": 50.8413218, "lon": 4.3503942, "tags": {"amenity": "restaurant", "cuisine": "belgian", "delivery": "no", "name": "Les Brigittines", "reservation": "yes", "takeaway": "yes"}}, {"type": "node", "id": 9063920417, "lat": 50.8352359, "lon": 4.3493454, "tags": {"amenity": "restaurant", "contact:phone": "+32 2 512 86 81", "contact:website": "https://www.austekerlapatte.be/", "cuisine": "regional", "diet:vegetarian": "yes", "name": "Au Stekerlapatte", "start_date": "1979", "wikidata": "Q15872769", "wikipedia": "nl:Au Stekerlapatte"}}, {"type": "node", "id": 10106435432, "lat": 50.8393286, "lon": 4.3528639, "tags": {"amenity": "restaurant", "bar": "yes", "brewery": "various", "contact:website": "https://cafedesminimes.com", "cuisine": "regional;french", "indoor_seating": "yes", "name": "Caf\u00e9 des Minimes", "opening_hours": "Tu-Fr 12:00-18:00+; Sa 12:00-18:00+; Su 11:30-16:00", "outdoor_seating": "yes"}}, {"type": "node", "id": 10106887628, "lat": 50.839338, "lon": 4.3532034, "tags": {"amenity": "restaurant", "contact:phone": "+32 2 503 56 32", "contact:website": "https://troisiemeacte.be/", "name": "Le IIIeme Acte", "opening_hours": "Mo-Fr 12:00-14:30,19:00-23:00, Sa 19:00-23:00", "outdoor_seating": "terrace"}}, {"type": "node", "id": 10159158596, "lat": 50.8335587, "lon": 4.3447467, "tags": {"amenity": "restaurant", "name": "K.No.p"}}, {"type": "node", "id": 10572932355, "lat": 50.8376264, "lon": 4.3493465, "tags": {"amenity": "restaurant", "check_date": "2025-04-27", "contact:mobile": "+32 496 82 01 05", "indoor_seating": "yes", "name": "Le Wine Bar des Marolles", "outdoor_seating": "yes"}}, {"type": "node", "id": 10864369206, "lat": 50.8370255, "lon": 4.3473829, "tags": {"amenity": "restaurant", "contact:facebook": "LeRenardBleu", "contact:mobile": "+32 493 30 90 00", "cuisine": "regional", "name": "Le Renard Bleu", "opening_hours": "We-Su 12:00-22:00"}}, {"type": "node", "id": 11584477176, "lat": 50.8420103, "lon": 4.3520746, "tags": {"amenity": "restaurant", "indoor_seating": "yes", "name": "Le Vintage", "outdoor_seating": "yes"}}, {"type": "node", "id": 11872413569, "lat": 50.8378236, "lon": 4.3492833, "tags": {"amenity": "restaurant", "contact:website": "https://elfontanbruselas.com/", "cuisine": "spanish", "indoor_seating": "yes", "name": "El Fontan", "outdoor_seating": "yes"}}, {"type": "node", "id": 11872416869, "lat": 50.8379347, "lon": 4.3494127, "tags": {"amenity": "restaurant", "cuisine": "spanish", "name": "Centro Cabraliego"}}, {"type": "node", "id": 12195292596, "lat": 50.8334941, "lon": 4.3454794, "tags": {"amenity": "restaurant", "contact:instagram": "https://www.instagram.com/charbon_bruxelles", "name": "Le Charbon"}}, {"type": "node", "id": 12512059105, "lat": 50.8375129, "lon": 4.353895, "tags": {"amenity": "restaurant", "cuisine": "italian", "name": "Ciao"}}, {"type": "node", "id": 12603745888, "lat": 50.8406951, "lon": 4.3515922, "tags": {"amenity": "restaurant", "check_date": "2025-02-20", "cuisine": "italian;pizza", "name": "The Manzoni"}}, {"type": "node", "id": 12610306997, "lat": 50.833932, "lon": 4.3450291, "tags": {"amenity": "restaurant", "contact:website": "https://www.bossanovagrill.be/", "cuisine": "brazilian", "diet:vegetarian": "no", "name": "Bossa Nova", "opening_hours": "Tu-Fr 12:00-15:00, 19:00-22:30; Sa 12:00-15:00, 19:00-23:00; Su 12:00-17:00"}}, {"type": "node", "id": 13110283366, "lat": 50.8378578, "lon": 4.3493232, "tags": {"amenity": "restaurant", "contact:website": "https://www.bartapas177.be/", "cuisine": "spanish", "name": "Bar Tapas 177", "outdoor_seating": "yes"}}, {"type": "node", "id": 13114855342, "lat": 50.8369934, "lon": 4.3541859, "tags": {"amenity": "restaurant", "contact:instagram": "schmet.bxl", "name": "Schmet"}}]}