{"version": 0.6, "generator": "Overpass API 0.7.62.10 2d4cfc48", "osm3s": {"timestamp_osm_base": "2026-02-02T15:56:43Z", "copyright": "The data included in this document is from www.openstreetmap.org. The data is made available under ODbL."}, "elements": [{"type": "node", "id": 3120544632, "lat": 50.8298515, "lon": 4.3861692, "tags": {"name": "\u00c9glise Saint-Antoine - Sint-Antoonkerk", "name:fr": "\u00c9glise Saint-Antoine", "name:nl": "Sint-Antoonkerk", "public_transport": "stop_position", "railway": "tram_stop", "tram": "yes"}}, {"type": "node", "id": 3120544655, "lat": 50.8299005, "lon": 4.386611, "tags": {"name": "\u00c9glise Saint-Antoine - Sint-Antoonkerk", "name:fr": "\u00c9glise Saint-Antoine", "name:nl": "Sint-Antoonkerk", "public_transport": "stop_position", "railway": "tram_stop", "tram": "yes"}}, {"type": "node", "id": 3120544772, "lat": 50.8304159, "lon": 4.3892266, "tags": {"name": "La Chasse - De Jacht", "name:fr": "La Chasse", "name:nl": "De Jacht", "public_transport": "stop_position", "railway": "tram_stop", "tram": "yes"}}, {"type": "node", "id": 3120544780, "lat": 50.8311275, "lon": 4.3906417, "tags": {"name": "La Chasse - De Jacht", "name:fr": "La Chasse", "name:nl": "De Jacht", "public_transport": "stop_position", "railway": "tram_stop", "tram": "yes"}}, {"type": "node", "id": 3137388810, "lat": 50.8245271, "lon": 4.3935183, "tags": {"name": "VUB", "public_transport": "stop_position", "railway": "tram_stop", "tram": "yes"}}, {"type": "node", "id": 3137388816, "lat": 50.824746, "lon": 4.3940149, "tags": {"name": "VUB", "public_transport": "stop_position", "railway": "tram_stop", "tram": "yes"}}, {"type": "node", "id": 3137392937, "lat": 50.8264001, "lon": 4.3971947, "tags": {"name": "Arsenal - Arsenaal", "name:fr": "Arsenal", "name:nl": "Arsenaal", "public_transport": "stop_position", "railway": "tram_stop", "tram": "yes"}}, {"type": "node", "id": 3137393018, "lat": 50.8292856, "lon": 4.4023585, "tags": {"name": "P\u00e9tillon", "public_transport": "stop_position", "railway": "tram_stop", "tram": "yes"}}, {"type": "node", "id": 3137393055, "lat": 50.8336036, "lon": 4.4055084, "tags": {"layer": "-2", "location": "underground", "name": "Boileau", "public_transport": "stop_position", "railway": "tram_stop", "tram": "yes"}}, {"type": "node", "id": 3137393056, "lat": 50.832935, "lon": 4.4051547, "tags": {"layer": "-2", "location": "underground", "name": "Boileau", "public_transport": "stop_position", "railway": "tram_stop", "tram": "yes"}}, {"type": "node", "id": 4429903170, "lat": 50.8380343, "lon": 4.4055287, "tags": {"name": "Montgomery", "public_transport": "stop_position", "railway": "tram_stop", "tram": "yes"}}, {"type": "node", "id": 4491294555, "lat": 50.8391883, "lon": 4.3999713, "tags": {"name": "Merode", "public_transport": "stop_position", "railway": "tram_stop", "tram": "yes"}}, {"type": "node", "id": 4491294556, "lat": 50.8392916, "lon": 4.3996179, "tags": {"name": "Merode", "public_transport": "stop_position", "railway": "tram_stop", "tram": "yes"}}, {"type": "node", "id": 4491307684, "lat": 50.8370712, "lon": 4.3957265, "tags": {"name": "Place Saint-Pierre - St-Pietersplein", "name:fr": "Place Saint-Pierre", "name:nl": "St-Pietersplein", "public_transport": "stop_position", "railway": "tram_stop", "tram": "yes"}}, {"type": "node", "id": 4491307685, "lat": 50.8372684, "lon": 4.3960382, "tags": {"name": "Place Saint-Pierre - St-Pietersplein", "name:fr": "Place Saint-Pierre", "name:nl": "St-Pietersplein", "public_transport": "stop_position", "railway": "tram_stop", "tram": "yes"}}, {"type": "node", "id": 4497142203, "lat": 50.8343152, "lon": 4.3933636, "tags": {"name": "Acacias - Acacia", "name:fr": "Acacias", "name:nl": "Acacia", "public_transport": "stop_position", "railway": "tram_stop", "tram": "yes"}}, {"type": "node", "id": 4497142211, "lat": 50.834079, "lon": 4.3931182, "tags": {"name": "Acacias - Acacia", "name:fr": "Acacias", "name:nl": "Acacia", "public_transport": "stop_position", "railway": "tram_stop", "tram": "yes"}}, {"type": "node", "id": 4771110058, "lat": 50.8295769, "lon": 4.4028084, "tags": {"name": "P\u00e9tillon", "public_transport": "stop_position", "railway": "tram_stop", "tram": "yes"}}, {"type": "node", "id": 4922160218, "lat": 50.8266338, "lon": 4.3977132, "tags": {"name": "Arsenal - Arsenaal", "name:fr": "Arsenal", "name:nl": "Arsenaal", "public_transport": "stop_position", "railway": "tram_stop", "tram": "yes"}}]}