{"version": 0.6, "generator": "Overpass API 0.7.62.10 2d4cfc48", "osm3s": {"timestamp_osm_base": "2026-02-02T17:22:28Z", "copyright": "The data included in this document is from www.openstreetmap.org. The data is made available under ODbL."}, "elements": [{"type": "node", "id": 3132578871, "lat": 50.8063059, "lon": 4.3876632, "tags": {"name": "Marie-Jos\u00e9", "public_transport": "stop_position", "railway": "tram_stop", "tram": "yes"}}, {"type": "node", "id": 3132579310, "lat": 50.8136576, "lon": 4.384323, "tags": {"name": "ULB", "public_transport": "stop_position", "railway": "tram_stop", "tram": "yes", "wikidata": "Q30250626"}}, {"type": "node", "id": 3132579460, "lat": 50.8155104, "lon": 4.3835491, "tags": {"name": "Jeanne - Johanna", "name:fr": "Jeanne", "name:nl": "Johanna", "public_transport": "stop_position", "railway": "tram_stop", "tram": "yes"}}, {"type": "node", "id": 3136263665, "lat": 50.8014266, "lon": 4.393004, "tags": {"name": "Boondael Gare - Boondaal Station", "name:fr": "Boondael Gare", "name:nl": "Boondaal Station", "public_transport": "stop_position", "railway": "tram_stop", "tram": "yes"}}, {"type": "node", "id": 4049927656, "lat": 50.8104995, "lon": 4.385857, "tags": {"name": "Solbosch - Solbos", "name:fr": "Solbosch", "name:nl": "Solbos", "public_transport": "stop_position", "railway": "tram_stop", "tram": "yes"}}, {"type": "node", "id": 4049927657, "lat": 50.8108344, "lon": 4.3858335, "tags": {"name": "Solbosch - Solbos", "name:fr": "Solbosch", "name:nl": "Solbos", "public_transport": "stop_position", "railway": "tram_stop", "tram": "yes"}}, {"type": "node", "id": 4233699612, "lat": 50.8027502, "lon": 4.3904305, "tags": {"name": "Br\u00e9sil - Brazili\u00eb", "name:fr": "Br\u00e9sil", "name:nl": "Brazili\u00eb", "public_transport": "stop_position", "railway": "tram_stop", "tram": "yes"}}, {"type": "node", "id": 4233699614, "lat": 50.8028597, "lon": 4.39037, "tags": {"name": "Br\u00e9sil - Brazili\u00eb", "name:fr": "Br\u00e9sil", "name:nl": "Brazili\u00eb", "public_transport": "stop_position", "railway": "tram_stop", "tram": "yes"}}, {"type": "node", "id": 4665178998, "lat": 50.8140554, "lon": 4.3841294, "tags": {"name": "ULB", "public_transport": "stop_position", "railway": "tram_stop", "tram": "yes", "wikidata": "Q30250626"}}, {"type": "node", "id": 4977342292, "lat": 50.8066167, "lon": 4.3876683, "tags": {"name": "Marie-Jos\u00e9", "public_transport": "stop_position", "railway": "tram_stop", "tram": "yes"}}]}