{"version": 0.6, "generator": "Overpass API 0.7.62.10 2d4cfc48", "osm3s": {"timestamp_osm_base": "2026-02-02T14:50:14Z", "copyright": "The data included in this document is from www.openstreetmap.org. The data is made available under ODbL."}, "elements": [{"type": "node", "id": 3137393018, "lat": 50.8292856, "lon": 4.4023585, "tags": {"name": "P\u00e9tillon", "public_transport": "stop_position", "railway": "tram_stop", "tram": "yes"}}, {"type": "node", "id": 4491307684, "lat": 50.8370712, "lon": 4.3957265, "tags": {"name": "Place Saint-Pierre - St-Pietersplein", "name:fr": "Place Saint-Pierre", "name:nl": "St-Pietersplein", "public_transport": "stop_position", "railway": "tram_stop", "tram": "yes"}}, {"type": "node", "id": 4491307685, "lat": 50.8372684, "lon": 4.3960382, "tags": {"name": "Place Saint-Pierre - St-Pietersplein", "name:fr": "Place Saint-Pierre", "name:nl": "St-Pietersplein", "public_transport": "stop_position", "railway": "tram_stop", "tram": "yes"}}, {"type": "node", "id": 4497142203, "lat": 50.8343152, "lon": 4.3933636, "tags": {"name": "Acacias - Acacia", "name:fr": "Acacias", "name:nl": "Acacia", "public_transport": "stop_position", "railway": "tram_stop", "tram": "yes"}}, {"type": "node", "id": 4497142211, "lat": 50.834079, "lon": 4.3931182, "tags": {"name": "Acacias - Acacia", "name:fr": "Acacias", "name:nl": "Acacia", "public_transport": "stop_position", "railway": "tram_stop", "tram": "yes"}}, {"type": "node", "id": 4771110058, "lat": 50.8295769, "lon": 4.4028084, "tags": {"name": "P\u00e9tillon", "public_transport": "stop_position", "railway": "tram_stop", "tram": "yes"}}]}