{"version": 0.6, "generator": "Overpass API 0.7.62.10 2d4cfc48", "osm3s": {"timestamp_osm_base": "2026-02-02T17:09:04Z", "copyright": "The data included in this document is from www.openstreetmap.org. The data is made available under ODbL."}, "elements": [{"type": "node", "id": 870247035, "lat": 50.8504401, "lon": 4.3467468, "tags": {"amenity": "cafe", "bar": "yes", "check_date": "2023-07-07", "contact:email": "info@cafedemarkten.be", "contact:facebook": "cafedemarkten", "contact:instagram": "cafedemarkten", "contact:website": "https://www.cafedemarkten.be/", "diet:gluten_free": "yes", "diet:vegetarian": "yes", "happy_hours": "Mo-Sa 20:00-21:00", "internet_access": "wlan", "internet_access:fee": "no", "name": "Caf\u00e9 De Markten", "opening_hours": "Mo-Sa 08:00-00:00; Su 10:00-24:00", "operator": "Gemeenschapscentrum De Markten", "operator:wikidata": "Q33100331", "outdoor_seating": "yes", "smoking": "no", "takeaway": "no", "wheelchair": "limited"}}, {"type": "node", "id": 2420204404, "lat": 50.853365, "lon": 4.3465785, "tags": {"amenity": "cafe", "cuisine": "ice_cream", "name": "Gasterea"}}, {"type": "node", "id": 2422528369, "lat": 50.852399, "lon": 4.3481654, "tags": {"amenity": "cafe", "indoor_seating": "yes", "name": "La P\u00e9niche", "outdoor_seating": "yes", "wheelchair": "no"}}, {"type": "node", "id": 2422528370, "lat": 50.8521145, "lon": 4.3483614, "tags": {"amenity": "cafe", "description": "Breakfast, brunch", "name": "Woodpecker", "opening_hours": "Mo-Fr 09:30-16:00; Sa,Su 09:00-17:00", "outdoor_seating": "sidewalk", "wheelchair": "no"}}, {"type": "node", "id": 2518122610, "lat": 50.8526565, "lon": 4.3456354, "tags": {"amenity": "cafe", "indoor_seating": "yes", "name": "Au Laboureur", "opening_hours": "Mo-Su 08:30-22:00", "outdoor_seating": "yes", "smoking": "outside", "wheelchair": "limited"}}, {"type": "node", "id": 2522239625, "lat": 50.8468355, "lon": 4.3475706, "tags": {"amenity": "cafe", "contact:email": "moka.coffeeandbeer@gmail.com", "contact:facebook": "https://www.facebook.com/moka.coffee.and.beer/", "cuisine": "coffee_shop", "description": "Moka - Coffee & Beer is specialized in coffee and beer and works with the new Brussels brewery \"iLLeGaaL\". We are creators of our own coffee blend. We also lovingly make our pastries, carrot cakes, chocolate pies, lemon pies, cookies...", "name": "Moka", "opening_hours": "Tu-Fr 08:30-18:00; Sa 11:00-18:00"}}, {"type": "node", "id": 2522239653, "lat": 50.8480374, "lon": 4.3463544, "tags": {"amenity": "cafe", "check_date": "2023-09-27", "contact:website": "https://boomcafe.be/", "cuisine": "coffee_shop", "indoor_seating": "yes", "internet_access": "wlan", "name": "BoOm Caf\u00e9 Associatif", "opening_hours": "We-Su 15:00-21:00", "outdoor_seating": "yes", "smoking": "outside"}}, {"type": "node", "id": 2522239659, "lat": 50.8480463, "lon": 4.3458585, "tags": {"amenity": "cafe", "contact:instagram": "cafe.tiera", "contact:website": "https://cafetiera.be/", "cuisine": "bagel;coffee_shop;sandwich", "name": "Caf\u00e9 Tiera", "opening_hours": "Mo-Su 09:00-19:00", "outdoor_seating": "yes", "start_date": "2020-06-08"}}, {"type": "node", "id": 2522741195, "lat": 50.8528472, "lon": 4.3417514, "tags": {"amenity": "cafe", "contact:email": "info@mokcoffee.be", "contact:instagram": "https://www.instagram.com/mok_coffee/", "contact:website": "https://mokcoffee.be/", "cuisine": "coffee_shop", "name": "MOK", "opening_hours": "Mo-Fr 09:00-18:00; Sa-Su 10:00-18:00"}}, {"type": "node", "id": 3328725119, "lat": 50.8512007, "lon": 4.3499391, "tags": {"amenity": "cafe", "contact:phone": "+32 2 229 00 09", "contact:website": "http://www.grimbergencafe.be/", "cuisine": "regional", "internet_access": "wlan", "internet_access:fee": "no", "name": "Grimbergen Caf\u00e9", "opening_hours:signed": "no"}}, {"type": "node", "id": 4341462839, "lat": 50.8511383, "lon": 4.3504007, "tags": {"amenity": "cafe", "contact:phone": "+32 2 223 33 46", "cuisine": "sandwich", "name": "El Bocadillo", "opening_hours": "Mo-Sa 08:00-15:00; Su off", "payment:cash": "yes", "payment:credit_cards": "no", "payment:maestro": "yes", "takeaway": "yes"}}, {"type": "node", "id": 4461557971, "lat": 50.8494721, "lon": 4.3505116, "tags": {"amenity": "cafe", "check_date:opening_hours": "2026-01-05", "indoor_seating": "yes", "name": "Coffee Star", "opening_hours:signed": "no", "outdoor_seating": "yes", "wheelchair": "yes"}}, {"type": "node", "id": 4560049049, "lat": 50.8493435, "lon": 4.3491946, "tags": {"amenity": "cafe", "brand:wikidata": "Q122764967", "check_date": "2025-06-26", "contact:email": "info@santospalace.be", "contact:facebook": "santospalace", "contact:linkedin": "santos-palace", "contact:phone": "+32 2 512 39 53", "contact:website": "http://www.santospalace.be/", "cuisine": "coffee_shop", "name": "Santos Palace", "outdoor_seating": "yes", "shop": "coffee"}}, {"type": "node", "id": 4757690327, "lat": 50.8493204, "lon": 4.3476079, "tags": {"amenity": "cafe", "contact:website": "https://www.kagetea.be/daybar", "drink": "tea", "name": "Kage"}}, {"type": "node", "id": 5091666254, "lat": 50.8515387, "lon": 4.3506213, "tags": {"alt_name": "Caf\u00e9 de la Poste", "amenity": "cafe", "indoor_seating": "yes", "name": "Brasserie de la Poste", "opening_hours:signed": "no", "outdoor_seating": "yes"}}, {"type": "node", "id": 5091666256, "lat": 50.8513881, "lon": 4.350554, "tags": {"amenity": "cafe", "name": "The Why Caf\u00e9"}}, {"type": "node", "id": 5254367030, "lat": 50.8492017, "lon": 4.347357, "tags": {"amenity": "cafe", "brand": "Le Pain Quotidien", "brand:wikidata": "Q2046903", "contact:phone": "+32 2 502 23 61", "contact:website": "http://www.lepainquotidien.be/be/store/le-pain-quotidien-dansaert-nl/", "cuisine": "coffee_shop", "diet:vegan": "yes", "diet:vegetarian": "yes", "name": "Le Pain Quotidien", "opening_hours": "Mo-Su,PH 07:00-19:00", "shop": "bakery", "takeaway": "yes"}}, {"type": "node", "id": 6801360550, "lat": 50.8516121, "lon": 4.3487074, "tags": {"amenity": "cafe", "check_date": "2024-08-24", "contact:instagram": "https://www.instagram.com/drache.bxl", "cuisine": "coffee_shop;pastry", "indoor_seating": "yes", "internet_access": "wlan", "internet_access:fee": "no", "name": "DRACHE Specialty Coffee Bar", "opening_hours": "Mo-Fr 11:00-18:00; Sa 10:30-18:00; Su 11:00-18:00", "outdoor_seating": "yes", "payment:american_express": "yes", "payment:cards": "yes", "payment:coins": "yes", "payment:contactless": "yes", "payment:credit_cards": "yes", "payment:debit_cards": "yes", "payment:maestro": "yes", "payment:mastercard": "yes", "payment:notes": "yes", "payment:visa": "yes", "payment:visa_debit": "yes"}}, {"type": "node", "id": 7231290685, "lat": 50.8522187, "lon": 4.3473679, "tags": {"amenity": "cafe", "contact:website": "https://cecilebrussels.be", "cuisine": "coffee_shop", "description": "Het allround food & event concept 'C\u00e9cile' uit Brussel ontstond in 2016 vanuit de zin in ontbijt op bed. Vandaag kan je bij 'C\u00e9cile' terecht voor catering maar ook ter plaatse in onze comptoir voor ontbijt, brunch, lunch en patisserie.", "name": "C\u00e9cile", "opening_hours": "Sa 10:00-15:00; Su 10:00-15:00", "outdoor_seating": "sidewalk", "shop": "pastry", "start_date": "2016"}}, {"type": "node", "id": 7976089830, "lat": 50.8487835, "lon": 4.3487673, "tags": {"amenity": "cafe", "brand": "IzyCoffee", "brand:wikidata": "Q124358963", "contact:facebook": "https://www.facebook.com/IzyCoffee", "contact:website": "https://www.izycoffee.be", "cuisine": "coffee_shop", "indoor_seating": "yes", "internet_access": "wlan", "internet_access:fee": "customers", "name": "Izy Coffee", "old_name": "OR Espressobar / Ana Attento", "opening_hours": "07:00-22:00", "outdoor_seating": "yes", "payment:cash": "yes", "payment:contactless": "yes", "takeaway": "yes", "website:menu": "https://www.izycoffee.be/koffiekaart", "wheelchair": "limited"}}, {"type": "node", "id": 10101802298, "lat": 50.8497472, "lon": 4.3470437, "tags": {"amenity": "cafe", "contact:website": "https://kafeidansaert.eatbu.com/", "cuisine": "coffee_shop", "name": "Kafei Dansaert", "opening_hours": "Mo off; Tu-Fr 08:30-16:00; Sa,Su 10:00-17:00"}}, {"type": "node", "id": 10839632912, "lat": 50.849484, "lon": 4.3486962, "tags": {"amenity": "cafe", "name": "Wide Awake Coffe St. Cat"}}, {"type": "node", "id": 10886115141, "lat": 50.8479676, "lon": 4.3489635, "tags": {"amenity": "cafe", "check_date": "2025-03-28", "indoor_seating": "yes", "name": "Mon Ch\u00e9ri", "opening_hours": "09:00-23:00", "outdoor_seating": "yes", "payment:cash": "yes", "payment:credit_cards": "yes", "payment:debit_cards": "yes", "start_date": "2023-05"}}, {"type": "node", "id": 10911058544, "lat": 50.8490256, "lon": 4.3457393, "tags": {"amenity": "cafe", "contact:instagram": "addis_stories", "cuisine": "ethiopian", "name": "Addis Stories"}}, {"type": "node", "id": 11389803742, "lat": 50.8481272, "lon": 4.3485513, "tags": {"amenity": "cafe", "name": "Bubble", "panoramax": "3bda7608-cef5-44ac-af7c-585ffe58b510"}}, {"type": "node", "id": 11391886969, "lat": 50.8489087, "lon": 4.3467408, "tags": {"amenity": "cafe", "contact:instagram": "https://www.instagram.com/cafe_encre/", "cuisine": "coffee_shop", "name": "Encr\u00e9. Caf\u00e9", "opening_hours": "Tu-Sa 10:00-19:00; Mo,Su off"}}, {"type": "node", "id": 11436035420, "lat": 50.8478006, "lon": 4.3487905, "tags": {"amenity": "cafe", "indoor_seating": "yes", "name": "Affligem", "opening_hours": "Mo-Sa 11:00-24:00+; Su 12:00-24:00+", "outdoor_seating": "yes"}}, {"type": "node", "id": 11598862631, "lat": 50.8519736, "lon": 4.343669, "tags": {"amenity": "cafe", "cuisine": "portuguese", "diet:vegan": "no", "diet:vegetarian": "yes", "name": "Forcado", "opening_hours": "Tu-Su 10:00-18:00", "website": "https://www.forcado.be/"}}, {"type": "node", "id": 12224044705, "lat": 50.8497628, "lon": 4.3466262, "tags": {"amenity": "cafe", "check_date:opening_hours": "2024-10-05", "name": "Voort x Velvet", "opening_hours:signed": "no", "website": "https://voortstudio.com/Voort-x-Velvet"}}, {"type": "node", "id": 12313004144, "lat": 50.8521841, "lon": 4.3509132, "tags": {"amenity": "cafe", "name": "Street Art Coffee"}}, {"type": "node", "id": 12643811253, "lat": 50.8477159, "lon": 4.3456939, "tags": {"amenity": "cafe", "cuisine": "cake;coffee_shop", "name": "Jon's Cafe", "opening_hours": "Mo-Su 11:00-04:00"}}, {"type": "node", "id": 12843798656, "lat": 50.8507981, "lon": 4.3510359, "tags": {"amenity": "cafe", "description": "Coffee, breakfast, lunch, salad, pasta, sandwich", "name": "Mint & Basil"}}, {"type": "node", "id": 12877016997, "lat": 50.8557807, "lon": 4.3459214, "tags": {"amenity": "cafe", "name": "O' Chicago Brunch", "operator": "La Chocolatine"}}, {"type": "node", "id": 12999098388, "lat": 50.8468993, "lon": 4.3471761, "tags": {"amenity": "cafe", "contact:instagram": "https://www.instagram.com/rarebrusselscafe", "drinking_water:refill": "yes", "drinking_water:refill:network": "BXL Plan climat - Klimaatplan", "name": "RAE"}}]}