{"version": 0.6, "generator": "Overpass API 0.7.62.10 2d4cfc48", "osm3s": {"timestamp_osm_base": "2026-02-02T16:53:46Z", "copyright": "The data included in this document is from www.openstreetmap.org. The data is made available under ODbL."}, "elements": [{"type": "node", "id": 488330252, "lat": 50.8499301, "lon": 4.379668, "tags": {"amenity": "restaurant", "contact:facebook": "https://m.facebook.com/people/CHEZ-FIRAS/100076249354461/", "cuisine": "syrian", "name": "Chez Firas", "was:name": "Le Mezze"}}, {"type": "node", "id": 1639224198, "lat": 50.8441739, "lon": 4.3841565, "tags": {"amenity": "restaurant", "check_date": "2023-08-26", "contact:website": "https://lecoindudiable.com/", "name": "Le Coin du Diable", "name:en": "The Devil\u2019s Corner"}}, {"type": "node", "id": 2382490251, "lat": 50.8445241, "lon": 4.384433, "tags": {"amenity": "restaurant", "check_date": "2023-08-26", "contact:phone": "+32 2 736 76 19", "contact:website": "https://lariviera.be/", "cuisine": "italian", "delivery": "yes", "name": "La Riviera", "opening_hours": "Mo-Fr 12:00-15:00, 18:00-23:00; Sa,Su 18:00-23:00", "outdoor_seating": "patio", "wheelchair": "no"}}, {"type": "node", "id": 2383033179, "lat": 50.8451019, "lon": 4.3797186, "tags": {"amenity": "restaurant", "check_date": "2025-04-09", "contact:mobile": "+32 470 83 3530", "contact:website": "https://elquetzalbxl.com", "cuisine": "mexican", "delivery": "yes", "description": "Mexican Restaurant & Bar", "name": "El Quetzal", "opening_hours": "Mo-Fr 12:00-15:00,18:00-22:00; Sa 12:00-22:00; Su off"}}, {"type": "node", "id": 2383044819, "lat": 50.8446756, "lon": 4.3819468, "tags": {"amenity": "restaurant", "cuisine": "sushi", "diet:vegetarian": "yes", "indoor_seating": "yes", "name": "Houchou", "opening_hours": "Mo-Fr 12:00-20:30", "outdoor_seating": "yes"}}, {"type": "node", "id": 2385647061, "lat": 50.8450441, "lon": 4.3790756, "tags": {"amenity": "restaurant", "contact:website": "https://www.mazmiz.be/", "cuisine": "lebanese", "name": "Mazmiz", "opening_hours": "Mo-Fr 11:30-18:30"}}, {"type": "node", "id": 2403700022, "lat": 50.8492301, "lon": 4.389329, "tags": {"amenity": "restaurant", "contact:phone": "+32 2 351 63 23", "contact:website": "https://topogigiobruxelles.be", "cuisine": "italian;pizza", "diet:vegan": "no", "diet:vegetarian": "yes", "internet_access": "wlan", "name": "TopoGigio"}}, {"type": "node", "id": 2403723652, "lat": 50.8493697, "lon": 4.3836126, "tags": {"amenity": "restaurant", "diet:vegan": "no", "diet:vegetarian": "yes", "name": "Smyrna"}}, {"type": "node", "id": 2477930450, "lat": 50.8485556, "lon": 4.3758319, "tags": {"amenity": "restaurant", "contact:website": "https://www.new-saigon-bangkok.be/", "name": "New Saigon Bangkok", "opening_hours": "Mo-Fr 11:30-14:30, 17:30-22:00; Sa-Su 17:30-22:00;PH open", "panoramax": "0ce2d627-c5fb-46ac-9d78-1bfee289cfe2", "takeaway": "yes"}}, {"type": "node", "id": 2489046144, "lat": 50.8459591, "lon": 4.3721222, "tags": {"amenity": "restaurant", "changing_table": "no", "changing_table:adult": "no", "check_date:opening_hours": "2023-04-01", "contact:email": "contact@kamilou.be", "contact:phone": "+32 2 894 46 67", "contact:website": "https://www.kamilou.be/en/restaurant-at-arts-loi/", "delivery": "yes", "diet:vegan": "no", "diet:vegetarian": "no", "entrance:step_count": "0", "entrance:width": "1.04", "internet_access": "wlan", "name": "Kamilou", "opening_hours:signed": "no", "outdoor_seating": "yes", "takeaway": "yes", "wheelchair:turning_circle": "no"}}, {"type": "node", "id": 4117650193, "lat": 50.8440386, "lon": 4.3850059, "tags": {"amenity": "restaurant", "cuisine": "italian", "name": "Costa d'Amalfi", "opening_hours": "Mo-Fr 12:00-14:30,18:30-21:30; Sa 19:00-22:00"}}, {"type": "node", "id": 4245869257, "lat": 50.8451997, "lon": 4.389885, "tags": {"amenity": "restaurant", "diet:vegetarian": "yes", "name": "Punjabi Village"}}, {"type": "node", "id": 4329701312, "lat": 50.8455437, "lon": 4.3776006, "tags": {"amenity": "restaurant", "contact:website": "https://www.greekit.be", "cuisine": "greek", "entrance:kerb:height": "0.3", "entrance:step_count": "2", "entrance:width": "0.7", "name": "Greekit", "opening_hours": "Mo-Fr 12:00-15:00,18:00-22:00; Sa-Su off", "toilets:wheelchair": "no", "wheelchair:turning_circle": "yes"}}, {"type": "node", "id": 4564340236, "lat": 50.8443539, "lon": 4.3840114, "tags": {"amenity": "restaurant", "contact:email": "schuman@lebotaniste.eu", "contact:facebook": "https://www.facebook.com/Le-Botaniste-Schuman-285120478973780/", "contact:phone": "+32 2 646 44 47", "contact:website": "https://www.lebotaniste.eu/", "description": "Plant-based Organic Food & Wine Bar", "diet:gluten_free": "only", "diet:vegan": "only", "diet:vegetarian": "only", "level": "0", "name": "Le Botaniste", "opening_hours": "Mo-Fr 08:30-21:30; Sa-Su 11:30-21:30", "organic": "only", "takeaway": "yes", "toilets": "yes", "wheelchair": "no"}}, {"type": "node", "id": 4564340242, "lat": 50.8444586, "lon": 4.3848628, "tags": {"amenity": "restaurant", "contact:email": "purevegindia.brussels@gmail.com", "contact:phone": "+32 2 375 45 21", "cuisine": "indian;buffet", "diet:vegan": "yes", "diet:vegetarian": "yes", "name": "Pure Veg India", "opening_hours": "Mo-Th,Sa-Su 12:00-15:00,18:00-21:00; Fr 12:00-15:00,18:00-22:00"}}, {"type": "node", "id": 4564340244, "lat": 50.8442666, "lon": 4.3843764, "tags": {"amenity": "restaurant", "contact:email": "restaurant@kamea.be", "contact:mobile": "+32 468 30 56 46;+32 484 18 01 24", "contact:website": "https://kamea.be/", "full_name": "Kamea Restaurant Cocktails & Lounge", "name": "Kamea", "opening_hours": "Mo,Su off; Tu-Sa 18:00-02:00", "opening_hours:kitchen": "Tu-Sa 18:30-22:30"}}, {"type": "node", "id": 4564340245, "lat": 50.8443052, "lon": 4.3844744, "tags": {"amenity": "restaurant", "cuisine": "pizza", "name": "Il Gallo Nero"}}, {"type": "node", "id": 4564340246, "lat": 50.8444119, "lon": 4.3841849, "tags": {"amenity": "restaurant", "check_date": "2025-06-22", "check_date:diet:vegetarian": "2025-06-22", "check_date:opening_hours": "2024-05-25", "cuisine": "lebanese", "diet:vegetarian": "yes", "name": "L'Or du Liban", "opening_hours:signed": "no"}}, {"type": "node", "id": 4564340248, "lat": 50.8442297, "lon": 4.3842827, "tags": {"amenity": "restaurant", "contact:phone": "+32 2 736 57 73", "contact:website": "https://labrace1973.be/", "cuisine": "pizza;italian", "diet:vegetarian": "yes", "name": "La Brace", "start_date": "1973"}}, {"type": "node", "id": 4895392733, "lat": 50.8472826, "lon": 4.3723718, "tags": {"alt_name": "les quatre jeudis", "amenity": "restaurant", "contact:phone": "+32 2 721 10 49", "contact:website": "https://les4jeudis.be/en", "diet:vegan": "only", "diet:vegetarian": "only", "name": "Les 4 Jeudis", "opening_hours": "Mo-Fr 12:00-14:15; Sa-Su off"}}, {"type": "node", "id": 5242459221, "lat": 50.8468884, "lon": 4.3747165, "tags": {"amenity": "restaurant", "check_date:opening_hours": "2025-12-17", "comment": "geen toegang tot toilet", "contact:website": "https://www.aufildessaveurs.be", "cuisine": "sandwich;argentinian;italian", "entrance:kerb:height": "0.17", "entrance:step_count": "2", "entrance:width": "0.9", "name": "Au Fil des Saveurs", "opening_hours:signed": "no"}}, {"type": "node", "id": 6037168020, "lat": 50.8440945, "lon": 4.3845269, "tags": {"amenity": "restaurant", "check_date": "2023-10-17", "contact:phone": "+32 2 734 54 38", "cuisine": "vietnamese", "name": "La Baie d'Ha-Long", "takeaway": "yes"}}, {"type": "node", "id": 6228390240, "lat": 50.8491547, "lon": 4.3773121, "tags": {"amenity": "restaurant", "entrance:kerb:height": "0", "entrance:step_count": "0", "entrance:width": "0.92", "name": "Au c\u0153ur de SJTN"}}, {"type": "node", "id": 6556403946, "lat": 50.8469654, "lon": 4.375044, "tags": {"amenity": "restaurant", "check_date": "2024-09-11", "comment": "geen toegang tot toilet", "contact:email": "mitango@outlook.be", "contact:mobile": "+32 494 68 71 49", "contact:phone": "+32 2 230 99 95", "contact:website": "https://www.mitango-bruxelles.be/", "cuisine": "argentinian", "entrance:kerb:height": "0.17", "entrance:step_count": "1", "entrance:width": "0.94", "name": "Mi-Tango", "opening_hours": "Mo-Fr 12:00-14:00,19:00-22:00"}}, {"type": "node", "id": 6564758923, "lat": 50.8438618, "lon": 4.3867482, "tags": {"amenity": "restaurant", "contact:email": "info@belgitude.brussels", "contact:phone": "+32 2 736 18 70", "contact:website": "https://belgitude.brussels", "cuisine": "regional", "name": "La Belgitude", "opening_hours": "Mo-Fr 11:30-15:00; Th-Fr 18:30-22:00"}}, {"type": "node", "id": 6812386840, "lat": 50.8459984, "lon": 4.3718531, "tags": {"amenity": "restaurant", "bar": "yes", "check_date": "2025-04-09", "level": "0", "name": "Le Cinquante et Un"}}, {"type": "node", "id": 6813221685, "lat": 50.844651, "lon": 4.3839882, "tags": {"amenity": "restaurant", "check_date": "2023-10-17", "contact:phone": "+32 2 230 15 79", "contact:website": "http://www.kinghwa.be", "cuisine": "chinese;thai;vietnamese", "name": "King Hwa", "opening_hours": "Tu-Su 12:00-14:30, 18:30-22:30; Mo 12:00-14:30"}}, {"type": "node", "id": 6876030785, "lat": 50.8442843, "lon": 4.3836712, "tags": {"amenity": "restaurant", "check_date": "2026-01-31", "contact:phone": "+32 2 720 66 30", "contact:website": "https://www.berlaymontbrasserie.be/", "diet:vegetarian": "yes", "indoor_seating": "yes", "name": "Berlaymont Caf\u00e9 Brasserie", "opening_hours": "Mo-Th 09:00-22:30; Fr-Su 09:00-23:00", "outdoor_seating": "yes"}}, {"type": "node", "id": 7264616885, "lat": 50.8484265, "lon": 4.3760907, "tags": {"amenity": "restaurant", "cuisine": "moroccan", "diet:vegetarian": "yes", "name": "Le P'tit Chouia En +", "opening_hours:signed": "no", "panoramax": "3fcc46b1-5854-4a7a-b199-70fd877bcb74"}}, {"type": "node", "id": 9367105997, "lat": 50.8463349, "lon": 4.381861, "tags": {"amenity": "restaurant", "contact:phone": "+32 2 808 25 20", "contact:website": "https://www.buonobuonofattoincasa.be/", "cuisine": "italian", "full_name": "Buono Buono Fatto in Casa", "name": "Buono Buono", "panoramax": "992f6bc7-27c1-46e8-8bc3-dc1de736269c", "surveillance": "yes"}}, {"type": "node", "id": 10139555020, "lat": 50.8483019, "lon": 4.3739207, "tags": {"amenity": "restaurant", "diet:vegan": "no", "diet:vegetarian": "yes", "name": "La Sardegna", "website": "https://www.la-sardegna.be"}}, {"type": "node", "id": 10199671719, "lat": 50.8473335, "lon": 4.3730864, "tags": {"amenity": "restaurant", "contact:facebook": "https://www.facebook.com/people/Au-Chapati/100083685124935/", "contact:mobile": "+32 473 64 11 74", "cuisine": "indian", "entrance:kerb:height": "0.2", "entrance:step_count": "2", "entrance:width": "0.8", "name": "Au Chapati", "opening_hours": "Mo-Fr 11:30-15:00, 18:30-21:00"}}, {"type": "node", "id": 11269864680, "lat": 50.8445947, "lon": 4.3836469, "tags": {"amenity": "restaurant", "cuisine": "italian", "name": "Sofia"}}, {"type": "node", "id": 11811933070, "lat": 50.8447587, "lon": 4.3813429, "tags": {"amenity": "restaurant", "check_date": "2026-02-01", "contact:email": "schuman@meetmeat.be", "contact:fax": "+32 2 231 07 42", "contact:website": "https://meatmeet.be/", "cuisine": "steak_house", "name": "Meet Meat Schuman", "outdoor_seating": "yes", "payment:apple_pay": "yes", "payment:cards": "yes", "payment:cash": "yes", "payment:credit_cards": "yes", "payment:debit_cards": "yes", "payment:mastercard": "yes", "payment:visa": "yes", "payment:visa_debit": "yes", "reservation": "recommended", "toilets": "yes"}}, {"type": "node", "id": 11828429556, "lat": 50.8453105, "lon": 4.3870336, "tags": {"amenity": "restaurant", "contact:phone": "+32 2 736 20 02", "contact:website": "https://www.atlantideresto.be", "cuisine": "greek", "diet:vegetarian": "yes", "name": "L\u2019Atlantide", "opening_hours": "Mo-Fr 12:00-14:30,19:00-21:30", "outdoor_seating": "yes"}}, {"type": "node", "id": 12075764255, "lat": 50.8477908, "lon": 4.388758, "tags": {"amenity": "restaurant", "check_date": "2025-10-22", "check_date:diet:vegan": "2025-10-22", "check_date:diet:vegetarian": "2025-10-22", "check_date:opening_hours": "2025-06-22", "contact:phone": "+32 2 374 23 35", "cuisine": "pizza;italian", "diet:vegan": "no", "diet:vegetarian": "yes", "name": "Nati A Palermo", "opening_hours": "Mo-Sa 18:00-22:00", "reservation": "yes", "takeaway": "yes", "toilets": "yes"}}, {"type": "node", "id": 12743118713, "lat": 50.8446822, "lon": 4.3817618, "tags": {"amenity": "restaurant", "check_date": "2025-04-09", "cuisine": "greek", "name": "Kafenio"}}, {"type": "node", "id": 12743131203, "lat": 50.8447025, "lon": 4.381663, "tags": {"amenity": "restaurant", "bar": "yes", "check_date": "2025-04-09", "name": "Atrio"}}, {"type": "node", "id": 12743138387, "lat": 50.8448617, "lon": 4.3809365, "tags": {"amenity": "restaurant", "check_date": "2025-04-09", "name": "Asian Fusion"}}, {"type": "node", "id": 12743144069, "lat": 50.8447972, "lon": 4.3811914, "tags": {"amenity": "restaurant", "check_date": "2025-04-09", "cuisine": "italian", "name": "L'anchois vert"}}, {"type": "node", "id": 12743278903, "lat": 50.8449615, "lon": 4.3804338, "tags": {"amenity": "restaurant", "check_date": "2025-04-09", "cuisine": "indian", "indoor_seating": "yes", "name": "Spicy Grill", "outdoor_seating": "yes"}}, {"type": "node", "id": 12885927090, "lat": 50.8443704, "lon": 4.3831975, "tags": {"amenity": "restaurant", "cuisine": "greek", "indoor_seating": "yes", "name": "Wine not?", "opening_hours": "Mo-Sa 11:00-23:00", "outdoor_seating": "yes"}}, {"type": "node", "id": 13371806526, "lat": 50.8483079, "lon": 4.3741255, "tags": {"amenity": "restaurant", "cuisine": "indian", "diet:vegetarian": "yes", "name": "Rangla Punjab"}}]}