{"version": 0.6, "generator": "Overpass API 0.7.62.10 2d4cfc48", "osm3s": {"timestamp_osm_base": "2026-02-02T15:50:30Z", "copyright": "The data included in this document is from www.openstreetmap.org. The data is made available under ODbL."}, "elements": [{"type": "node", "id": 144233067, "lat": 50.8333082, "lon": 4.3570543, "tags": {"name": "St\u00e9phanie - Stefania", "name:fr": "St\u00e9phanie", "name:nl": "Stefania", "public_transport": "stop_position", "railway": "tram_stop", "tram": "yes"}}, {"type": "node", "id": 144233079, "lat": 50.8329629, "lon": 4.3577955, "tags": {"name": "St\u00e9phanie - Stefania", "name:fr": "St\u00e9phanie", "name:nl": "Stefania", "public_transport": "stop_position", "railway": "tram_stop", "tram": "yes"}}, {"type": "node", "id": 144233115, "lat": 50.8294134, "lon": 4.3614891, "tags": {"name": "Defacqz", "public_transport": "stop_position", "railway": "tram_stop", "tram": "yes", "wikidata": "Q47433037"}}, {"type": "node", "id": 305344658, "lat": 50.8157093, "lon": 4.3492078, "tags": {"name": "Moli\u00e8re", "public_transport": "stop_position", "railway": "tram_stop", "tram": "yes"}}, {"type": "node", "id": 488624619, "lat": 50.8249254, "lon": 4.3585916, "tags": {"name": "Trinit\u00e9 - Drievuldigheid", "name:fr": "Trinit\u00e9", "name:nl": "Drievuldigheid", "public_transport": "stop_position", "railway": "tram_stop", "tram": "yes"}}, {"type": "node", "id": 488628710, "lat": 50.8285909, "lon": 4.3622867, "tags": {"name": "Defacqz", "public_transport": "stop_position", "railway": "tram_stop", "tram": "yes", "wikidata": "Q47433037"}}, {"type": "node", "id": 2962344713, "lat": 50.8249893, "lon": 4.3575588, "tags": {"name": "Trinit\u00e9 - Drievuldigheid", "name:fr": "Trinit\u00e9", "name:nl": "Drievuldigheid", "public_transport": "stop_position", "railway": "tram_stop", "tram": "yes"}}, {"type": "node", "id": 3115598739, "lat": 50.8300474, "lon": 4.3560644, "tags": {"name": "Faider", "public_transport": "stop_position", "railway": "tram_stop", "tram": "yes"}}, {"type": "node", "id": 3115600957, "lat": 50.825867, "lon": 4.3546752, "tags": {"name": "Janson", "public_transport": "stop_position", "railway": "tram_stop", "tram": "yes"}}, {"type": "node", "id": 3115600968, "lat": 50.8261327, "lon": 4.3548029, "tags": {"name": "Janson", "public_transport": "stop_position", "railway": "tram_stop", "tram": "yes"}}, {"type": "node", "id": 3115601073, "lat": 50.8295369, "lon": 4.3558394, "tags": {"name": "Faider", "public_transport": "stop_position", "railway": "tram_stop", "tram": "yes"}}, {"type": "node", "id": 3115601138, "lat": 50.8335797, "lon": 4.3571815, "tags": {"name": "St\u00e9phanie - Stefania", "name:fr": "St\u00e9phanie", "name:nl": "Stefania", "public_transport": "stop_position", "railway": "tram_stop", "tram": "yes"}}, {"type": "node", "id": 3120543593, "lat": 50.8287663, "lon": 4.3767675, "tags": {"name": "Levure - Gist", "name:fr": "Levure", "name:nl": "Gist", "public_transport": "stop_position", "railway": "tram_stop", "tram": "yes"}}, {"type": "node", "id": 3120544632, "lat": 50.8298515, "lon": 4.3861692, "tags": {"name": "\u00c9glise Saint-Antoine - Sint-Antoonkerk", "name:fr": "\u00c9glise Saint-Antoine", "name:nl": "Sint-Antoonkerk", "public_transport": "stop_position", "railway": "tram_stop", "tram": "yes"}}, {"type": "node", "id": 3120544642, "lat": 50.8298491, "lon": 4.3794504, "tags": {"layer": "1", "name": "Germoir - Mouterij", "name:fr": "Germoir", "name:nl": "Mouterij", "public_transport": "stop_position", "railway": "tram_stop", "tram": "yes"}}, {"type": "node", "id": 3120544655, "lat": 50.8299005, "lon": 4.386611, "tags": {"name": "\u00c9glise Saint-Antoine - Sint-Antoonkerk", "name:fr": "\u00c9glise Saint-Antoine", "name:nl": "Sint-Antoonkerk", "public_transport": "stop_position", "railway": "tram_stop", "tram": "yes"}}, {"type": "node", "id": 3120544685, "lat": 50.8299637, "lon": 4.3798117, "tags": {"layer": "1", "name": "Germoir - Mouterij", "name:fr": "Germoir", "name:nl": "Mouterij", "public_transport": "stop_position", "railway": "tram_stop", "tram": "yes"}}, {"type": "node", "id": 3120544772, "lat": 50.8304159, "lon": 4.3892266, "tags": {"name": "La Chasse - De Jacht", "name:fr": "La Chasse", "name:nl": "De Jacht", "public_transport": "stop_position", "railway": "tram_stop", "tram": "yes"}}, {"type": "node", "id": 3121274427, "lat": 50.8273419, "lon": 4.3719346, "tags": {"name": "Flagey", "public_transport": "stop_position", "railway": "tram_stop", "tram": "yes"}}, {"type": "node", "id": 3121275068, "lat": 50.8277307, "lon": 4.3716561, "tags": {"name": "Flagey", "public_transport": "stop_position", "railway": "tram_stop", "tram": "yes"}}, {"type": "node", "id": 3124858966, "lat": 50.8165449, "lon": 4.3497824, "tags": {"name": "Moli\u00e8re", "public_transport": "stop_position", "railway": "tram_stop", "tram": "yes"}}, {"type": "node", "id": 3124859259, "lat": 50.8225198, "lon": 4.3535691, "tags": {"name": "Ma Campagne", "public_transport": "stop_position", "railway": "tram_stop", "tram": "yes"}}, {"type": "node", "id": 3124859260, "lat": 50.822267, "lon": 4.3533646, "tags": {"name": "Ma Campagne", "public_transport": "stop_position", "railway": "tram_stop", "tram": "yes"}}, {"type": "node", "id": 3124859480, "lat": 50.8268419, "lon": 4.3640894, "tags": {"name": "Bailli - Baljuw", "name:fr": "Bailli", "name:nl": "Baljuw", "public_transport": "stop_position", "railway": "tram_stop", "tram": "yes"}}, {"type": "node", "id": 3124859560, "lat": 50.8276286, "lon": 4.3633255, "tags": {"name": "Bailli - Baljuw", "name:fr": "Bailli", "name:nl": "Baljuw", "public_transport": "stop_position", "railway": "tram_stop", "tram": "yes"}}, {"type": "node", "id": 3132140743, "lat": 50.8114046, "lon": 4.3584563, "tags": {"name": "Cavell", "public_transport": "stop_position", "railway": "tram_stop", "tram": "yes"}}, {"type": "node", "id": 3132140744, "lat": 50.8114012, "lon": 4.3616176, "tags": {"name": "Gossart", "public_transport": "stop_position", "railway": "tram_stop", "tram": "yes"}}, {"type": "node", "id": 3132140773, "lat": 50.8114616, "lon": 4.3633579, "tags": {"name": "Gossart", "public_transport": "stop_position", "railway": "tram_stop", "tram": "yes"}}, {"type": "node", "id": 3132140876, "lat": 50.811928, "lon": 4.3672715, "tags": {"name": "Longchamp", "public_transport": "stop_position", "railway": "tram_stop", "tram": "yes"}}, {"type": "node", "id": 3132141442, "lat": 50.814995, "lon": 4.3678062, "tags": {"name": "Bascule", "public_transport": "stop_position", "railway": "tram_stop", "tram": "yes"}}, {"type": "node", "id": 3132141444, "lat": 50.8150644, "lon": 4.36856, "tags": {"name": "Bascule", "public_transport": "stop_position", "railway": "tram_stop", "tram": "yes"}}, {"type": "node", "id": 3132141468, "lat": 50.815466, "lon": 4.3709211, "tags": {"name": "Legrand", "public_transport": "stop_position", "railway": "tram_stop", "tram": "yes"}}, {"type": "node", "id": 3132141473, "lat": 50.815565, "lon": 4.3717381, "tags": {"name": "Legrand", "public_transport": "stop_position", "railway": "tram_stop", "tram": "yes", "wikidata": "Q30312617"}}, {"type": "node", "id": 3132141646, "lat": 50.8159288, "lon": 4.3719198, "tags": {"name": "Legrand", "public_transport": "stop_position", "railway": "tram_stop", "tram": "yes", "wikidata": "Q30312617"}}, {"type": "node", "id": 3132141664, "lat": 50.816263, "lon": 4.3718399, "tags": {"name": "Legrand", "public_transport": "stop_position", "railway": "tram_stop", "tram": "yes", "wikidata": "Q30312617"}}, {"type": "node", "id": 3132141682, "lat": 50.8163538, "lon": 4.3763066, "tags": {"name": "Cambre-\u00c9toile - Ter Kameren-Ster", "name:fr": "Cambre-\u00c9toile", "name:nl": "Ter Kameren-Ster", "public_transport": "stop_position", "railway": "tram_stop", "tram": "yes"}}, {"type": "node", "id": 3132141701, "lat": 50.8165192, "lon": 4.3775061, "tags": {"name": "Cambre-\u00c9toile - Ter Kameren-Ster", "name:fr": "Cambre-\u00c9toile", "name:nl": "Ter Kameren-Ster", "public_transport": "stop_position", "railway": "tram_stop", "tram": "yes"}}, {"type": "node", "id": 3132141843, "lat": 50.8171997, "lon": 4.3784615, "tags": {"name": "Buyl", "public_transport": "stop_position", "railway": "tram_stop", "tram": "yes", "wikidata": "Q13446825"}}, {"type": "node", "id": 3132142229, "lat": 50.8192089, "lon": 4.3806092, "tags": {"name": "Buyl", "public_transport": "stop_position", "railway": "tram_stop", "tram": "yes", "wikidata": "Q13446825"}}, {"type": "node", "id": 3132142464, "lat": 50.8195975, "lon": 4.381459, "tags": {"name": "Roffiaen", "public_transport": "stop_position", "railway": "tram_stop", "tram": "yes"}}, {"type": "node", "id": 3132142484, "lat": 50.8200192, "lon": 4.3832351, "tags": {"name": "Roffiaen", "public_transport": "stop_position", "railway": "tram_stop", "tram": "yes"}}, {"type": "node", "id": 3132142718, "lat": 50.8221788, "lon": 4.3888463, "tags": {"name": "Etterbeek Gare - Etterbeek Station", "name:fr": "Etterbeek Gare", "name:nl": "Etterbeek Station", "public_transport": "stop_position", "railway": "tram_stop", "tram": "yes"}}, {"type": "node", "id": 3132142852, "lat": 50.8229779, "lon": 4.3680695, "tags": {"name": "Vleurgat", "public_transport": "stop_position", "railway": "tram_stop", "tram": "yes"}}, {"type": "node", "id": 3132143196, "lat": 50.8264333, "lon": 4.3723226, "tags": {"name": "Flagey", "public_transport": "stop_position", "railway": "tram_stop", "tram": "yes"}}, {"type": "node", "id": 3132143374, "lat": 50.8331806, "lon": 4.357624, "tags": {"name": "St\u00e9phanie - Stefania", "name:fr": "St\u00e9phanie", "name:nl": "Stefania", "public_transport": "stop_position", "railway": "tram_stop", "tram": "yes"}}, {"type": "node", "id": 3132578871, "lat": 50.8063059, "lon": 4.3876632, "tags": {"name": "Marie-Jos\u00e9", "public_transport": "stop_position", "railway": "tram_stop", "tram": "yes"}}, {"type": "node", "id": 3132579310, "lat": 50.8136576, "lon": 4.384323, "tags": {"name": "ULB", "public_transport": "stop_position", "railway": "tram_stop", "tram": "yes", "wikidata": "Q30250626"}}, {"type": "node", "id": 3132579460, "lat": 50.8155104, "lon": 4.3835491, "tags": {"name": "Jeanne - Johanna", "name:fr": "Jeanne", "name:nl": "Johanna", "public_transport": "stop_position", "railway": "tram_stop", "tram": "yes"}}, {"type": "node", "id": 3136263659, "lat": 50.8012334, "lon": 4.3933565, "tags": {"name": "Boondael Gare - Boondaal Station", "name:fr": "Boondael Gare", "name:nl": "Boondaal Station", "public_transport": "stop_position", "railway": "tram_stop", "tram": "yes"}}, {"type": "node", "id": 3136263665, "lat": 50.8014266, "lon": 4.393004, "tags": {"name": "Boondael Gare - Boondaal Station", "name:fr": "Boondael Gare", "name:nl": "Boondaal Station", "public_transport": "stop_position", "railway": "tram_stop", "tram": "yes"}}, {"type": "node", "id": 3137388810, "lat": 50.8245271, "lon": 4.3935183, "tags": {"name": "VUB", "public_transport": "stop_position", "railway": "tram_stop", "tram": "yes"}}, {"type": "node", "id": 3137388816, "lat": 50.824746, "lon": 4.3940149, "tags": {"name": "VUB", "public_transport": "stop_position", "railway": "tram_stop", "tram": "yes"}}, {"type": "node", "id": 4049927656, "lat": 50.8104995, "lon": 4.385857, "tags": {"name": "Solbosch - Solbos", "name:fr": "Solbosch", "name:nl": "Solbos", "public_transport": "stop_position", "railway": "tram_stop", "tram": "yes"}}, {"type": "node", "id": 4049927657, "lat": 50.8108344, "lon": 4.3858335, "tags": {"name": "Solbosch - Solbos", "name:fr": "Solbosch", "name:nl": "Solbos", "public_transport": "stop_position", "railway": "tram_stop", "tram": "yes"}}, {"type": "node", "id": 4133470846, "lat": 50.8280211, "lon": 4.3752009, "tags": {"name": "Levure - Gist", "name:fr": "Levure", "name:nl": "Gist", "public_transport": "stop_position", "railway": "tram_stop", "tram": "yes"}}, {"type": "node", "id": 4233699612, "lat": 50.8027502, "lon": 4.3904305, "tags": {"name": "Br\u00e9sil - Brazili\u00eb", "name:fr": "Br\u00e9sil", "name:nl": "Brazili\u00eb", "public_transport": "stop_position", "railway": "tram_stop", "tram": "yes"}}, {"type": "node", "id": 4233699614, "lat": 50.8028597, "lon": 4.39037, "tags": {"name": "Br\u00e9sil - Brazili\u00eb", "name:fr": "Br\u00e9sil", "name:nl": "Brazili\u00eb", "public_transport": "stop_position", "railway": "tram_stop", "tram": "yes"}}, {"type": "node", "id": 4430400436, "lat": 50.8276434, "lon": 4.3672897, "tags": {"name": "Dautzenberg", "public_transport": "stop_position", "railway": "tram_stop", "tram": "yes"}}, {"type": "node", "id": 4430400437, "lat": 50.8276378, "lon": 4.3664993, "tags": {"name": "Dautzenberg", "public_transport": "stop_position", "railway": "tram_stop", "tram": "yes"}}, {"type": "node", "id": 4443026847, "lat": 50.8174274, "lon": 4.3806501, "tags": {"name": "Buyl", "public_transport": "stop_position", "railway": "tram_stop", "tram": "yes", "wikidata": "Q13446825"}}, {"type": "node", "id": 4598665121, "lat": 50.8254612, "lon": 4.3542818, "tags": {"name": "Janson", "public_transport": "stop_position", "railway": "tram_stop", "tram": "yes"}}, {"type": "node", "id": 4598677595, "lat": 50.8255306, "lon": 4.3551249, "tags": {"name": "Janson", "public_transport": "stop_position", "railway": "tram_stop", "tram": "yes"}}, {"type": "node", "id": 4665178998, "lat": 50.8140554, "lon": 4.3841294, "tags": {"name": "ULB", "public_transport": "stop_position", "railway": "tram_stop", "tram": "yes", "wikidata": "Q30250626"}}, {"type": "node", "id": 4665197229, "lat": 50.8119725, "lon": 4.3678395, "tags": {"name": "Longchamp", "public_transport": "stop_position", "railway": "tram_stop", "tram": "yes"}}, {"type": "node", "id": 4909622572, "lat": 50.8240903, "lon": 4.3669752, "tags": {"name": "Vleurgat", "public_transport": "stop_position", "railway": "tram_stop", "tram": "yes"}}, {"type": "node", "id": 4909651557, "lat": 50.8189075, "lon": 4.3707643, "tags": {"name": "Abbaye - Abdij", "name:fr": "Abbaye", "name:nl": "Abdij", "public_transport": "stop_position", "railway": "tram_stop", "tram": "yes"}}, {"type": "node", "id": 4909651562, "lat": 50.8198835, "lon": 4.3704708, "tags": {"name": "Abbaye - Abdij", "name:fr": "Abbaye", "name:nl": "Abdij", "public_transport": "stop_position", "railway": "tram_stop", "tram": "yes"}}, {"type": "node", "id": 4919083068, "lat": 50.8143714, "lon": 4.3484033, "tags": {"name": "Vanderkindere", "public_transport": "stop_position", "railway": "tram_stop", "tram": "yes"}}, {"type": "node", "id": 4920371823, "lat": 50.8223967, "lon": 4.3893507, "tags": {"name": "Etterbeek Gare - Etterbeek Station", "name:fr": "Etterbeek Gare", "name:nl": "Etterbeek Station", "public_transport": "stop_position", "railway": "tram_stop", "tram": "yes"}}, {"type": "node", "id": 4926333172, "lat": 50.8166896, "lon": 4.3716787, "tags": {"name": "Legrand", "public_transport": "stop_position", "railway": "tram_stop", "tram": "yes", "wikidata": "Q30312617"}}, {"type": "node", "id": 4947040360, "lat": 50.8209144, "lon": 4.3765319, "tags": {"name": "G\u00e9o Bernier", "public_transport": "stop_position", "railway": "tram_stop", "tram": "yes"}}, {"type": "node", "id": 4963924934, "lat": 50.8189703, "lon": 4.3513187, "tags": {"name": "Darwin", "public_transport": "stop_position", "railway": "tram_stop", "tram": "yes"}}, {"type": "node", "id": 4963924935, "lat": 50.8181419, "lon": 4.3507513, "tags": {"name": "Darwin", "public_transport": "stop_position", "railway": "tram_stop", "tram": "yes"}}, {"type": "node", "id": 4970981097, "lat": 50.82368, "lon": 4.3739598, "tags": {"name": "\u00c9tangs d'Ixelles - Vijvers van Elsene", "name:fr": "\u00c9tangs d'Ixelles", "name:nl": "Vijvers van Elsene", "public_transport": "stop_position", "railway": "tram_stop", "tram": "yes"}}, {"type": "node", "id": 4970981098, "lat": 50.8241239, "lon": 4.3734422, "tags": {"name": "\u00c9tangs d'Ixelles - Vijvers van Elsene", "name:fr": "\u00c9tangs d'Ixelles", "name:nl": "Vijvers van Elsene", "public_transport": "stop_position", "railway": "tram_stop", "tram": "yes"}}, {"type": "node", "id": 4977342292, "lat": 50.8066167, "lon": 4.3876683, "tags": {"name": "Marie-Jos\u00e9", "public_transport": "stop_position", "railway": "tram_stop", "tram": "yes"}}, {"type": "node", "id": 5243082638, "lat": 50.827159, "lon": 4.3634534, "tags": {"name": "Bailli - Baljuw", "name:fr": "Bailli", "name:nl": "Baljuw", "public_transport": "stop_position", "railway": "tram_stop", "tram": "yes"}}, {"type": "node", "id": 5243082640, "lat": 50.8268087, "lon": 4.3625317, "tags": {"name": "Bailli - Baljuw", "name:fr": "Bailli", "name:nl": "Baljuw", "public_transport": "stop_position", "railway": "tram_stop", "tram": "yes"}}, {"type": "node", "id": 7429425605, "lat": 50.8201549, "lon": 4.3771597, "tags": {"name": "G\u00e9o Bernier", "public_transport": "stop_position", "railway": "tram_stop", "tram": "yes"}}]}