{"version": 0.6, "generator": "Overpass API 0.7.62.10 2d4cfc48", "osm3s": {"timestamp_osm_base": "2026-02-02T15:58:45Z", "copyright": "The data included in this document is from www.openstreetmap.org. The data is made available under ODbL."}, "elements": [{"type": "node", "id": 255310026, "lat": 50.8346778, "lon": 4.421973, "tags": {"name": "Jules C\u00e9sar - Julius Cesar", "name:fr": "Jules C\u00e9sar", "name:nl": "Julius Cesar", "public_transport": "stop_position", "railway": "tram_stop", "tram": "yes"}}, {"type": "node", "id": 256127323, "lat": 50.8414111, "lon": 4.4652857, "tags": {"name": "Stockel - Stokkel", "name:fr": "Stockel", "name:nl": "Stokkel", "public_transport": "stop_position", "railway": "tram_stop", "tram": "yes"}}, {"type": "node", "id": 335650756, "lat": 50.836842, "lon": 4.411337, "tags": {"name": "GJ Martin", "public_transport": "stop_position", "railway": "tram_stop", "tram": "yes"}}, {"type": "node", "id": 488839012, "lat": 50.8387664, "lon": 4.4640269, "tags": {"name": "Escrime - Schermkunst", "name:fr": "Escrime", "name:nl": "Schermkunst", "public_transport": "stop_position", "railway": "tram_stop", "tram": "yes"}}, {"type": "node", "id": 1612984301, "lat": 50.8314277, "lon": 4.432936, "tags": {"name": "Mus\u00e9e du Tram - Trammuseum", "name:fr": "Mus\u00e9e du Tram", "name:nl": "Trammuseum", "public_transport": "stop_position", "railway": "tram_stop", "tram": "yes"}}, {"type": "node", "id": 1934010725, "lat": 50.8322751, "lon": 4.4324295, "tags": {"name": "Mus\u00e9e du Tram - Trammuseum", "name:fr": "Mus\u00e9e du Tram", "name:nl": "Trammuseum", "public_transport": "stop_position", "railway": "tram_stop", "tram": "yes"}}, {"type": "node", "id": 2591016704, "lat": 50.8198162, "lon": 4.4674897, "tags": {"name": "Tir aux Pigeons - Duivenschieting", "name:fr": "Tir aux Pigeons", "name:nl": "Duivenschieting", "public_transport": "stop_position", "railway": "tram_stop", "tram": "yes"}}, {"type": "node", "id": 2591016706, "lat": 50.8198638, "lon": 4.4677034, "tags": {"name": "Tir aux Pigeons - Duivenschieting", "name:fr": "Tir aux Pigeons", "name:nl": "Duivenschieting", "public_transport": "stop_position", "railway": "tram_stop", "tram": "yes"}}, {"type": "node", "id": 2591016879, "lat": 50.827153, "lon": 4.4449406, "tags": {"name": "Madoux", "public_transport": "stop_position", "railway": "tram_stop", "tram": "yes"}}, {"type": "node", "id": 2591016896, "lat": 50.8273635, "lon": 4.4446526, "tags": {"name": "Madoux", "public_transport": "stop_position", "railway": "tram_stop", "tram": "yes"}}, {"type": "node", "id": 2591016929, "lat": 50.8278453, "lon": 4.4386777, "tags": {"name": "de Villalobar", "public_transport": "stop_position", "railway": "tram_stop", "tram": "yes"}}, {"type": "node", "id": 2591016931, "lat": 50.8278381, "lon": 4.4390008, "tags": {"name": "de Villalobar", "public_transport": "stop_position", "railway": "tram_stop", "tram": "yes"}}, {"type": "node", "id": 2591017218, "lat": 50.8349491, "lon": 4.4204221, "tags": {"name": "Jules C\u00e9sar - Julius Cesar", "name:fr": "Jules C\u00e9sar", "name:nl": "Julius Cesar", "public_transport": "stop_position", "railway": "tram_stop", "tram": "yes"}}, {"type": "node", "id": 2591017231, "lat": 50.8349974, "lon": 4.428241, "tags": {"name": "Chien Vert - Groene Hond", "name:fr": "Chien Vert", "name:nl": "Groene Hond", "public_transport": "stop_position", "railway": "tram_stop", "tram": "yes"}}, {"type": "node", "id": 2591017248, "lat": 50.8350775, "lon": 4.4277517, "tags": {"name": "Chien Vert - Groene Hond", "name:fr": "Chien Vert", "name:nl": "Groene Hond", "public_transport": "stop_position", "railway": "tram_stop", "tram": "yes"}}, {"type": "node", "id": 2591017282, "lat": 50.8362484, "lon": 4.4153864, "tags": {"name": "L\u00e9opold II - Leopold II", "name:fr": "L\u00e9opold II", "name:nl": "Leopold II", "public_transport": "stop_position", "railway": "tram_stop", "tram": "yes"}}, {"type": "node", "id": 2591017382, "lat": 50.8380469, "lon": 4.4631219, "tags": {"name": "Escrime - Schermkunst", "name:fr": "Escrime", "name:nl": "Schermkunst", "public_transport": "stop_position", "railway": "tram_stop", "tram": "yes"}}, {"type": "node", "id": 2591017495, "lat": 50.8410198, "lon": 4.4653265, "tags": {"name": "Stockel - Stokkel", "name:fr": "Stockel", "name:nl": "Stokkel", "public_transport": "stop_position", "railway": "tram_stop", "tram": "yes"}}, {"type": "node", "id": 3117556967, "lat": 50.83792, "lon": 4.4069839, "tags": {"name": "Montgomery", "public_transport": "stop_position", "railway": "tram_stop", "tram": "yes"}}, {"type": "node", "id": 3117556972, "lat": 50.8379371, "lon": 4.4069606, "tags": {"name": "Montgomery", "public_transport": "stop_position", "railway": "tram_stop", "tram": "yes"}}, {"type": "node", "id": 3117556982, "lat": 50.837952, "lon": 4.4059342, "tags": {"name": "Montgomery", "public_transport": "stop_position", "railway": "tram_stop", "tram": "yes"}}, {"type": "node", "id": 3137393060, "lat": 50.8375506, "lon": 4.407444, "tags": {"layer": "-1", "level": "-1", "location": "underground", "name": "Montgomery", "public_transport": "stop_position", "railway": "tram_stop", "tram": "yes"}}, {"type": "node", "id": 3137393061, "lat": 50.8371642, "lon": 4.4071977, "tags": {"layer": "-1", "level": "-1", "location": "underground", "name": "Montgomery", "public_transport": "stop_position", "railway": "tram_stop", "tram": "yes"}}, {"type": "node", "id": 3882230182, "lat": 50.8362636, "lon": 4.415245, "tags": {"name": "L\u00e9opold II - Leopold II", "name:fr": "L\u00e9opold II", "name:nl": "Leopold II", "public_transport": "stop_position", "railway": "tram_stop", "tram": "yes"}}, {"type": "node", "id": 4157472390, "lat": 50.8380008, "lon": 4.4089633, "tags": {"layer": "-2", "level": "-2", "location": "underground", "name": "Montgomery", "public_transport": "stop_position", "railway": "tram_stop", "tram": "yes"}}, {"type": "node", "id": 4429903173, "lat": 50.8382866, "lon": 4.40812, "tags": {"name": "ICHEC", "public_transport": "stop_position", "railway": "tram_stop", "tram": "yes"}}, {"type": "node", "id": 4430470787, "lat": 50.836776, "lon": 4.4116022, "tags": {"name": "GJ Martin", "public_transport": "stop_position", "railway": "tram_stop", "tram": "yes"}}, {"type": "node", "id": 4524493190, "lat": 50.8376706, "lon": 4.4121463, "tags": {"name": "GJ Martin", "public_transport": "stop_position", "railway": "tram_stop", "tram": "yes"}}, {"type": "node", "id": 4524512669, "lat": 50.8311136, "lon": 4.451654, "tags": {"name": "Rue au Bois - Bosstraat", "name:fr": "Rue au Bois", "name:nl": "Bosstraat", "public_transport": "stop_position", "railway": "tram_stop", "tram": "yes"}}, {"type": "node", "id": 4524512686, "lat": 50.8309581, "lon": 4.4513825, "tags": {"name": "Rue au Bois - Bosstraat", "name:fr": "Rue au Bois", "name:nl": "Bosstraat", "public_transport": "stop_position", "railway": "tram_stop", "tram": "yes"}}, {"type": "node", "id": 4547737616, "lat": 50.844602, "lon": 4.4644699, "tags": {"name": "Amiti\u00e9 - Vriendschap", "name:fr": "Amiti\u00e9", "name:nl": "Vriendschap", "public_transport": "stop_position", "railway": "tram_stop", "tram": "yes"}}, {"type": "node", "id": 4547737617, "lat": 50.8446135, "lon": 4.464983, "tags": {"name": "Amiti\u00e9 - Vriendschap", "name:fr": "Amiti\u00e9", "name:nl": "Vriendschap", "public_transport": "stop_position", "railway": "tram_stop", "tram": "yes"}}, {"type": "node", "id": 4652816035, "lat": 50.8323169, "lon": 4.4325975, "tags": {"name": "Mus\u00e9e du Tram - Trammuseum", "name:fr": "Mus\u00e9e du Tram", "name:nl": "Trammuseum", "public_transport": "stop_position", "railway": "tram_stop", "tram": "yes"}}, {"type": "node", "id": 4920400885, "lat": 50.8348841, "lon": 4.456915, "tags": {"name": "Aviation - Luchtvaart", "name:fr": "Aviation", "name:nl": "Luchtvaart", "public_transport": "stop_position", "railway": "tram_stop", "tram": "yes"}}, {"type": "node", "id": 4920400893, "lat": 50.8346832, "lon": 4.4565699, "tags": {"name": "Aviation - Luchtvaart", "name:fr": "Aviation", "name:nl": "Luchtvaart", "public_transport": "stop_position", "railway": "tram_stop", "tram": "yes"}}, {"type": "node", "id": 5156728480, "lat": 50.8189052, "lon": 4.4572318, "tags": {"name": "Dr\u00e8ve des Br\u00fbl\u00e9s - Verbrandendreef", "name:fr": "Dr\u00e8ve des Br\u00fbl\u00e9s", "name:nl": "Verbrandendreef", "public_transport": "stop_position", "railway": "tram_stop", "tram": "yes"}}, {"type": "node", "id": 5156728486, "lat": 50.818944, "lon": 4.4573726, "tags": {"name": "Dr\u00e8ve des Br\u00fbl\u00e9s - Verbrandendreef", "name:fr": "Dr\u00e8ve des Br\u00fbl\u00e9s", "name:nl": "Verbrandendreef", "public_transport": "stop_position", "railway": "tram_stop", "tram": "yes"}}, {"type": "node", "id": 5930976314, "lat": 50.8371309, "lon": 4.4350596, "tags": {"name": "Parc des Sources - Bronnenpark", "name:fr": "Parc des Sources", "name:nl": "Bronnenpark", "public_transport": "stop_position", "railway": "tram_stop", "tram": "yes"}}, {"type": "node", "id": 5931513370, "lat": 50.8368127, "lon": 4.4349212, "tags": {"name": "Parc des Sources - Bronnenpark", "name:fr": "Parc des Sources", "name:nl": "Bronnenpark", "public_transport": "stop_position", "railway": "tram_stop", "tram": "yes"}}]}