{"version": 0.6, "generator": "Overpass API 0.7.62.10 2d4cfc48", "osm3s": {"timestamp_osm_base": "2026-02-03T08:46:36Z", "copyright": "The data included in this document is from www.openstreetmap.org. The data is made available under ODbL."}, "elements": [{"type": "node", "id": 474985851, "lat": 50.8323923, "lon": 4.3495339, "tags": {"amenity": "restaurant", "check_date": "2025-08-08", "indoor_seating": "yes", "name": "Coq D'Or", "outdoor_seating": "yes"}}, {"type": "node", "id": 474985858, "lat": 50.832211, "lon": 4.3493435, "tags": {"amenity": "restaurant", "capacity": "50", "contact:phone": "+32 2 539 29 04", "cuisine": "regional;artisanal;brunch;breakfast", "delivery": "yes", "indoor_seating": "yes", "name": "Oma", "opening_hours": "Tu-Fr 09:00-16:00; Sa,Su 10:30-16:00", "outdoor_seating": "yes", "takeaway": "yes"}}, {"type": "node", "id": 474985859, "lat": 50.83228, "lon": 4.3494072, "tags": {"amenity": "restaurant", "check_date": "2025-08-08", "contact:email": "letaj33@yahoo.com", "contact:phone": "+32 2 538 43 14", "cuisine": "indian", "internet_access": "no", "name": "Le Taj", "opening_hours": "12:00-15:00,18:00-23:00", "payment:mastercard": "yes", "payment:visa": "yes"}}, {"type": "node", "id": 474986928, "lat": 50.8335356, "lon": 4.3525027, "tags": {"amenity": "restaurant", "cuisine": "italian", "name": "Nuovo Rosso"}}, {"type": "node", "id": 826830634, "lat": 50.8333185, "lon": 4.3565909, "tags": {"amenity": "restaurant", "diet:vegetarian": "no", "name": "Belgo Nero"}}, {"type": "node", "id": 993030379, "lat": 50.8306047, "lon": 4.3560389, "tags": {"amenity": "restaurant", "contact:website": "http://www.babdar.be/", "cuisine": "moroccan", "diet:vegan": "no", "diet:vegetarian": "yes", "name": "Bab Dar", "opening_hours": "Mo-Fr 12:00-14:30,19:00-22:30; Sa 19:00-22:30", "wheelchair": "no"}}, {"type": "node", "id": 993031209, "lat": 50.8315803, "lon": 4.3563508, "tags": {"air_conditioning": "yes", "amenity": "restaurant", "cuisine": "lebanese", "diet:vegan": "yes", "diet:vegetarian": "yes", "indoor_seating": "yes", "name": "Le Prince", "opening_hours": "Mo-Su 11:00-23:59,00:00-02:00", "outdoor_seating": "yes", "smoking": "outside", "wheelchair": "limited"}}, {"type": "node", "id": 993032378, "lat": 50.831381, "lon": 4.356287, "tags": {"amenity": "restaurant", "diet:vegan": "yes", "diet:vegetarian": "yes", "name": "Zatar", "wheelchair": "no"}}, {"type": "node", "id": 1247151765, "lat": 50.8311686, "lon": 4.346368}, {"type": "node", "id": 1247151787, "lat": 50.8311669, "lon": 4.3464111}, {"type": "node", "id": 3100698156, "lat": 50.8321711, "lon": 4.3457516, "tags": {"amenity": "restaurant"}}, {"type": "node", "id": 3100748349, "lat": 50.8311499, "lon": 4.3463661}, {"type": "node", "id": 3100748351, "lat": 50.8311509, "lon": 4.3464123}, {"type": "node", "id": 3100748355, "lat": 50.8311329, "lon": 4.3462043}, {"type": "node", "id": 3100748359, "lat": 50.8311351, "lon": 4.3464135}, {"type": "node", "id": 3100748362, "lat": 50.8311707, "lon": 4.3462091}, {"type": "node", "id": 3100748363, "lat": 50.8311644, "lon": 4.3463676}, {"type": "node", "id": 3100748368, "lat": 50.8312072, "lon": 4.3462136}, {"type": "node", "id": 3100748370, "lat": 50.8311995, "lon": 4.3464087}, {"type": "node", "id": 3431114689, "lat": 50.8317778, "lon": 4.3537081, "tags": {"air_conditioning": "no", "amenity": "restaurant", "cuisine": "pizza", "diet:vegetarian": "yes", "indoor_seating": "yes", "name": "PizzaFresca", "opening_hours": "Mo-Th 18:00-22:00; Fr-Su 18:00-22:30", "outdoor_seating": "yes", "smoking": "no", "takeaway": "yes"}}, {"type": "node", "id": 3743377786, "lat": 50.831247, "lon": 4.348484, "tags": {"amenity": "restaurant", "cuisine": "argentinian", "name": "Araucana"}}, {"type": "node", "id": 4404448189, "lat": 50.8317094, "lon": 4.356392, "tags": {"amenity": "restaurant", "contact:phone": "+32 2 538 22 39", "contact:website": "https://www.mafolledesoeur.be/", "cuisine": "french", "name": "Ma Folle De Soeur", "name:fr": "Ma Folle De Soeur", "opening_hours": "Mo-Sa 12:00-14:30,18:30-22:30"}}, {"type": "node", "id": 4904866144, "lat": 50.8314147, "lon": 4.3560197, "tags": {"amenity": "restaurant", "cuisine": "african", "email": "seydiniang71@gmail.com", "name": "Le Doux Lounge", "self_service": "no", "website": "https://www.douxlounge.be/"}}, {"type": "node", "id": 5206653306, "lat": 50.8321714, "lon": 4.3565397, "tags": {"amenity": "restaurant", "contact:mobile": "+32 491 25 53 25", "contact:website": "https://www.sushiavenue.be/", "cuisine": "sushi", "name": "Sushi Avenue"}}, {"type": "node", "id": 5340809042, "lat": 50.832464, "lon": 4.3523473, "tags": {"amenity": "restaurant", "contact:phone": "+32 2 538 14 68", "delivery": "no", "name": "Chumadia", "opening_hours": "Mo-Fr 11:45-18:30; PH closed", "outdoor_seating": "yes", "smoking": "outside", "takeaway": "no", "wheelchair": "no"}}, {"type": "node", "id": 5567348794, "lat": 50.8341429, "lon": 4.3559073, "tags": {"amenity": "restaurant", "contact:phone": "+32 2 534 25 02", "contact:website": "https://www.mamylouise.be/", "indoor_seating": "yes", "name": "Mamy Louise Goulet Louise", "opening_hours": "Mo, Tu, Sa 10:00-18:00; We-Fr 10:00-22:00", "outdoor_seating": "yes"}}, {"type": "node", "id": 6122930912, "lat": 50.8347691, "lon": 4.3553903, "tags": {"amenity": "restaurant", "cuisine": "japanese", "name": "Pok\u00e9 House", "opening_hours": "Mo-Fr 11:30-21:30; Sa 12:00-21:30; Mo 18:00-21:30", "outdoor_seating": "yes", "wheelchair": "no"}}, {"type": "node", "id": 6196635785, "lat": 50.8342917, "lon": 4.3547064, "tags": {"amenity": "restaurant", "check_date:opening_hours": "2025-10-31", "name": "Meat'in", "opening_hours:signed": "no"}}, {"type": "node", "id": 6245523385, "lat": 50.8339186, "lon": 4.3553826, "tags": {"amenity": "restaurant", "indoor_seating": "yes", "name": "Colonel", "outdoor_seating": "yes"}}, {"type": "node", "id": 6557948385, "lat": 50.8346402, "lon": 4.3555358, "tags": {"air_conditioning": "yes", "amenity": "restaurant", "bar": "yes", "branch": "Bruxelles Louise", "brand": "HUGGYS", "changing_table": "yes", "contact:email": "h7@huggys.be", "contact:phone": "+32 2 268 79 36", "contact:website": "https://www.huggys.be/restaurants/bruxelles-2-louise", "cuisine": "burger", "delivery": "yes", "diet:chicken": "yes", "diet:fish": "yes", "diet:gluten_free": "yes", "diet:halal": "yes", "diet:local": "yes", "diet:meat": "yes", "diet:vegan": "yes", "diet:vegetarian": "yes", "highchair": "yes", "indoor_seating": "yes", "name": "Huggys Bruxelles Louise", "opening_hours": "Mo-Su 12:00-22:00", "outdoor_seating": "yes", "payment:cards": "yes", "payment:cash": "yes", "payment:contactless": "yes", "payment:credit_cards": "yes", "payment:debit_cards": "yes", "payment:mastercard": "yes", "payment:visa": "yes", "reservation": "recommended", "smoking": "outside", "takeaway": "yes", "toilets": "yes", "website:menu": "https://www.huggys.be/menus/nouveau-menu-bx", "wheelchair": "no"}}, {"type": "node", "id": 6691305334, "lat": 50.8324435, "lon": 4.3566267, "tags": {"amenity": "restaurant", "cuisine": "korean", "name": "Seoul"}}, {"type": "node", "id": 6815904448, "lat": 50.8310526, "lon": 4.3462265, "tags": {"amenity": "restaurant", "check_date": "2025-11-30", "contact:phone": "+32 2 537 41 27", "contact:website": "https://www.milleetunenuits.be", "cuisine": "couscous", "description": "Sp\u00e9cialit\u00e9s orientales", "name": "Mille et une nuits", "opening_hours": "Tu-Su 18:30-23:00"}}, {"type": "node", "id": 6975721290, "lat": 50.8322284, "lon": 4.3565579, "tags": {"amenity": "restaurant", "check_date": "2023-12-16", "contact:phone": "+32 2 537 44 47", "contact:website": "https://www.premiercomptoir.be", "cuisine": "thai", "diet:vegan": "yes", "diet:vegetarian": "yes", "name": "Premier Comptoir Thai", "opening_hours": "Mo-Sa 19:00-22:30; Tu -Th 12:00-14:00,19:00-22:30", "wheelchair": "limited"}}, {"type": "node", "id": 7178197003, "lat": 50.8342442, "lon": 4.35506, "tags": {"amenity": "restaurant", "cuisine": "belgian", "indoor_seating": "yes", "internet_access": "yes", "name": "Le Rendez-Vous Des Artistes", "opening_hours": "Mo-Sa 12:00-23:30", "outdoor_seating": "yes"}}, {"type": "node", "id": 7947521689, "lat": 50.83251, "lon": 4.3456933, "tags": {"amenity": "restaurant", "diet:vegetarian": "no", "name": "La perle bleue"}}, {"type": "node", "id": 8118974586, "lat": 50.8269434, "lon": 4.3548685, "tags": {"amenity": "restaurant", "check_date": "2025-02-20", "contact:website": "https://www.majolie.brussels", "name": "Ma Jolie", "opening_hours:covid19": "closed", "outdoor_seating": "yes"}}, {"type": "node", "id": 8757831476, "lat": 50.8309771, "lon": 4.3532837, "tags": {"amenity": "restaurant", "check_date": "2025-03-11", "contact:website": "https://www.anju.be/", "cuisine": "korean", "indoor_seating": "yes", "name": "Anju", "name:ko": "\uc548\uc8fc", "outdoor_seating": "yes"}}, {"type": "node", "id": 8929077563, "lat": 50.8344331, "lon": 4.3545581, "tags": {"amenity": "restaurant", "check_date:opening_hours": "2025-10-31", "contact:website": "https://lapanzerottata.com", "cuisine": "italian;pizza", "delivery": "yes", "indoor_seating": "yes", "name": "La Panzerottata", "opening_hours:signed": "no", "outdoor_seating": "yes", "payment:credit_cards": "yes"}}, {"type": "node", "id": 10271182593, "lat": 50.8320064, "lon": 4.3521025, "tags": {"amenity": "restaurant", "contact:facebook": "https://www.facebook.com/salepeperosmarino/", "cuisine": "italian", "indoor_seating": "yes", "name": "Sale Pepe Rosmarino", "outdoor_seating": "yes"}}, {"type": "node", "id": 10315093507, "lat": 50.8344332, "lon": 4.355043, "tags": {"amenity": "restaurant", "check_date:opening_hours": "2025-10-31", "contact:phone": "+32 2 538 69 24", "indoor_seating": "yes", "name": "News Cafe", "opening_hours:signed": "no", "outdoor_seating": "yes"}}, {"type": "node", "id": 11236949471, "lat": 50.8345615, "lon": 4.3553484, "tags": {"amenity": "restaurant", "cuisine": "mexican", "level": "1", "name": "Ancho", "opening_hours": "Mo-Fr,Su 11:30-14:45,18:00-22:00; Sa 11:30-22:00; PH closed", "wheelchair": "no"}}, {"type": "node", "id": 11236968634, "lat": 50.8344998, "lon": 4.3552016, "tags": {"amenity": "restaurant", "check_date:opening_hours": "2025-10-31", "cuisine": "italian", "indoor_seating": "yes", "name": "Rizes", "opening_hours:signed": "no", "outdoor_seating": "yes", "wheelchair": "no"}}, {"type": "node", "id": 11236977240, "lat": 50.8343808, "lon": 4.3549184, "tags": {"amenity": "restaurant", "check_date:opening_hours": "2025-10-31", "cuisine": "french", "indoor_seating": "yes", "name": "Machina", "opening_hours:signed": "no", "outdoor_seating": "yes", "wheelchair": "yes"}}, {"type": "node", "id": 11238651764, "lat": 50.8345335, "lon": 4.3552817, "tags": {"amenity": "restaurant", "check_date:opening_hours": "2025-10-31", "contact:email": "ledelireparisien@hotmail.com", "contact:phone": "+32 2 537 06 94", "contact:website": "https://www.delireparisien.com", "indoor_seating": "yes", "name": "Le D\u00e9lire Parisien", "opening_hours:signed": "no", "outdoor_seating": "yes", "wheelchair": "no"}}, {"type": "node", "id": 11238652848, "lat": 50.8345487, "lon": 4.3548634, "tags": {"amenity": "restaurant", "check_date:opening_hours": "2025-10-31", "contact:phone": "+32 2 538 87 94", "cuisine": "italian", "indoor_seating": "yes", "name": "Al Piccolo Mondo", "opening_hours:signed": "no", "outdoor_seating": "yes", "wheelchair": "no"}}, {"type": "node", "id": 11238653512, "lat": 50.8344661, "lon": 4.3551215, "tags": {"amenity": "restaurant", "check_date:opening_hours": "2025-10-31", "name": "Woodpecker", "opening_hours:signed": "no"}}, {"type": "node", "id": 11587783988, "lat": 50.83487, "lon": 4.3556318, "tags": {"amenity": "restaurant", "contact:website": "https://nami-roll.com/", "name": "Nami", "opening_hours": "Mo-Su 12:00-22:30", "wheelchair": "no"}}, {"type": "node", "id": 11663750418, "lat": 50.8342084, "lon": 4.3548192, "tags": {"amenity": "restaurant", "check_date:opening_hours": "2025-10-31", "contact:website": "https://www.nenu.be/", "cuisine": "vietnamese", "indoor_seating": "yes", "name": "n\u00e9nu", "opening_hours": "Tu 19:00-22:00; We-Sa 12:00-14:00,19:00-22:00", "opening_hours:signed": "no", "outdoor_seating": "yes"}}, {"type": "node", "id": 11896686069, "lat": 50.8346731, "lon": 4.3556133, "tags": {"amenity": "restaurant", "contact:phone": "+32 2 538 12 07", "contact:website": "https://la-vigne.be/", "cuisine": "mediterranean", "name": "La Vigne", "opening_hours": "Mo-Sa 12:00-23:00", "wheelchair": "no"}}, {"type": "node", "id": 12142631742, "lat": 50.8348046, "lon": 4.3554754, "tags": {"alt_name": "Scopa Focacceria", "amenity": "restaurant", "contact:facebook": "https://facebook.com/Scopafocacceria", "contact:instagram": "scopa_focacceria", "cuisine": "italian;coffee_shop", "diet:mediterranean": "yes", "diet:vegan": "yes", "diet:vegetarian": "yes", "name": "Scopa", "opening_hours": "Mo-We 11:00-19:00; Th-Sa 11:00-21:00", "short_name": "ScopaFoca", "toilets": "yes", "website": "https://scopafoca.it/", "website:menu": "https://www.scopafoca.it/menu-fr-en.pdf"}}, {"type": "node", "id": 12224005969, "lat": 50.8329532, "lon": 4.3567824, "tags": {"amenity": "restaurant", "contact:website": "https://www.frank.brussels/", "name": "Frank St\u00e9phanie"}}, {"type": "node", "id": 12241653090, "lat": 50.8347288, "lon": 4.3552941, "tags": {"amenity": "restaurant", "contact:email": "info@g-spud.com", "contact:phone": "+32 2 538 05 08", "contact:website": "https://www.g-spud.com/", "description": "Specialised in baked potatoes and sweet potatoes topped with fresh ingredients", "name": "G-Spud", "opening_hours": "Mo-Fr 11:15-17:00; Sa 12:00-18:00; Su off; PH off", "payment:cash": "no", "reservation": "no", "takeaway": "yes", "wheelchair": "yes"}}, {"type": "node", "id": 12271484640, "lat": 50.8262605, "lon": 4.3546282, "tags": {"amenity": "restaurant", "contact:instagram": "https://www.instagram.com/seedbaracouscous", "cuisine": "tunisian", "full_name": "Seed Bar \u00e0 Couscous", "name": "Seed", "opening_hours": "Mo-Fr 11:30-15:00", "takeaway": "yes"}}, {"type": "node", "id": 12545639962, "lat": 50.8340571, "lon": 4.3549586, "tags": {"amenity": "restaurant", "cuisine": "french", "name": "Comptoir Garcin 2", "opening_hours": "We-Sa 19:30-24:00", "outdoor_seating": "yes", "website": "https://www.garcin.be/", "wheelchair": "no"}}, {"type": "node", "id": 12545639963, "lat": 50.8341897, "lon": 4.3551218, "tags": {"amenity": "restaurant", "contact:email": "info@pholaumi.be", "contact:phone": "+32 2 539 37 63", "cuisine": "vietnamese", "name": "Pho Lau Mi", "opening_hours": "Mo-Sa 12:00-14:45,18:30-22:00; PH off", "outdoor_seating": "yes"}}, {"type": "node", "id": 12546316591, "lat": 50.8347011, "lon": 4.3552278, "tags": {"amenity": "restaurant", "bar": "yes", "check_date:opening_hours": "2025-10-31", "cuisine": "pizza", "name": "Al Bacino", "opening_hours:signed": "no", "outdoor_seating": "yes", "wheelchair": "no"}}, {"type": "node", "id": 12546316598, "lat": 50.8346696, "lon": 4.3551525, "tags": {"amenity": "restaurant", "check_date:opening_hours": "2025-10-31", "name": "Kamen", "opening_hours:signed": "no"}}, {"type": "node", "id": 13033642677, "lat": 50.8318711, "lon": 4.3461388, "tags": {"amenity": "restaurant", "contact:website": "https://ioda.be/", "name": "iOda"}}, {"type": "way", "id": 1046453508, "nodes": [3100748368, 3100748362, 3100748355, 3100748359, 3100748351, 3100748349, 3100748363, 1247151765, 1247151787, 3100748370, 3100748368], "tags": {"amenity": "restaurant", "check_date": "2024-08-31", "contact:email": "saintgilles@standardpizza.be", "contact:phone": "+32 2 218 33 30", "contact:website": "https://standardpizza.be/standard-saint-gilles-fr.html", "cuisine": "pizza", "full_name": "Standard Saint-Gilles - Standard Sint-Gillis", "name": "Standard", "opening_hours": "Mo,We,Th 17:30-22:30; Fr 17:30-23:00; Sa 13:00-23:00; Su 13:00-20:00; Tu off"}}]}