{"version": 0.6, "generator": "Overpass API 0.7.62.10 2d4cfc48", "osm3s": {"timestamp_osm_base": "2026-02-03T08:44:30Z", "copyright": "The data included in this document is from www.openstreetmap.org. The data is made available under ODbL."}, "elements": [{"type": "node", "id": 3139105853, "lat": 50.8299464, "lon": 4.3458721, "tags": {"layer": "-2", "level": "-2", "location": "underground", "name": "Parvis de Saint-Gilles - Sint-Gillisvoorplein", "name:fr": "Parvis de Saint-Gilles", "name:nl": "Sint-Gillisvoorplein", "public_transport": "stop_position", "railway": "tram_stop", "tram": "yes"}}, {"type": "node", "id": 3139105913, "lat": 50.832608, "lon": 4.3429379, "tags": {"layer": "-2", "level": "-2", "location": "underground", "name": "Porte de Hal - Hallepoort", "name:fr": "Porte de Hal", "name:nl": "Hallepoort", "public_transport": "stop_position", "railway": "tram_stop", "tram": "yes"}}, {"type": "node", "id": 3139105914, "lat": 50.8328758, "lon": 4.342879, "tags": {"layer": "-2", "level": "-2", "location": "underground", "name": "Porte de Hal - Hallepoort", "name:fr": "Porte de Hal", "name:nl": "Hallepoort", "public_transport": "stop_position", "railway": "tram_stop", "tram": "yes"}}, {"type": "node", "id": 3141593964, "lat": 50.8340767, "lon": 4.3358519, "tags": {"name": "Su\u00e8de - Zweden", "name:fr": "Su\u00e8de", "name:nl": "Zweden", "public_transport": "stop_position", "railway": "tram_stop", "tram": "yes"}}, {"type": "node", "id": 3141593967, "lat": 50.8342832, "lon": 4.3361717, "tags": {"name": "Su\u00e8de - Zweden", "name:fr": "Su\u00e8de", "name:nl": "Zweden", "public_transport": "stop_position", "railway": "tram_stop", "tram": "yes"}}, {"type": "node", "id": 4428737303, "lat": 50.8299828, "lon": 4.3378682, "tags": {"name": "Bethl\u00e9em - Bethlehem", "name:fr": "Bethl\u00e9em", "name:nl": "Bethlehem", "public_transport": "stop_position", "railway": "tram_stop", "tram": "yes"}}, {"type": "node", "id": 4428737306, "lat": 50.8301199, "lon": 4.3374889, "tags": {"name": "Bethl\u00e9em - Bethlehem", "name:fr": "Bethl\u00e9em", "name:nl": "Bethlehem", "public_transport": "stop_position", "railway": "tram_stop", "tram": "yes"}}, {"type": "node", "id": 4429829326, "lat": 50.8286772, "lon": 4.3407587, "tags": {"name": "Guillaume Tell - Willem Tell", "name:fr": "Guillaume Tell", "name:nl": "Willem Tell", "public_transport": "stop_position", "railway": "tram_stop", "tram": "yes"}}, {"type": "node", "id": 4538720243, "lat": 50.8297188, "lon": 4.3464028, "tags": {"layer": "-2", "level": "-2", "location": "underground", "name": "Parvis de Saint-Gilles - Sint-Gillisvoorplein", "name:fr": "Parvis de Saint-Gilles", "name:nl": "Sint-Gillisvoorplein", "public_transport": "stop_position", "railway": "tram_stop", "tram": "yes"}}, {"type": "node", "id": 4594588116, "lat": 50.8318112, "lon": 4.3337712, "tags": {"name": "Avenue du Roi - Koningslaan", "name:fr": "Avenue du Roi", "name:nl": "Koningslaan", "public_transport": "stop_position", "railway": "tram_stop", "tram": "yes"}}]}