{"version": 0.6, "generator": "Overpass API 0.7.62.10 2d4cfc48", "osm3s": {"timestamp_osm_base": "2026-02-03T11:39:50Z", "copyright": "The data included in this document is from www.openstreetmap.org. The data is made available under ODbL."}, "elements": [{"type": "node", "id": 1631184366, "lat": 50.8848174, "lon": 4.3303081, "tags": {"amenity": "restaurant", "contact:email": "lapiazza@hotmail.be", "contact:facebook": "https://www.facebook.com/lapiazzajette/", "contact:phone": "+32 2 479 43 32", "contact:website": "https://lapiazzajette.be/en", "cuisine": "italian", "delivery": "yes", "name": "La Piazza", "opening_hours": "Tu-Su 12:00-14:30,18:00-22:30; Sa 18:00-23:00", "outdoor_seating": "yes", "takeaway": "yes"}}, {"type": "node", "id": 1631184402, "lat": 50.8849058, "lon": 4.3307107, "tags": {"amenity": "restaurant", "contact:email": "castelainlinda@outlook.com", "contact:facebook": "https://www.facebook.com/lemoulinapoivrejette", "contact:phone": "+32 2 479 58 08", "cuisine": "french;belgian", "name": "Le Moulin \u00e0 Poivre", "takeaway": "yes"}}, {"type": "node", "id": 4929638524, "lat": 50.8805847, "lon": 4.329749, "tags": {"amenity": "restaurant", "contact:facebook": "https://www.facebook.com/people/Tour-du-Monde/100059758875939/", "contact:phone": "+32 2 426 02 00", "contact:website": "https://tourdumondejette.be/", "cuisine": "international", "name": "Tour Du Monde", "opening_hours": "12:00-15:00,18:00-22:00; Tu off; Sa 18:00-22:00", "outdoor_seating": "yes", "wheelchair": "no"}}, {"type": "node", "id": 10198025692, "lat": 50.8805428, "lon": 4.3296882, "tags": {"amenity": "restaurant", "contact:facebook": "https://www.facebook.com/people/Les-petits-os/100057626702585/", "contact:phone": "+32 2 427 63 31", "contact:website": "https://www.lespetitsos.be", "name": "Les Petits Os", "opening_hours": "Mo-Sa 18:00-24:00; Su 12:00-15:00,18:00-24:00", "outdoor_seating": "yes", "takeaway": "yes"}}]}