{"version": 0.6, "generator": "Overpass API 0.7.62.10 2d4cfc48", "osm3s": {"timestamp_osm_base": "2026-02-10T15:45:15Z", "copyright": "The data included in this document is from www.openstreetmap.org. The data is made available under ODbL."}, "elements": [{"type": "node", "id": 843728921, "lat": 50.8431302, "lon": 4.3460212, "tags": {"amenity": "restaurant", "check_date": "2024-02-01", "contact:email": "info@houtsiplou.be", "contact:phone": "+32 2 511 38 16", "contact:website": "https://houtsiplou.be", "cuisine": "burger;brasserie", "internet_access": "wlan", "internet_access:fee": "customers", "name": "Houtsiplou", "opening_hours": "Tu-Su unknown; Mo off", "payment:cash": "yes", "payment:credit_cards": "yes", "payment:debit_cards": "yes", "toilets": "yes", "toilets:access": "public", "toilets:description": "Le r\u00e9seau des toilettes accueillantes - Netwerk gastvrije toiletten", "toilets:fee": "no", "wheelchair": "no"}}, {"type": "node", "id": 843728997, "lat": 50.8453335, "lon": 4.3475373, "tags": {"amenity": "restaurant", "name": "Jardin des olives"}}, {"type": "node", "id": 1151269399, "lat": 50.8452613, "lon": 4.3493227, "tags": {"amenity": "restaurant", "contact:phone": "+32 2 514 39 49", "contact:website": "https://www.lecercledesvoyageurs.com/", "cuisine": "international", "name": "Le Cercle des Voyageurs", "opening_hours": "Mo-Su 11:00-00:00", "panoramax": "bb6a8b96-c5aa-4fa9-8e94-fabbdd93461b"}}, {"type": "node", "id": 1151269409, "lat": 50.8458449, "lon": 4.3484449, "tags": {"amenity": "restaurant", "check_date": "2025-08-18", "contact:website": "https://tapaslocas.be/", "cuisine": "spanish", "name": "Tapas Locas"}}, {"type": "node", "id": 1762909959, "lat": 50.8402655, "lon": 4.3430116, "tags": {"amenity": "restaurant", "name": "L'oc\u00e9an"}}, {"type": "node", "id": 2624442420, "lat": 50.8408089, "lon": 4.3428647, "tags": {"amenity": "restaurant", "cuisine": "fish", "name": "Antartique", "note": "They spell it Antartique and not Antarctique (French name for Antarctica)\u2014this is not a typo in OSM, this is how the business owners wanted it"}}, {"type": "node", "id": 2631878633, "lat": 50.8456113, "lon": 4.3471137, "tags": {"amenity": "restaurant", "contact:phone": "+32 2 511 21 95", "contact:website": "https://www.rugantino-bxl.be", "cuisine": "italian", "name": "Rugantino", "opening_hours": "Mo-Fr 11:00-15:00,17:00-23:00; Sa 17:00-23:00"}}, {"type": "node", "id": 2631880233, "lat": 50.8451307, "lon": 4.3476059}, {"type": "node", "id": 2631880238, "lat": 50.8451351, "lon": 4.3476867}, {"type": "node", "id": 2631880240, "lat": 50.8451385, "lon": 4.3476856}, {"type": "node", "id": 2631880245, "lat": 50.8451395, "lon": 4.3475551}, {"type": "node", "id": 2631880247, "lat": 50.8451408, "lon": 4.3477326}, {"type": "node", "id": 2631880259, "lat": 50.8451437, "lon": 4.3477315}, {"type": "node", "id": 2631880265, "lat": 50.8451474, "lon": 4.3477823}, {"type": "node", "id": 2631880328, "lat": 50.8451911, "lon": 4.3475706}, {"type": "node", "id": 2631880331, "lat": 50.8451928, "lon": 4.3477629}, {"type": "node", "id": 2631880345, "lat": 50.8452147, "lon": 4.3476327}, {"type": "node", "id": 2631880347, "lat": 50.8452155, "lon": 4.3476558}, {"type": "node", "id": 2631880348, "lat": 50.845218, "lon": 4.3475787}, {"type": "node", "id": 2631880350, "lat": 50.8452183, "lon": 4.3477095}, {"type": "node", "id": 2631880354, "lat": 50.8452217, "lon": 4.3477081}, {"type": "node", "id": 2631880357, "lat": 50.845224, "lon": 4.3477481}, {"type": "node", "id": 3328716556, "lat": 50.8462541, "lon": 4.3489166, "tags": {"amenity": "restaurant", "check_date": "2023-11-14", "contact:email": "info@lelombard.eu", "contact:mobile": "+32 488 04 08 08", "contact:website": "https://www.lelombard.eu/", "cuisine": "regional", "indoor_seating": "yes", "internet_access": "wlan", "name": "Le Lombard", "outdoor_seating": "yes", "wheelchair": "no", "wikidata": "Q126014009", "wikimedia_commons": "Category:Le Lombard, Brussels"}}, {"type": "node", "id": 4154776793, "lat": 50.8461234, "lon": 4.3478062, "tags": {"amenity": "restaurant", "check_date:opening_hours": "2025-05-22", "contact:website": "https://ginette-au-secours.business.site/", "entrance:kerb:height": "0", "entrance:step_count": "0", "entrance:width": "1", "name": "Ginette au Secours", "opening_hours:signed": "no", "wheelchair:turning_circle": "yes"}}, {"type": "node", "id": 4352436897, "lat": 50.8459173, "lon": 4.3485094, "tags": {"amenity": "restaurant", "check_date": "2025-08-18", "contact:phone": "+32 2 502 00 76", "contact:website": "http://www.mammam.be/", "cuisine": "thai", "indoor_seating": "yes", "name": "Mam Mam", "opening_hours": "Mo-Sa 12:00-15:00, 18:00-23:00; Su 18:00-23:00", "outdoor_seating": "yes"}}, {"type": "node", "id": 4388793401, "lat": 50.8431008, "lon": 4.3464106, "tags": {"amenity": "restaurant", "contact:mobile": "+32 455 10 47 34", "name": "Lise", "opening_hours": "Tu,Sa 19:00-22:00; We-Sa 12:00-14:00,19:00-22:00"}}, {"type": "node", "id": 4418284332, "lat": 50.8454841, "lon": 4.3482899, "tags": {"amenity": "restaurant", "check_date": "2025-08-18", "name": "La Caneva"}}, {"type": "node", "id": 4418284333, "lat": 50.8455697, "lon": 4.3484429, "tags": {"amenity": "restaurant", "check_date": "2023-08-26", "name": "La Cantina Cubana"}}, {"type": "node", "id": 4418284355, "lat": 50.8457964, "lon": 4.3495394, "tags": {"amenity": "restaurant", "contact:facebook": "resto.lelotusbleu", "contact:phone": "+32 2 502 62 99", "contact:website": "https://lotusbleu.biz/", "cuisine": "vietnamese", "name": "Le Lotus Bleu"}}, {"type": "node", "id": 4624827493, "lat": 50.8435522, "lon": 4.3449662, "tags": {"amenity": "restaurant", "check_date": "2025-05-01", "contact:phone": "+32 2 512 19 25", "cuisine": "vietnamese", "internet_access": "wlan", "name": "Thien Kim", "opening_hours": "Mo-Fr 11:00-17:00"}}, {"type": "node", "id": 5674766021, "lat": 50.8453489, "lon": 4.347597, "tags": {"amenity": "restaurant", "contact:phone": "+32 2 512 52 08", "cuisine": "asian", "name": "Asiagrill", "opening_hours": "Mo-Sa 12:00-14:30, 18:00-23:00, Su off", "outdoor_seating": "yes", "takeaway": "yes"}}, {"type": "node", "id": 8419872116, "lat": 50.8396365, "lon": 4.3421497, "tags": {"amenity": "restaurant", "name": "Chef Yusuf"}}, {"type": "node", "id": 10608434076, "lat": 50.839482, "lon": 4.3419427, "tags": {"amenity": "restaurant", "check_date": "2025-04-20", "name": "Rio do Texas"}}, {"type": "node", "id": 10608434077, "lat": 50.8397293, "lon": 4.3415448, "tags": {"amenity": "restaurant", "name": "Uncle Kasap"}}, {"type": "node", "id": 10814824702, "lat": 50.8427215, "lon": 4.350974, "tags": {"air_conditioning": "yes", "amenity": "restaurant", "indoor_seating": "yes", "name": "La Brasserie des Alexiens", "opening_hours": "Tu-Th 12:00-14:00,19:00-22:00; Fr 12:00-14:00,19:00-22:30; Sa 19:00-22:30", "outdoor_seating": "no", "ref:vatin": "BE0769652834", "wheelchair": "no"}}, {"type": "node", "id": 12401831941, "lat": 50.8447074, "lon": 4.3461821, "tags": {"amenity": "restaurant", "cuisine": "syrian", "name": "Basha Alsham"}}, {"type": "node", "id": 12531627112, "lat": 50.8423459, "lon": 4.345814, "tags": {"amenity": "restaurant", "contact:phone": "+32 2 512 29 21", "contact:website": "https://www.commechezsoi.be", "cuisine": "french", "name": "Comme Chez Soi", "wikidata": "Q2560211", "wikipedia": "nl:Comme chez soi"}}, {"type": "node", "id": 12812527572, "lat": 50.8429867, "lon": 4.3451812, "tags": {"amenity": "restaurant", "mapillary": "529906089766101", "name": "Saint d'Hic II", "start_date": "2024"}}, {"type": "node", "id": 13009173342, "lat": 50.8405296, "lon": 4.3418083, "tags": {"amenity": "restaurant", "name": "Passadena"}}, {"type": "node", "id": 13009176367, "lat": 50.840109, "lon": 4.3413683, "tags": {"amenity": "restaurant", "name": "Cafetaria Tetouan"}}, {"type": "way", "id": 747529524, "nodes": [2631880348, 2631880345, 2631880347, 2631880354, 2631880350, 2631880357, 2631880331, 2631880265, 2631880247, 2631880259, 2631880240, 2631880238, 2631880233, 2631880245, 2631880328, 2631880348], "tags": {"amenity": "restaurant", "contact:phone": "+32 2 513 42 76", "cuisine": "brazilian", "name": "La Cantina Brasil", "opening_hours": "Mo 12:00-15:00; Tu-Fr 12:00-15:00,19:00-22:30; Sa 19:00-22:30"}}]}