{"version": 0.6, "generator": "Overpass API 0.7.62.10 2d4cfc48", "osm3s": {"timestamp_osm_base": "2026-02-02T17:54:05Z", "copyright": "The data included in this document is from www.openstreetmap.org. The data is made available under ODbL."}, "elements": [{"type": "node", "id": 2452583796, "lat": 50.8328454, "lon": 4.3664663, "tags": {"amenity": "cafe", "indoor_seating": "yes", "name": "Frit Cocq", "outdoor_seating": "sidewalk"}}, {"type": "node", "id": 2476909622, "lat": 50.8278433, "lon": 4.3696353, "tags": {"amenity": "cafe", "cuisine": "organic", "name": "Godjo bar"}}, {"type": "node", "id": 3322996451, "lat": 50.8278219, "lon": 4.3687001, "tags": {"amenity": "cafe", "check_date": "2026-02-02", "name": "Miis B"}}, {"type": "node", "id": 3322996454, "lat": 50.827691, "lon": 4.365469, "tags": {"amenity": "cafe", "check_date": "2026-02-02", "contact:facebook": "https://www.facebook.com/popotes.brussels", "contact:mobile": "+32 470 32 21 03", "cuisine": "creole", "description": "Calm Caf\u00e9 du quartier with coffee, sandwiches and brunch", "indoor_seating": "yes", "name": "Popotes Ixelles", "opening_hours": "Sa-Su 10:00-17:30;We-Fr 09:00-17:30", "outdoor_seating": "yes"}}, {"type": "node", "id": 3323729862, "lat": 50.8274084, "lon": 4.3642985, "tags": {"amenity": "cafe", "check_date": "2026-02-02", "check_date:opening_hours": "2025-06-12", "contact:phone": "+32 2 646 72 14", "contact:website": "https://naturalcaffe.com/", "cuisine": "coffee_shop", "full_name": "Natural Caff\u00e8 Louise", "indoor_seating": "yes", "name": "Natural Caffe", "opening_hours": "Mo-Fr 07:30-18:00; Sa 09:00-19:00; Su 10:00-15:00; PH off", "outdoor_seating": "yes", "wheelchair": "no"}}, {"type": "node", "id": 4706275389, "lat": 50.8336951, "lon": 4.3586089, "tags": {"amenity": "cafe", "contact:phone": "+32 2 513 40 00", "contact:website": "https://www.louisefactory.com", "name": "Casa Louise", "opening_hours": "Mo-Sa 10:30-19:00; Su 11:00-16:30"}}, {"type": "node", "id": 5464255321, "lat": 50.8315174, "lon": 4.3604807, "tags": {"amenity": "cafe", "contact:phone": "+32 2 513 92 13", "contact:website": "http://www.gazetta.be", "cuisine": "italian", "internet_access": "wlan", "name": "Gazetta", "opening_hours": "Mo-Sa 09:00-23:00; Su 11:00-17:00"}}, {"type": "node", "id": 6119928234, "lat": 50.8352875, "lon": 4.3631937, "tags": {"amenity": "cafe", "changing_table": "no", "entrance:kerb:height": "0.27", "entrance:ramp": "no", "entrance:step_count": "3", "entrance:width": "0.8", "lgbtq:women": "primary", "name": "The Crazy Circle", "survey:date": "2024-12-01", "toilets:wheelchair": "no", "website": "https://www.thecrazycircle.com/", "wheelchair:turning_circle": "no"}}, {"type": "node", "id": 7976058340, "lat": 50.8361514, "lon": 4.3586191, "tags": {"amenity": "cafe", "contact:facebook": "https://www.facebook.com/buddybuddybio", "contact:instagram": "https://www.instagram.com/buddybuddy", "contact:website": "https://buddybuddy.co/pages/brussels", "cuisine": "coffee_shop;organic", "description": "Laptops are not allowed on week-ends and holidays.", "diet:vegan": "only", "name": "Buddy Buddy", "opening_hours": "Mo-Fr 08:30-19:00; Sa-Su 09:00-19:00", "payment:cash": "no", "toilets:wheelchair": "no", "wheelchair": "limited"}}, {"type": "node", "id": 11865722877, "lat": 50.8337772, "lon": 4.3578063, "tags": {"amenity": "cafe", "contact:website": "http://ateliqi.cluster027.hosting.ovh.net/", "name": "L\u2018Atelier en ville", "opening_hours": "Mo-Fr 09:00-18:00; Sa 09:00-19:00"}}, {"type": "node", "id": 12202464491, "lat": 50.8314274, "lon": 4.3601085, "tags": {"amenity": "cafe", "name": "Leopold Cafe Presse", "website": "https://leopoldcafepresse.com"}}, {"type": "node", "id": 12205646397, "lat": 50.8314274, "lon": 4.3601085, "tags": {"amenity": "cafe", "website": "https://leopoldcafepresse.com/"}}, {"type": "node", "id": 12548617003, "lat": 50.8276273, "lon": 4.3691318, "tags": {"amenity": "cafe", "check_date": "2026-02-02", "name": "Ch\u00e1 Shi"}}, {"type": "node", "id": 13041912401, "lat": 50.8306529, "lon": 4.3608979, "tags": {"amenity": "cafe", "brand": "Le Pain Quotidien", "brand:wikidata": "Q2046903", "cuisine": "coffee_shop", "name": "Le Pain Quotidien", "outdoor_seating": "no", "takeaway": "yes"}}, {"type": "node", "id": 13206761970, "lat": 50.8274477, "lon": 4.3682665, "tags": {"amenity": "cafe", "contact:website": "https://www.dogoodcafe.org/", "description": "Dog-friendly cafe, with food and drinks for humans and for dogs", "dog": "yes", "name": "Dogood"}}]}