{"version": 0.6, "generator": "Overpass API 0.7.62.10 2d4cfc48", "osm3s": {"timestamp_osm_base": "2026-02-02T17:08:02Z", "copyright": "The data included in this document is from www.openstreetmap.org. The data is made available under ODbL."}, "elements": [{"type": "node", "id": 240749706, "lat": 50.8375152, "lon": 4.3457359, "tags": {"amenity": "pub", "indoor_seating": "yes", "name": "Le Chaff", "outdoor_seating": "sidewalk", "wheelchair": "limited"}}, {"type": "node", "id": 331952984, "lat": 50.83753, "lon": 4.3465478, "tags": {"amenity": "pub", "indoor_seating": "yes", "name": "Le Chineur", "outdoor_seating": "sidewalk", "toilets": "yes", "toilets:access": "public", "toilets:description": "Le r\u00e9seau des toilettes accueillantes - Netwerk gastvrije toiletten", "toilets:fee": "no"}}, {"type": "node", "id": 1196935388, "lat": 50.8363855, "lon": 4.3458579, "tags": {"amenity": "pub", "check_date": "2022-10-31", "contact:email": "cheers@mazette.brussels", "contact:mobile": "+32 478 55 61 58", "contact:website": "https://mazette.brussels", "cuisine": "breakfast;cake;coffee_shop;tapas;tea", "microbrewery": "yes", "name": "Mazette", "opening_hours": "Tu 17:00-00:00; We-Th 11:00-00:00; Fr 11:00-01:00; Sa 10:00-01:00; Su 10:00-18:30", "operator:type": "cooperative", "outdoor_seating": "yes", "start_date": "2022-03-10"}}, {"type": "node", "id": 2665166422, "lat": 50.8406045, "lon": 4.3515756, "tags": {"amenity": "bar", "check_date": "2024-10-16", "indoor_seating": "yes", "name": "Kombi Bar", "opening_hours": "11:00-24:00", "outdoor_seating": "yes"}}, {"type": "node", "id": 4588765293, "lat": 50.8374343, "lon": 4.3467495, "tags": {"amenity": "bar", "check_date": "2024-10-27", "contact:facebook": "https://www.facebook.com/lemarseillaisdujeudeballe/", "indoor_seating": "yes", "name": "Le Marseillais", "opening_hours": "10:00-00:00", "outdoor_seating": "sidewalk", "smoking": "outside"}}, {"type": "node", "id": 4973895934, "lat": 50.8369883, "lon": 4.3475855, "tags": {"amenity": "bar", "name": "Gimic", "website": "https://gimicradio.com"}}, {"type": "node", "id": 5111693903, "lat": 50.8364125, "lon": 4.3453938, "tags": {"amenity": "pub", "name": "Au Vieux March\u00e9"}}, {"type": "node", "id": 5111693904, "lat": 50.8363714, "lon": 4.3454944, "tags": {"amenity": "pub", "indoor_seating": "yes", "name": "Au Mouton Bleu - In Den Blauwen Lemmen", "name:fr": "Au Mouton Bleu", "name:nl": "In Den Blauwen Lemmen", "outdoor_seating": "yes", "wheelchair": "limited"}}, {"type": "node", "id": 5111694586, "lat": 50.8367762, "lon": 4.3448587, "tags": {"amenity": "pub", "description": "Taverne", "name": "Le Stoefer"}}, {"type": "node", "id": 5111696130, "lat": 50.8368626, "lon": 4.3449687, "tags": {"amenity": "bar", "name": "La Plume - De Pluim", "name:fr": "La Plume", "name:nl": "De Pluim"}}, {"type": "node", "id": 5111696137, "lat": 50.8369029, "lon": 4.3450203, "tags": {"amenity": "pub", "name": "Les Puces des Marolles"}}, {"type": "node", "id": 5111697010, "lat": 50.836811, "lon": 4.3449023, "tags": {"amenity": "bar", "name": "Le Pav\u00e9", "toilets": "yes", "toilets:access": "public", "toilets:description": "Le r\u00e9seau des toilettes accueillantes - Netwerk gastvrije toiletten", "toilets:fee": "no"}}, {"type": "node", "id": 5111702994, "lat": 50.837013, "lon": 4.3451336, "tags": {"amenity": "bar", "name": "Caf\u00e9 Aline"}}, {"type": "node", "id": 5111702995, "lat": 50.8370854, "lon": 4.3452228, "tags": {"amenity": "pub", "wikidata": "Q110373266"}}, {"type": "node", "id": 6525493580, "lat": 50.8367739, "lon": 4.3481396, "tags": {"amenity": "bar", "contact:website": "https://wielsrenardnoir.wixsite.com/", "name": "Wiel's Renard Noir", "wikidata": "Q42418545", "wikimedia_commons": "Category:Wiel's Renard Noir"}}, {"type": "node", "id": 7661415307, "lat": 50.838225, "lon": 4.3510142, "tags": {"amenity": "pub", "name": "Simone"}}, {"type": "node", "id": 7733405194, "lat": 50.8375393, "lon": 4.3420146, "tags": {"amenity": "pub", "contact:email": "jansens-jansens@nubo.coop", "contact:facebook": "https://www.facebook.com/BijChezJansensenJansens/", "contact:instagram": "instagram.com/bijchezjansensenjansens", "contact:phone": "+32 2 511 26 50", "cook": "France Dauby", "name": "Bij/Chez Jansens & Jansens", "opening_hours": "Tu-Th 10:00-18:00; Fr-Sa 10:00-24:00; Su 10:00-17:00", "outdoor_seating": "sidewalk", "panoramax": "4614c81f-737b-4f13-ae4c-158871d9a595", "panoramax:0": "7e0eb8eb-6d8c-4322-9418-5ff897d271be", "panoramax:1": "dcc068de-5121-45d8-ba11-b479bfac81b4", "panoramax:2": "50359460-f5eb-4a74-80e9-3b27b6e15130", "start_date": "2023-04-07", "url:0": "https://www.bruzz.be/videoreeks/zaterdag-30-september-en-zondag-1-oktober-2023/video-bijchez-jansens-jansens-we-zijn-nu", "url:1": "https://www.bruzz.be/video-brasserie-chez-jansens-jansens-opent-coronatijden-2020-07-21", "was:contact:facebook": "https://www.facebook.com/brasserieathoise/", "was:description": "Caf\u00e9 brasserie familiale avec petite restauration tenu par Nicolas et Voula depuis 1985. \u039a\u03b1\u03c6\u03ad \u03ba\u03b1\u03b9 \u03b3\u03c1\u03ae\u03b3\u03bf\u03c1\u03bf \u03c6\u03b1\u03b3\u03b7\u03c4\u03cc \u03b1\u03c0\u03cc \u03c4\u03bf 1985. 29/12/2019 fermeture d\u00e9finitive", "was:name": "Brasserie Athoise"}}, {"type": "node", "id": 9010620573, "lat": 50.8344631, "lon": 4.3431497, "tags": {"amenity": "pub", "indoor_seating": "yes", "name": "Volle Pot", "outdoor_seating": "no"}}, {"type": "node", "id": 9937556851, "lat": 50.8369582, "lon": 4.3487215, "tags": {"amenity": "pub", "indoor_seating": "yes", "name": "Le Petit Lion", "opening_hours": "Mo-Fr 10:00-23:00, Sa,Su 10:00-02:00", "outdoor_seating": "yes", "payment:credit_cards": "no", "payment:debit_cards": "yes", "start_date": "1908"}}, {"type": "node", "id": 10079780051, "lat": 50.833464, "lon": 4.3457368, "tags": {"amenity": "pub", "check_date": "2022-10-06", "microbrewery": "yes", "name": "St-Pierre"}}, {"type": "node", "id": 10159200292, "lat": 50.8336004, "lon": 4.3444264, "tags": {"amenity": "pub", "indoor_seating": "yes", "name": "New Faucon", "outdoor_seating": "sidewalk", "wheelchair": "no"}}, {"type": "node", "id": 10922478626, "lat": 50.8374397, "lon": 4.3491915, "tags": {"amenity": "bar", "changing_table": "yes", "contact:website": "https://www.lereservoir.be/", "entrance:kerb:height": "0.1", "entrance:ramp": "no", "entrance:step_count": "1", "entrance:width": "0.9", "indoor_seating": "yes", "name": "Le R\u00e9servoir", "opening_hours": "We-Sa 18:00-23:30", "outdoor_seating": "yes", "toilets:wheelchair": "no", "wheelchair:turning_circle": "yes"}}, {"type": "node", "id": 11734945055, "lat": 50.8376007, "lon": 4.3484965, "tags": {"amenity": "nightclub", "name": "Bazaar"}}, {"type": "node", "id": 11816542728, "lat": 50.8411363, "lon": 4.3504309, "tags": {"amenity": "nightclub", "contact:website": "https://www.barrio-brussels.be/", "name": "Barrio", "start_date": "2018"}}, {"type": "node", "id": 12140099647, "lat": 50.8353591, "lon": 4.3447628, "tags": {"amenity": "nightclub", "contact:email": "info@fuse.be", "contact:facebook": "fusebrussels", "contact:instagram": "fusebrussels", "contact:website": "https://fuse.be/", "fee": "yes", "live_music": "yes", "name": "Fuse", "operator": "THICO", "operator:wikidata": "Q130525932", "start_date": "1994-04-16", "wikidata": "Q3091103", "wikimedia_commons": "Category:Fuse"}}, {"type": "node", "id": 12744956260, "lat": 50.8374545, "lon": 4.3541274, "tags": {"amenity": "bar", "contact:website": "https://oken.be/", "level": "-1", "name": "\u00d6k\u0113n"}}, {"type": "node", "id": 12758051704, "lat": 50.8376671, "lon": 4.3459022, "tags": {"amenity": "bar", "name": "Muche"}}]}