{"version": 0.6, "generator": "Overpass API 0.7.62.10 2d4cfc48", "osm3s": {"timestamp_osm_base": "2026-02-03T09:36:59Z", "copyright": "The data included in this document is from www.openstreetmap.org. The data is made available under ODbL."}, "elements": [{"type": "node", "id": 247432461, "lat": 50.8493415, "lon": 4.3714294, "tags": {"amenity": "nightclub", "contact:website": "https://www.miranobrussels.com/", "name": "Mirano Brussels", "wikidata": "Q3224581", "wikimedia_commons": "Category:Cinema Mirano", "wikipedia": "fr:Le Mirano"}}, {"type": "node", "id": 488330417, "lat": 50.8529883, "lon": 4.3772996, "tags": {"amenity": "pub", "name": "Caf\u00e9 du Parc"}}, {"type": "node", "id": 2477880440, "lat": 50.8492809, "lon": 4.3744291, "tags": {"amenity": "bar", "name": "New St. Josse", "outdoor_seating": "yes"}}, {"type": "node", "id": 2477880463, "lat": 50.8485083, "lon": 4.3740655, "tags": {"amenity": "bar", "brewery": "no", "name": "L\u2019Isola", "outdoor_seating": "yes"}}, {"type": "node", "id": 4773035622, "lat": 50.8495011, "lon": 4.3693009, "tags": {"amenity": "bar", "description": "Serves mostly fresh juices", "layer": "-1", "level": "-1", "location": "underground", "name": "Guapa"}}, {"type": "node", "id": 5375750421, "lat": 50.8496034, "lon": 4.3737775, "tags": {"amenity": "bar", "entrance:kerb:height": "0", "entrance:step_count": "0", "entrance:width": "1", "name": "Le Vieux Saint Josse"}}, {"type": "node", "id": 6226079835, "lat": 50.8495634, "lon": 4.3760483, "tags": {"amenity": "bar", "name": "Pacific"}}, {"type": "node", "id": 6228044685, "lat": 50.8487394, "lon": 4.3779355, "tags": {"amenity": "bar", "check_date:opening_hours": "2024-08-03", "name": "Le Gutenberg", "opening_hours:signed": "no"}}, {"type": "node", "id": 6228098035, "lat": 50.8491257, "lon": 4.3768064, "tags": {"amenity": "pub", "name": "Cafe Belge", "was:amenity": "restaurant", "was:name": "Snack Berat"}}, {"type": "node", "id": 6228102218, "lat": 50.8496166, "lon": 4.3758821, "tags": {"amenity": "bar", "name": "Sans Chicis"}}, {"type": "node", "id": 6228231686, "lat": 50.8497151, "lon": 4.3735058, "tags": {"amenity": "bar", "name": "Les Saints"}}, {"type": "node", "id": 6247930888, "lat": 50.8499353, "lon": 4.3738763, "tags": {"amenity": "bar", "check_date": "2025-03-11", "name": "Taverne vip"}}, {"type": "node", "id": 6247953029, "lat": 50.8490947, "lon": 4.3701834, "tags": {"amenity": "bar", "check_date": "2023-12-08", "name": "Le petit Madou"}}, {"type": "node", "id": 11940262185, "lat": 50.8527533, "lon": 4.3736916, "tags": {"amenity": "bar", "check_date:opening_hours": "2024-09-12", "name": "Le L\u00e9opold", "opening_hours:signed": "no"}}, {"type": "node", "id": 12895325282, "lat": 50.8491636, "lon": 4.3711243, "tags": {"alt_name": "Chez Jonny", "amenity": "nightclub", "name": "Claridge"}}, {"type": "node", "id": 12980329248, "lat": 50.8531675, "lon": 4.3733052, "tags": {"amenity": "pub", "name": "Memicek"}}]}