{"version": 0.6, "generator": "Overpass API 0.7.62.10 2d4cfc48", "osm3s": {"timestamp_osm_base": "2026-02-02T17:38:42Z", "copyright": "The data included in this document is from www.openstreetmap.org. The data is made available under ODbL."}, "elements": [{"type": "node", "id": 142700510, "lat": 50.8428062, "lon": 4.3818382, "tags": {"name": "Schuman", "name:etymology:wikidata": "Q15981", "network": "IBXL", "network:wikidata": "Q114957008", "operator": "STIB/MIVB", "operator:wikidata": "Q1631655", "public_transport": "station", "railway": "station", "ref:STIB_MIVB": "06", "station": "subway", "subway": "yes", "wheelchair": "yes", "wikidata": "Q2176793", "wikipedia": "nl:Schuman (metrostation)"}}, {"type": "node", "id": 142700511, "lat": 50.8455451, "lon": 4.36877, "tags": {"name": "Arts-Loi - Kunst-Wet", "name:fr": "Arts-Loi", "name:nl": "Kunst-Wet", "network": "IBXL", "network:wikidata": "Q114957008", "operator": "STIB/MIVB", "operator:wikidata": "Q1631655", "public_transport": "station", "railway": "station", "ref:STIB_MIVB": "04;40", "station": "subway", "subway": "yes", "wheelchair": "yes", "wikidata": "Q893211", "wikipedia": "fr:Arts-Loi (m\u00e9tro de Bruxelles)"}}, {"type": "node", "id": 142758883, "lat": 50.841247, "lon": 4.3665164, "tags": {"name": "Tr\u00f4ne - Troon", "name:fr": "Tr\u00f4ne", "name:nl": "Troon", "network": "IBXL", "network:wikidata": "Q114957008", "operator": "STIB/MIVB", "operator:wikidata": "Q1631655", "public_transport": "station", "railway": "station", "ref:STIB_MIVB": "30", "station": "subway", "subway": "yes", "wheelchair": "limited", "wikidata": "Q2889894", "wikipedia": "fr:Tr\u00f4ne (m\u00e9tro de Bruxelles)"}}, {"type": "node", "id": 145980763, "lat": 50.8438339, "lon": 4.3769687, "tags": {"name": "Maelbeek - Maalbeek", "name:etymology:wikidata": "Q506931", "name:fr": "Maelbeek", "name:nl": "Maalbeek", "network": "IBXL", "network:wikidata": "Q114957008", "operator": "STIB/MIVB", "operator:wikidata": "Q1631655", "public_transport": "station", "railway": "station", "ref:STIB_MIVB": "05", "station": "subway", "subway": "yes", "wheelchair": "yes", "wikidata": "Q2206139", "wikipedia": "fr:Maelbeek (m\u00e9tro de Bruxelles)"}}, {"type": "node", "id": 3887847332, "lat": 50.8382113, "lon": 4.3736635, "tags": {"internet_access": "wlan", "name": "Bruxelles-Luxembourg - Brussel-Luxemburg", "name:de": "Br\u00fcssel-Luxemburg", "name:en": "Brussels-Luxembourg", "name:fr": "Bruxelles-Luxembourg", "name:nl": "Brussel-Luxemburg", "old_name": "Quartier-L\u00e9opold - Brussel-Leopoldswijk", "operator": "NMBS/SNCB", "operator:wikidata": "Q524255", "public_transport": "station", "railway": "station", "railway:ref": "LX", "train": "yes", "transport": "train", "uic_ref": "8811304", "website": "https://www.belgiantrain.be/station-information/brussel-bruxelles/luxemburg-luxembourg", "wheelchair": "yes", "wikidata": "Q800583", "wikipedia": "fr:Gare de Bruxelles-Luxembourg", "zone:NMBS_SNCB": "Bruxelles - Brussel"}}, {"type": "node", "id": 5924443350, "lat": 50.8428667, "lon": 4.3806152, "tags": {"name": "Bruxelles-Schuman - Brussel-Schuman", "name:en": "Brussels-Schuman", "name:etymology:wikidata": "Q15981", "name:fr": "Bruxelles-Schuman", "name:nl": "Brussel-Schuman", "operator": "NMBS/SNCB", "operator:wikidata": "Q524255", "public_transport": "station", "railway": "station", "railway:ref": "FBSM", "train": "yes", "uic_ref": "8811916", "website": "https://www.belgiantrain.be/station-information/brussel-bruxelles/schuman", "wikidata": "Q800589", "wikipedia": "nl:Station Brussel-Schuman", "zone:NMBS_SNCB": "Bruxelles - Brussel"}}]}