{"version": 0.6, "generator": "Overpass API 0.7.62.10 2d4cfc48", "osm3s": {"timestamp_osm_base": "2026-02-02T16:11:56Z", "copyright": "The data included in this document is from www.openstreetmap.org. The data is made available under ODbL."}, "elements": [{"type": "node", "id": 345539904, "lat": 50.8608504, "lon": 4.3605919, "tags": {"layer": "-2", "level": "-2", "location": "underground", "name": "Gare du Nord - Noordstation", "name:fr": "Gare du Nord", "name:nl": "Noordstation", "public_transport": "stop_position", "railway": "tram_stop", "tram": "yes"}}, {"type": "node", "id": 493584391, "lat": 50.8594259, "lon": 4.3681593, "tags": {"name": "Sainte-Marie - Sint-Maria", "name:fr": "Sainte-Marie", "name:nl": "Sint-Maria", "public_transport": "stop_position", "railway": "tram_stop", "tram": "yes"}}, {"type": "node", "id": 2871131073, "lat": 50.8730035, "lon": 4.3781619, "tags": {"name": "Princesse \u00c9lisabeth - Prinses Elisabeth", "name:fr": "Princesse \u00c9lisabeth", "name:nl": "Prinses Elisabeth", "public_transport": "stop_position", "railway": "tram_stop", "tram": "yes"}}, {"type": "node", "id": 2871298504, "lat": 50.871216, "lon": 4.3763874, "tags": {"name": "Verboekhoven", "public_transport": "stop_position", "railway": "tram_stop", "tram": "yes"}}, {"type": "node", "id": 2871298505, "lat": 50.8712152, "lon": 4.3764075, "tags": {"name": "Verboekhoven", "public_transport": "stop_position", "railway": "tram_stop", "tram": "yes"}}, {"type": "node", "id": 2871298528, "lat": 50.8713034, "lon": 4.37531, "tags": {"name": "Verboekhoven", "public_transport": "stop_position", "railway": "tram_stop", "tram": "yes"}}, {"type": "node", "id": 2871531703, "lat": 50.8715872, "lon": 4.3842866, "tags": {"name": "Foyer Schaerbeekois - Schaarbeekse Haard", "name:fr": "Foyer Schaerbeekois", "name:nl": "Schaarbeekse Haard", "public_transport": "stop_position", "railway": "tram_stop", "tram": "yes"}}, {"type": "node", "id": 2871531714, "lat": 50.8718118, "lon": 4.3805727, "tags": {"name": "Demolder", "public_transport": "stop_position", "railway": "tram_stop", "tram": "yes"}}, {"type": "node", "id": 2871531726, "lat": 50.8722273, "lon": 4.3798469, "tags": {"name": "Demolder", "public_transport": "stop_position", "railway": "tram_stop", "tram": "yes"}}, {"type": "node", "id": 2871531739, "lat": 50.8732493, "lon": 4.3776382, "tags": {"name": "Princesse \u00c9lisabeth - Prinses Elisabeth", "name:fr": "Princesse \u00c9lisabeth", "name:nl": "Prinses Elisabeth", "public_transport": "stop_position", "railway": "tram_stop", "tram": "yes"}}, {"type": "node", "id": 2883452658, "lat": 50.8604747, "lon": 4.401532, "tags": {"name": "Pentathlon", "public_transport": "stop_position", "railway": "tram_stop", "tram": "yes"}}, {"type": "node", "id": 2883509608, "lat": 50.8604561, "lon": 4.3931076, "tags": {"name": "Chazal", "public_transport": "stop_position", "railway": "tram_stop", "tram": "yes"}}, {"type": "node", "id": 2883560179, "lat": 50.8667533, "lon": 4.385352, "tags": {"name": "Louis Bertrand", "public_transport": "stop_position", "railway": "tram_stop", "tram": "yes"}}, {"type": "node", "id": 2883799336, "lat": 50.8548256, "lon": 4.3987616, "tags": {"name": "Meiser", "public_transport": "stop_position", "railway": "tram_stop", "tram": "yes"}}, {"type": "node", "id": 2883799392, "lat": 50.8552167, "lon": 4.3970724, "tags": {"name": "Meiser", "public_transport": "stop_position", "railway": "tram_stop", "tram": "yes"}}, {"type": "node", "id": 2883870425, "lat": 50.8582727, "lon": 4.3840835, "tags": {"name": "Bienfaiteurs - Weldoeners", "name:fr": "Bienfaiteurs", "name:nl": "Weldoeners", "public_transport": "stop_position", "railway": "tram_stop", "tram": "yes"}}, {"type": "node", "id": 3124859564, "lat": 50.8774207, "lon": 4.3792923, "tags": {"name": "Schaerbeek Gare - Schaarbeek Station", "name:fr": "Schaerbeek Gare", "name:nl": "Schaarbeek Station", "public_transport": "stop_position", "railway": "tram_stop", "tram": "yes"}}, {"type": "node", "id": 3126574311, "lat": 50.8612075, "lon": 4.3675884, "tags": {"name": "Lefrancq", "public_transport": "stop_position", "railway": "tram_stop", "tram": "yes"}}, {"type": "node", "id": 3126574334, "lat": 50.8614813, "lon": 4.3675442, "tags": {"name": "Lefrancq", "public_transport": "stop_position", "railway": "tram_stop", "tram": "yes"}}, {"type": "node", "id": 3126574377, "lat": 50.8640587, "lon": 4.3733375, "tags": {"name": "\u00c9glise Saint-Servais - St-Servaaskerk", "name:fr": "\u00c9glise Saint-Servais", "name:nl": "St-Servaaskerk", "public_transport": "stop_position", "railway": "tram_stop", "tram": "yes"}}, {"type": "node", "id": 3126574378, "lat": 50.8642581, "lon": 4.3734872, "tags": {"name": "\u00c9glise Saint-Servais - St-Servaaskerk", "name:fr": "\u00c9glise Saint-Servais", "name:nl": "St-Servaaskerk", "public_transport": "stop_position", "railway": "tram_stop", "tram": "yes"}}, {"type": "node", "id": 3126574385, "lat": 50.8649062, "lon": 4.37389, "tags": {"name": "D\u00e9p\u00f4t Schaerbeek - Stelplaats Schaarbeek", "name:fr": "D\u00e9p\u00f4t Schaerbeek", "name:nl": "Stelplaats Schaarbeek", "public_transport": "stop_position", "railway": "tram_stop", "tram": "yes"}}, {"type": "node", "id": 3126574504, "lat": 50.8682718, "lon": 4.3754879, "tags": {"name": "Eenens", "public_transport": "stop_position", "railway": "tram_stop", "tram": "yes"}}, {"type": "node", "id": 3126574507, "lat": 50.8686201, "lon": 4.3747689, "tags": {"name": "Eenens", "public_transport": "stop_position", "railway": "tram_stop", "tram": "yes"}}, {"type": "node", "id": 3126953180, "lat": 50.858052, "lon": 4.3681987, "tags": {"name": "Sainte-Marie - Sint-Maria", "name:fr": "Sainte-Marie", "name:nl": "Sint-Maria", "public_transport": "stop_position", "railway": "tram_stop", "tram": "yes"}}, {"type": "node", "id": 3129550769, "lat": 50.8666194, "lon": 4.3687335, "tags": {"name": "Gallait", "public_transport": "stop_position", "railway": "tram_stop", "tram": "yes"}}, {"type": "node", "id": 3136264499, "lat": 50.8614376, "lon": 4.3684199, "tags": {"name": "Lefrancq", "public_transport": "stop_position", "railway": "tram_stop", "tram": "yes"}}, {"type": "node", "id": 3136264502, "lat": 50.8616047, "lon": 4.3677867, "tags": {"name": "Lefrancq", "public_transport": "stop_position", "railway": "tram_stop", "tram": "yes"}}, {"type": "node", "id": 3136264541, "lat": 50.8670674, "lon": 4.3637454, "tags": {"name": "Thomas", "public_transport": "stop_position", "railway": "tram_stop", "tram": "yes"}}, {"type": "node", "id": 3137393072, "lat": 50.8489178, "lon": 4.4024357, "tags": {"layer": "-2", "level": "-2", "location": "underground", "name": "Diamant", "public_transport": "stop_position", "railway": "tram_stop", "tram": "yes"}}, {"type": "node", "id": 3137393073, "lat": 50.8493994, "lon": 4.4022185, "tags": {"layer": "-2", "level": "-2", "location": "underground", "name": "Diamant", "public_transport": "stop_position", "railway": "tram_stop", "tram": "yes"}}, {"type": "node", "id": 3137393085, "lat": 50.8599158, "lon": 4.3595872, "tags": {"layer": "-2", "level": "-2", "location": "underground", "name": "Gare du Nord - Noordstation", "name:fr": "Gare du Nord", "name:nl": "Noordstation", "public_transport": "stop_position", "railway": "tram_stop", "tram": "yes"}}, {"type": "node", "id": 3202278540, "lat": 50.8554954, "lon": 4.3958853, "tags": {"name": "Meiser", "public_transport": "stop_position", "railway": "tram_stop", "tram": "yes"}}, {"type": "node", "id": 3202278918, "lat": 50.8598427, "lon": 4.3758362, "tags": {"name": "Coteaux - Wijnheuvelen", "name:fr": "Coteaux", "name:nl": "Wijnheuvelen", "public_transport": "stop_position", "railway": "tram_stop", "tram": "yes"}}, {"type": "node", "id": 3202278929, "lat": 50.8601688, "lon": 4.3711911, "tags": {"name": "Robiano", "public_transport": "stop_position", "railway": "tram_stop", "tram": "yes"}}, {"type": "node", "id": 3202278932, "lat": 50.8605106, "lon": 4.3714439, "tags": {"name": "Robiano", "public_transport": "stop_position", "railway": "tram_stop", "tram": "yes"}}, {"type": "node", "id": 3202278935, "lat": 50.8607974, "lon": 4.3713262, "tags": {"name": "Robiano", "public_transport": "stop_position", "railway": "tram_stop", "tram": "yes"}}, {"type": "node", "id": 3202278938, "lat": 50.8609582, "lon": 4.3707241, "tags": {"name": "Robiano", "public_transport": "stop_position", "railway": "tram_stop", "tram": "yes"}}, {"type": "node", "id": 4443023364, "lat": 50.8657117, "lon": 4.3645424, "tags": {"name": "Thomas", "public_transport": "stop_position", "railway": "tram_stop", "tram": "yes"}}, {"type": "node", "id": 4443049657, "lat": 50.8544125, "lon": 4.3989886, "tags": {"name": "Meiser", "public_transport": "stop_position", "railway": "tram_stop", "tram": "yes"}}, {"type": "node", "id": 4503269971, "lat": 50.8576965, "lon": 4.3844556, "tags": {"name": "Bienfaiteurs - Weldoeners", "name:fr": "Bienfaiteurs", "name:nl": "Weldoeners", "public_transport": "stop_position", "railway": "tram_stop", "tram": "yes"}}, {"type": "node", "id": 4512006716, "lat": 50.860578, "lon": 4.4015367, "tags": {"name": "Pentathlon", "public_transport": "stop_position", "railway": "tram_stop", "tram": "yes"}}, {"type": "node", "id": 4512028891, "lat": 50.8570326, "lon": 4.3974335, "tags": {"name": "L\u00e9opold III - Leopold III", "name:fr": "L\u00e9opold III", "name:nl": "Leopold III", "public_transport": "stop_position", "railway": "tram_stop", "tram": "yes"}}, {"type": "node", "id": 4512114391, "lat": 50.8567522, "lon": 4.3975897, "tags": {"name": "L\u00e9opold III - Leopold III", "name:fr": "L\u00e9opold III", "name:nl": "Leopold III", "public_transport": "stop_position", "railway": "tram_stop", "tram": "yes"}}, {"type": "node", "id": 4547346470, "lat": 50.8562451, "lon": 4.3912469, "tags": {"name": "Patrie - Vaderland", "name:fr": "Patrie", "name:nl": "Vaderland", "public_transport": "stop_position", "railway": "tram_stop", "tram": "yes"}}, {"type": "node", "id": 4547346478, "lat": 50.8567185, "lon": 4.3910522, "tags": {"name": "Patrie - Vaderland", "name:fr": "Patrie", "name:nl": "Vaderland", "public_transport": "stop_position", "railway": "tram_stop", "tram": "yes"}}, {"type": "node", "id": 4550707766, "lat": 50.8695622, "lon": 4.3713347, "tags": {"name": "Pavillon - Paviljoen", "name:fr": "Pavillon", "name:nl": "Paviljoen", "public_transport": "stop_position", "railway": "tram_stop", "tram": "yes"}}, {"type": "node", "id": 4550707777, "lat": 50.869249, "lon": 4.3710073, "tags": {"name": "Pavillon - Paviljoen", "name:fr": "Pavillon", "name:nl": "Paviljoen", "public_transport": "stop_position", "railway": "tram_stop", "tram": "yes"}}, {"type": "node", "id": 4713549041, "lat": 50.8595914, "lon": 4.3768297, "tags": {"name": "Coteaux - Wijnheuvelen", "name:fr": "Coteaux", "name:nl": "Wijnheuvelen", "public_transport": "stop_position", "railway": "tram_stop", "tram": "yes"}}, {"type": "node", "id": 4749259805, "lat": 50.8653288, "lon": 4.3628776, "tags": {"name": "Thomas", "public_transport": "stop_position", "railway": "tram_stop", "tram": "yes"}}, {"type": "node", "id": 4780808938, "lat": 50.8663528, "lon": 4.3750174, "tags": {"name": "Pogge", "public_transport": "stop_position", "railway": "tram_stop", "tram": "yes"}}, {"type": "node", "id": 4780808942, "lat": 50.86674, "lon": 4.37565, "tags": {"name": "Pogge", "public_transport": "stop_position", "railway": "tram_stop", "tram": "yes"}}, {"type": "node", "id": 4788776677, "lat": 50.8781062, "lon": 4.3801977, "tags": {"name": "Schaerbeek Gare - Schaarbeek Station", "name:fr": "Schaerbeek Gare", "name:nl": "Schaarbeek Station", "public_transport": "stop_position", "railway": "tram_stop", "tram": "yes"}}, {"type": "node", "id": 4788784406, "lat": 50.8774015, "lon": 4.379477, "tags": {"name": "Schaerbeek Gare - Schaarbeek Station", "name:fr": "Schaerbeek Gare", "name:nl": "Schaarbeek Station", "public_transport": "stop_position", "railway": "tram_stop", "tram": "yes"}}, {"type": "node", "id": 4788784407, "lat": 50.8774003, "lon": 4.3794302, "tags": {"name": "Schaerbeek Gare - Schaarbeek Station", "name:fr": "Schaerbeek Gare", "name:nl": "Schaarbeek Station", "public_transport": "stop_position", "railway": "tram_stop", "tram": "yes"}}, {"type": "node", "id": 4788784411, "lat": 50.8773974, "lon": 4.37933, "tags": {"name": "Schaerbeek Gare - Schaarbeek Station", "name:fr": "Schaerbeek Gare", "name:nl": "Schaarbeek Station", "public_transport": "stop_position", "railway": "tram_stop", "tram": "yes"}}, {"type": "node", "id": 4862205013, "lat": 50.8625415, "lon": 4.3869527, "tags": {"name": "H\u00e9liotropes - Heliotropen", "name:fr": "H\u00e9liotropes", "name:nl": "Heliotropen", "public_transport": "stop_position", "railway": "tram_stop", "tram": "yes"}}, {"type": "node", "id": 4862205051, "lat": 50.8635832, "lon": 4.3857316, "tags": {"name": "H\u00e9liotropes - Heliotropen", "name:fr": "H\u00e9liotropes", "name:nl": "Heliotropen", "public_transport": "stop_position", "railway": "tram_stop", "tram": "yes"}}, {"type": "node", "id": 4911094421, "lat": 50.8589907, "lon": 4.3697408, "tags": {"name": "Sainte-Marie - Sint-Maria", "name:fr": "Sainte-Marie", "name:nl": "Sint-Maria", "public_transport": "stop_position", "railway": "tram_stop", "tram": "yes"}}, {"type": "node", "id": 4914931426, "lat": 50.8689812, "lon": 4.3846026, "tags": {"name": "H\u00f4pital Paul Brien - Paul Brien-ziekenhuis", "name:fr": "H\u00f4pital Paul Brien", "name:nl": "Paul Brien-ziekenhuis", "public_transport": "stop_position", "railway": "tram_stop", "tram": "yes"}}, {"type": "node", "id": 4914931449, "lat": 50.8680201, "lon": 4.3853678, "tags": {"name": "H\u00f4pital Paul Brien - Paul Brien-ziekenhuis", "name:fr": "H\u00f4pital Paul Brien", "name:nl": "Paul Brien-ziekenhuis", "public_transport": "stop_position", "railway": "tram_stop", "tram": "yes"}}, {"type": "node", "id": 4940156036, "lat": 50.8653985, "lon": 4.3677531, "tags": {"name": "Gallait", "public_transport": "stop_position", "railway": "tram_stop", "tram": "yes"}}, {"type": "node", "id": 4985435248, "lat": 50.8758387, "lon": 4.392476, "tags": {"name": "Tilleul - Linde", "name:fr": "Tilleul", "name:nl": "Linde", "public_transport": "stop_position", "railway": "tram_stop", "tram": "yes"}}, {"type": "node", "id": 5012101630, "lat": 50.8713028, "lon": 4.3752987, "tags": {"name": "Verboekhoven", "public_transport": "stop_position", "railway": "tram_stop", "tram": "yes"}}, {"type": "node", "id": 5012164234, "lat": 50.8700789, "lon": 4.3815216, "tags": {"name": "Waelhem", "public_transport": "stop_position", "railway": "tram_stop", "tram": "yes"}}, {"type": "node", "id": 5012164237, "lat": 50.8701342, "lon": 4.3821272, "tags": {"name": "Waelhem", "public_transport": "stop_position", "railway": "tram_stop", "tram": "yes"}}, {"type": "node", "id": 5026619920, "lat": 50.8734506, "lon": 4.3869504, "tags": {"name": "Helmet", "public_transport": "stop_position", "railway": "tram_stop", "tram": "yes"}}, {"type": "node", "id": 5026623937, "lat": 50.8741272, "lon": 4.3876913, "tags": {"name": "Helmet", "public_transport": "stop_position", "railway": "tram_stop", "tram": "yes"}}, {"type": "node", "id": 5036874981, "lat": 50.8598686, "lon": 4.3598314, "tags": {"layer": "-2", "level": "-2", "location": "underground", "name": "Gare du Nord - Noordstation", "name:fr": "Gare du Nord", "name:nl": "Noordstation", "public_transport": "stop_position", "railway": "tram_stop", "tram": "yes"}}, {"type": "node", "id": 5036874989, "lat": 50.8608976, "lon": 4.3603477, "tags": {"layer": "-2", "level": "-2", "location": "underground", "name": "Gare du Nord - Noordstation", "name:fr": "Gare du Nord", "name:nl": "Noordstation", "public_transport": "stop_position", "railway": "tram_stop", "tram": "yes"}}, {"type": "node", "id": 5144939261, "lat": 50.8719416, "lon": 4.3850044, "tags": {"name": "Foyer Schaerbeekois - Schaarbeekse Haard", "name:fr": "Foyer Schaerbeekois", "name:nl": "Schaarbeekse Haard", "public_transport": "stop_position", "railway": "tram_stop", "tram": "yes"}}, {"type": "node", "id": 5145059192, "lat": 50.8654388, "lon": 4.385092, "tags": {"name": "Louis Bertrand", "public_transport": "stop_position", "railway": "tram_stop", "tram": "yes"}}, {"type": "node", "id": 5145090639, "lat": 50.8611139, "lon": 4.3913421, "tags": {"name": "Chazal", "public_transport": "stop_position", "railway": "tram_stop", "tram": "yes"}}, {"type": "node", "id": 5335062282, "lat": 50.8725919, "lon": 4.3765474, "tags": {"name": "Princesse \u00c9lisabeth - Prinses Elisabeth", "name:fr": "Princesse \u00c9lisabeth", "name:nl": "Prinses Elisabeth", "public_transport": "stop_position", "railway": "tram_stop", "tram": "yes"}}, {"type": "node", "id": 5335117832, "lat": 50.8652109, "lon": 4.3740388, "tags": {"name": "D\u00e9p\u00f4t Schaerbeek - Stelplaats Schaarbeek", "name:fr": "D\u00e9p\u00f4t Schaerbeek", "name:nl": "Stelplaats Schaarbeek", "public_transport": "stop_position", "railway": "tram_stop", "tram": "yes"}}, {"type": "node", "id": 7293230215, "lat": 50.8729972, "lon": 4.3768248, "tags": {"name": "Princesse \u00c9lisabeth - Prinses Elisabeth", "name:fr": "Princesse \u00c9lisabeth", "name:nl": "Prinses Elisabeth", "public_transport": "stop_position", "railway": "tram_stop", "tram": "yes"}}, {"type": "node", "id": 9041016656, "lat": 50.8649682, "lon": 4.3655866, "tags": {"name": "Liedts", "public_transport": "stop_position", "railway": "tram_stop", "tram": "yes"}}, {"type": "node", "id": 9041016662, "lat": 50.8644336, "lon": 4.365929, "tags": {"name": "Liedts", "public_transport": "stop_position", "railway": "tram_stop", "tram": "yes"}}]}