{"version": 0.6, "generator": "Overpass API 0.7.62.10 2d4cfc48", "osm3s": {"timestamp_osm_base": "2026-02-02T16:12:54Z", "copyright": "The data included in this document is from www.openstreetmap.org. The data is made available under ODbL."}, "elements": [{"type": "node", "id": 337587672, "lat": 50.8529396, "lon": 4.3243996, "tags": {"name": "Rue Alphonse Vandenpeereboom - Alphonse Vandenpeereboomstraat", "name:fr": "Rue Alphonse Vandenpeereboom", "name:nl": "Alphonse Vandenpeereboomstraat", "railway": "subway_entrance", "ref": "2", "wheelchair": "no"}}, {"type": "node", "id": 503883263, "lat": 50.8600139, "lon": 4.341153, "tags": {"check_date:wheelchair": "2022-06-22", "name": "Rue de Ribaucourt - de Ribaucourtstraat", "name:fr": "Rue de Ribaucourt", "name:nl": "de Ribaucourtstraat", "railway": "subway_entrance", "ref": "2", "wheelchair": "no"}}, {"type": "node", "id": 1864285167, "lat": 50.8569223, "lon": 4.3317226, "tags": {"name": "Chauss\u00e9e de Gand - Gentsesteenweg", "name:fr": "Chauss\u00e9e de Gand", "name:nl": "Gentsesteenweg", "railway": "subway_entrance", "ref": "2", "wheelchair": "no"}}, {"type": "node", "id": 1864285168, "lat": 50.8572063, "lon": 4.3329644, "tags": {"name": "Place des \u00c9tangs Noirs - Zwarte Vijversplein", "name:fr": "Place des \u00c9tangs Noirs", "name:nl": "Zwarte Vijversplein", "railway": "subway_entrance", "ref": "1", "wheelchair": "no"}}, {"type": "node", "id": 3994385486, "lat": 50.8608191, "lon": 4.3383309, "tags": {"name": "Boulevard L\u00e9opold II - Leopold II-laan", "name:fr": "Boulevard L\u00e9opold II", "name:nl": "Leopold II-laan", "railway": "subway_entrance", "ref": "1", "wheelchair": "no"}}, {"type": "node", "id": 4261271369, "lat": 50.8544122, "lon": 4.3411896, "tags": {"name": "Rue Sainte-Marie - Sint-Mariastraat", "name:fr": "Rue Sainte-Marie", "name:nl": "Sint-Mariastraat", "railway": "subway_entrance", "ref": "2"}}, {"type": "node", "id": 4261271370, "lat": 50.8552575, "lon": 4.3393961, "tags": {"name": "Rue du Comte de Flandre - Graaf van Vlaanderenstraat", "name:fr": "Rue du Comte de Flandre", "name:nl": "Graaf van Vlaanderenstraat", "railway": "subway_entrance", "ref": "1", "wheelchair": "no"}}, {"type": "node", "id": 4668862158, "lat": 50.8490161, "lon": 4.3213729, "tags": {"name": "Avenue Joseph Baeck - Joseph Baecklaan", "name:fr": "Avenue Joseph Baeck", "name:nl": "Joseph Baecklaan", "railway": "subway_entrance", "ref": "1", "wheelchair": "yes"}}, {"type": "node", "id": 4668862162, "lat": 50.8485528, "lon": 4.3205306, "tags": {"name": "Chauss\u00e9e de Ninove - Ninoofsesteenweg", "name:fr": "Chauss\u00e9e de Ninove", "name:nl": "Ninoofsesteenweg", "railway": "subway_entrance", "ref": "6", "wheelchair": "no"}}, {"type": "node", "id": 4668862173, "lat": 50.8480362, "lon": 4.3204974, "tags": {"name": "Rue Verheyden - Verheydenstraat", "name:fr": "Rue Verheyden", "name:nl": "Verheydenstraat", "railway": "subway_entrance", "ref": "5", "wheelchair": "no"}}, {"type": "node", "id": 4669201722, "lat": 50.8536889, "lon": 4.3231002, "tags": {"name": "Rue Dubois-Thorn - Dubois-Thornstraat", "name:fr": "Rue Dubois-Thorn", "name:nl": "Dubois-Thornstraat", "railway": "subway_entrance", "ref": "1"}}, {"type": "node", "id": 4672163951, "lat": 50.8574031, "lon": 4.3250348, "tags": {"name": "Avenue Mahatma Gandhi - Mahatma Gandhilaan", "name:fr": "Avenue Mahatma Gandhi", "name:nl": "Mahatma Gandhilaan", "railway": "subway_entrance", "ref": "2"}}, {"type": "node", "id": 4672163952, "lat": 50.8572233, "lon": 4.3250012, "tags": {"fixme": "name:nl obtained from the official GTFS feed provided by STIB/MIVB; ideally it should be verified against signs inside the station because the street name in Molenbeek is Steenweg op Gent", "name": "Chauss\u00e9e de Gand - Gentsesteenweg", "name:fr": "Chauss\u00e9e de Gand", "name:nl": "Gentsesteenweg", "railway": "subway_entrance", "ref": "1"}}, {"type": "node", "id": 4807698309, "lat": 50.8569619, "lon": 4.3322074, "tags": {"name": "Chauss\u00e9e de Gand - Gentsesteenweg", "name:fr": "Chauss\u00e9e de Gand", "name:nl": "Gentsesteenweg", "railway": "subway_entrance", "ref": "2H", "wheelchair": "yes"}}, {"type": "node", "id": 6661383221, "lat": 50.8549931, "lon": 4.3397176, "tags": {"railway": "subway_entrance", "ref": "1H", "wheelchair": "yes"}}, {"type": "node", "id": 8342488313, "lat": 50.8568913, "lon": 4.3251788, "tags": {"name": "Chauss\u00e9e de Gand - Gentsesteenweg", "name:fr": "Chauss\u00e9e de Gand", "name:nl": "Gentsesteenweg", "railway": "subway_entrance", "ref": "3", "wheelchair": "yes"}}]}