{"version": 0.6, "generator": "Overpass API 0.7.62.10 2d4cfc48", "osm3s": {"timestamp_osm_base": "2026-02-03T09:09:15Z", "copyright": "The data included in this document is from www.openstreetmap.org. The data is made available under ODbL."}, "elements": [{"type": "node", "id": 2359277455, "lat": 50.8670091, "lon": 4.3740296, "tags": {"amenity": "bar", "contact:email": "achille@biensoifbienfaim.be", "contact:facebook": "https://www.facebook.com/achille1030", "contact:mobile": "+32 470 83 21 72", "name": "Achille", "note": "https://www.bruzz.be/culture/eat-drink/achille-tafelen-met-een-vrouwelijke-touch-2021-12-10", "opening_hours": "Mo 16:00-22:00; We-Sa 16:00-22:00", "outdoor_seating": "sidewalk", "reservation": "no", "start_date": "2020-09", "takeaway": "yes"}}, {"type": "node", "id": 6111000357, "lat": 50.8649974, "lon": 4.3757725, "tags": {"amenity": "pub", "name": "Cafe Planet"}}, {"type": "node", "id": 6271781581, "lat": 50.8738953, "lon": 4.3771354, "tags": {"amenity": "pub", "food": "yes", "name": "Alexander", "opening_hours": "Mo-Sa 07:00-22:00+", "outdoor_seating": "yes"}}, {"type": "node", "id": 8619153982, "lat": 50.865878, "lon": 4.3730863, "tags": {"amenity": "pub", "contact:email": "joel@lamule.be", "contact:facebook": "https://www.facebook.com/brasseriedelamule/", "contact:website": "https://brasseriedelamule.wixsite.com/mon-site", "craft": "brewery", "description": "La Brasserie de la Mule est un projet de production de bi\u00e8res issues d'ingr\u00e9dients biologiques en plein c\u0153ur du quartier historique de Schaerbeek.", "microbrewery": "yes", "name": "Brasserie de la Mule", "opening_hours": "We-Su 16:00-22:00", "operator": "Jo\u00ebl Galy", "organic": "only", "wikidata": "Q106695139"}}, {"type": "node", "id": 10280734807, "lat": 50.8685679, "lon": 4.3726436, "tags": {"amenity": "bar", "description": "Cocktail-Bar Lounge", "name": "15 15 Lounge", "opening_hours": "Mo-Su 00:00-02:00, 14:00-00:00", "panoramax": "56919ab4-06ff-43f6-b9f8-3ee3e93829c8", "panoramax:0": "81330234-c972-420b-a8ae-6d36c50e0a7c"}}, {"type": "node", "id": 10621780123, "lat": 50.8683953, "lon": 4.3766227, "tags": {"amenity": "pub", "name": "Grand Place", "outdoor_seating": "sidewalk"}}, {"type": "node", "id": 10633663552, "lat": 50.8702716, "lon": 4.3822597, "tags": {"amenity": "pub", "name": "Montana"}}, {"type": "node", "id": 12422917770, "lat": 50.8662262, "lon": 4.3754949, "tags": {"amenity": "bar", "name": "Le Petit Pogge"}}, {"type": "node", "id": 12469370057, "lat": 50.8676415, "lon": 4.3729678, "tags": {"amenity": "bar", "name": "Communal Cafe"}}]}