{"version": 0.6, "generator": "Overpass API 0.7.62.10 2d4cfc48", "osm3s": {"timestamp_osm_base": "2026-02-02T16:19:00Z", "copyright": "The data included in this document is from www.openstreetmap.org. The data is made available under ODbL."}, "elements": [{"type": "node", "id": 2393949154, "lat": 50.8732598, "lon": 4.4014784, "tags": {"amenity": "restaurant", "contact:phone": "+32 2 242 72 81", "contact:website": "http://www.leromantic.be/", "cuisine": "bistro", "name": "Le Romantic"}}, {"type": "node", "id": 2716715830, "lat": 50.8777687, "lon": 4.4093017, "tags": {"amenity": "restaurant", "cuisine": "italian", "name": "I Golosi", "opening_hours": "Mo-Fr 11:30-14:30,17:30-22:30; Sa 17:30-23:00", "takeaway": "yes", "wheelchair": "limited"}}, {"type": "node", "id": 2716777574, "lat": 50.8776472, "lon": 4.4090434, "tags": {"amenity": "restaurant", "check_date:opening_hours": "2024-07-15", "cuisine": "pizza", "name": "Pizzeria Di Mamma", "opening_hours": "Tu-Su 11:30-14:30,17:30-23:00", "takeaway": "yes", "wheelchair": "limited"}}, {"type": "node", "id": 3540598529, "lat": 50.8768362, "lon": 4.4013286, "tags": {"amenity": "restaurant", "name": "Pas de Chichis", "operator": "Val\u00e9rie & Bertrand", "website": "https://www.pasdechichis.be"}}, {"type": "node", "id": 4522216163, "lat": 50.8736329, "lon": 4.4137707, "tags": {"amenity": "restaurant", "contact:email": "info@brasseriejules.be", "contact:phone": "+32 2 881 03 53", "contact:website": "https://brasseriejules.be/", "cuisine": "regional", "name": "Brasserie Jules", "opening_hours": "Mo-Fr 11:00-22:00; Sa 17:00-22:00; Su off; PH off"}}, {"type": "node", "id": 5338639639, "lat": 50.8684223, "lon": 4.3993717, "tags": {"amenity": "restaurant", "cuisine": "pasta", "name": "86eme Avenue"}}, {"type": "node", "id": 6505549693, "lat": 50.8728832, "lon": 4.3992774, "tags": {"amenity": "restaurant", "check_date": "2024-02-11", "name": "Tivoli"}}, {"type": "node", "id": 8050093419, "lat": 50.859932, "lon": 4.4184133, "tags": {"amenity": "restaurant", "name": "Brasserie Le Lion Belge"}}, {"type": "node", "id": 8050093424, "lat": 50.8596286, "lon": 4.4162497, "tags": {"amenity": "restaurant", "cuisine": "portuguese", "name": "A Tasquinha"}}, {"type": "node", "id": 8614758405, "lat": 50.8686987, "lon": 4.3998379, "tags": {"amenity": "restaurant", "contact:mobile": "+32 455 19 60 13", "contact:phone": "+32 2 852 33 46", "contact:website": "https://www.paradise-of-india.be/", "cuisine": "indian", "name": "Paradise of India", "opening_hours": "Mo-Th,Su 11:30-14:30,18:00-22:30; Fr-Sa 11:30-14:30,18:00-23:00"}}, {"type": "node", "id": 8806227618, "lat": 50.870793, "lon": 4.3999398, "tags": {"amenity": "restaurant", "contact:phone": "+32 2 524 64 90", "contact:website": "https://www.le-manhattan.be/", "cuisine": "burger;grill;steak_house", "name": "Le Manhattan"}}, {"type": "node", "id": 8993101766, "lat": 50.859539, "lon": 4.4159035, "tags": {"amenity": "restaurant", "contact:phone": "+32 2 732 61 63", "contact:website": "https://dilmon.be", "cuisine": "lebanese", "name": "Dilmon"}}, {"type": "node", "id": 9626612533, "lat": 50.8635647, "lon": 4.4167033, "tags": {"amenity": "restaurant", "contact:phone": "+32 2 851 13 70", "contact:website": "https://www.kefi-taverna.be", "cuisine": "greek", "name": "Kefi taverna"}}, {"type": "node", "id": 10700762536, "lat": 50.8586159, "lon": 4.4132014, "tags": {"amenity": "restaurant", "check_date": "2023-03-03", "cuisine": "cambodian", "diet:vegetarian": "yes", "internet_access": "no", "name": "Cambodiana", "opening_hours": "Mo,Su 12:00-14:30; Tu-Sa 12:00-14:30,18:00-22:00", "payment:maestro": "yes", "payment:mastercard": "yes", "payment:visa": "yes"}}, {"type": "node", "id": 10700768566, "lat": 50.8587221, "lon": 4.4136588, "tags": {"amenity": "restaurant", "check_date": "2024-06-03", "cuisine": "italian", "diet:vegetarian": "yes", "name": "Boo-Bo", "opening_hours": "Mo-Fr 11:30-14:30,18:00-22:00; Sa 18:00-22:00", "payment:maestro": "yes", "payment:mastercard": "yes", "payment:visa": "yes", "website": "https://en.booevere.com/"}}, {"type": "node", "id": 10830828074, "lat": 50.8593883, "lon": 4.4153284, "tags": {"amenity": "restaurant", "cuisine": "steak_house", "name": "Paduwa Grill House"}}, {"type": "node", "id": 10831615669, "lat": 50.8587935, "lon": 4.4138702, "tags": {"amenity": "restaurant", "check_date": "2024-06-03", "cuisine": "greek", "name": "Chez Anesti"}}, {"type": "node", "id": 10831615678, "lat": 50.8588577, "lon": 4.4141262, "tags": {"amenity": "restaurant", "check_date": "2024-06-03", "contact:mobile": "+32 477 89 79 15", "contact:website": "https://chez-ilo.brussels/", "cuisine": "italian", "level": "0", "name": "Chez Ilo"}}, {"type": "node", "id": 12029877216, "lat": 50.8575111, "lon": 4.4213249, "tags": {"amenity": "restaurant", "contact:phone": "+32 2 726 01 66", "contact:website": "http://lenewchallenge.be/", "cuisine": "italian;french", "name": "Le New Challenge", "opening_hours": "Mo-We 12:00-15:00; Th-Fr 12:00-15:00,18:30-21:30", "outdoor_seating": "yes"}}, {"type": "node", "id": 12244091095, "lat": 50.867617, "lon": 4.4078804, "tags": {"amenity": "restaurant", "contact:website": "https://www.letritongourmand.be/", "name": "Le Triton Gourmand"}}, {"type": "node", "id": 12566609604, "lat": 50.8583528, "lon": 4.4120782, "tags": {"amenity": "restaurant", "brand": "Pizza Hut", "brand:wikidata": "Q191615", "brand:wikipedia": "en:Pizza Hut", "check_date": "2023-03-02", "contact:phone": "+32 2 726 49 00", "contact:website": "https://pizzahut.be", "cuisine": "pizza", "diet:vegan": "no", "diet:vegetarian": "yes", "indoor_seating": "yes", "name": "Pizza Hut", "opening_hours": "Mo-Th 11:30-22:00; Fr-Su 11:30-22:30", "outdoor_seating": "no", "payment:mastercard": "yes", "payment:visa": "yes", "wheelchair": "no"}}, {"type": "node", "id": 12740046596, "lat": 50.8725467, "lon": 4.4001104, "tags": {"amenity": "restaurant", "cuisine": "pasta", "name": "Pasta Comedia", "website": "https://www.pastacomedia.be", "website:menu": "https://www.pastacomedia.be/menu.php"}}, {"type": "node", "id": 13057116784, "lat": 50.8578836, "lon": 4.4154069, "tags": {"amenity": "restaurant", "cuisine": "italian", "delivery": "no", "name": "Casa Giordano", "takeaway": "yes"}}, {"type": "node", "id": 13057213181, "lat": 50.8734003, "lon": 4.4030204, "tags": {"amenity": "restaurant", "contact:website": "https://www.ungoutdecheznous.be", "cuisine": "regional", "name": "Un go\u00fbt de chez nous"}}, {"type": "node", "id": 13151987836, "lat": 50.8586963, "lon": 4.4144574, "tags": {"alt_name": "Jin-Yuan", "amenity": "restaurant", "cuisine": "chinese", "diet:vegan": "yes", "diet:vegetarian": "yes", "name": "Yin-Yuan", "opening_hours": "Mo-Fr 12:30-14:00,18:00-21:00; Sa 18:00-21:00; Su off"}}]}