{"version": 0.6, "generator": "Overpass API 0.7.62.10 2d4cfc48", "osm3s": {"timestamp_osm_base": "2026-02-10T15:40:06Z", "copyright": "The data included in this document is from www.openstreetmap.org. The data is made available under ODbL."}, "elements": [{"type": "node", "id": 356622607, "lat": 50.8416416, "lon": 4.3520936, "tags": {"amenity": "cafe", "contact:instagram": "kafei_bxl", "contact:phone": "+32 2 305 35 68", "indoor_seating": "yes", "name": "Kafei Korner Sablon", "opening_hours": "Tu-Fr 08:30-16:00; Sa-Su 10:00-17:00", "outdoor_seating": "sidewalk", "payment:cash": "no", "wheelchair": "no"}}, {"type": "node", "id": 2665166030, "lat": 50.8381993, "lon": 4.3510833, "tags": {"amenity": "cafe", "name": "Caf\u00e9 Buvette"}}, {"type": "node", "id": 3014396256, "lat": 50.839521, "lon": 4.3536306, "tags": {"amenity": "cafe", "check_date": "2025-03-15", "contact:facebook": "https://www.facebook.com/Leperroquetbruxelles", "contact:instagram": "https://www.instagram.com/le_perroquet", "cuisine": "gyros", "indoor_seating": "yes", "name": "Le Perroquet", "opening_hours": "Tu-We 12:00-22:30, Th-Sa 12:00-23:30; Su 12:00-22:30", "outdoor_seating": "yes", "wheelchair": "limited"}}, {"type": "node", "id": 3682490784, "lat": 50.8400663, "lon": 4.3554008, "tags": {"amenity": "cafe", "brand": "Le Pain Quotidien", "brand:wikidata": "Q2046903", "brand:wikipedia": "en:Le Pain Quotidien", "contact:website": "https://www.lepainquotidien.com/be/en/locations/Sablon/Rue-des-Sablons-11", "cuisine": "coffee_shop", "diet:vegan": "yes", "diet:vegetarian": "yes", "name": "Le Pain Quotidien", "opening_hours": "Mo-Sa 07:30-18:00; Su 08:00-18:00", "takeaway": "yes"}}, {"type": "node", "id": 3835688357, "lat": 50.8405436, "lon": 4.3599386, "tags": {"air_conditioning": "yes", "amenity": "cafe", "diet:vegetarian": "yes", "indoor_seating": "yes", "internet_access": "wlan", "name": "JAT'", "opening_hours": "Mo-Fr 08:00-18:00; Sa,Su 09:00-18:00", "outdoor_seating": "no", "smoking": "no"}}, {"type": "node", "id": 4233528891, "lat": 50.8401916, "lon": 4.3568003, "tags": {"amenity": "cafe", "indoor_seating": "yes", "name": "Caf\u00e9 du Sablon", "opening_hours": "Mo-Su 07:30-20:00", "outdoor_seating": "yes"}}, {"type": "node", "id": 4472224089, "lat": 50.8415361, "lon": 4.3530767, "tags": {"amenity": "cafe", "contact:phone": "+32 2 880 80 98", "indoor_seating": "yes", "name": "Pistolet Original", "name:en": "Original Pistol", "name:fr": "Pistolet Original", "opening_hours": "Tu-Su 10:00-22:00, Mo 10:00-16:00", "outdoor_seating": "yes"}}, {"type": "node", "id": 4845316946, "lat": 50.8355287, "lon": 4.35537, "tags": {"amenity": "cafe", "brand": "Starbucks", "brand:wikidata": "Q37158", "brand:wikipedia": "en:Starbucks", "cuisine": "coffee_shop", "diet:vegan": "yes", "diet:vegetarian": "yes", "layer": "-1", "level": "-1", "location": "underground", "name": "Starbucks", "official_name": "Starbucks Coffee", "opening_hours": "Mo-Fr 06:30-18:00; Sa 10:30-17:30", "takeaway": "yes"}}, {"type": "node", "id": 5115207019, "lat": 50.8395444, "lon": 4.3610031, "tags": {"amenity": "cafe", "brand": "Joe & The Juice", "brand:wikidata": "Q26221514", "contact:website": "https://www.joejuice.com/", "cuisine": "coffee_shop", "diet:gluten_free": "yes", "name": "Joe & The Juice", "opening_hours": "Mo-Su 08:00-19:00", "takeaway": "yes"}}, {"type": "node", "id": 5389787926, "lat": 50.8405618, "lon": 4.3595897, "tags": {"amenity": "cafe", "contact:phone": "+32 2 503 83 30", "cuisine": "tea;cake;coffee_shop", "diet:vegan": "yes", "indoor_seating": "yes", "internet_access": "wlan", "name": "TICH", "opening_hours": "Mo-Fr 09:00-18:30; Sa-Su 10:00-19:00", "outdoor_seating": "yes"}}, {"type": "node", "id": 5787074314, "lat": 50.8419049, "lon": 4.3532558, "tags": {"amenity": "cafe", "contact:email": "contact@cremebrussels.be", "contact:facebook": "https://www.facebook.com/cremebrussels/", "contact:instagram": "https://www.instagram.com/cremebrussels/", "contact:phone": "+32 2 648 27 51", "contact:website": "https://cremebrussels.be/", "cuisine": "coffee_shop;sandwich;salad;pancake", "delivery": "yes", "name": "Cr\u00e8me Brussels", "opening_hours": "Mo-Fr 09:00-18:00; Sa 09:30-18:00; Su 09:30-18:00", "outdoor_seating": "yes", "payment:cash": "no"}}, {"type": "node", "id": 5787074316, "lat": 50.8420716, "lon": 4.352933, "tags": {"amenity": "cafe", "name": "Caf\u00e9 Pastel"}}, {"type": "node", "id": 6109780718, "lat": 50.8416075, "lon": 4.359635, "tags": {"amenity": "cafe", "contact:instagram": "https://www.instagram.com/bouche.coffee/", "cuisine": "coffee_shop", "diet:vegetarian": "yes", "name": "Bouche", "opening_hours": "Tu-Fr 08:00-17:00; Sa,Su 09:00-18:00", "panoramax": "a22f1767-8638-4aee-9e9e-d5c3db8a06cb"}}, {"type": "node", "id": 6966406043, "lat": 50.8428811, "lon": 4.3544778, "tags": {"amenity": "cafe", "name": "Subspace"}}, {"type": "node", "id": 7984205984, "lat": 50.8395579, "lon": 4.3509229, "tags": {"air_conditioning": "no", "amenity": "cafe", "check_date": "2025-06-24", "contact:email": "luciferlivescoffee@gmail.com", "contact:facebook": "luciferlivescoffee", "contact:instagram": "luciferlivescoffee", "cuisine": "coffee_shop", "description": "100% plant based coffehouse.", "diet:vegan": "only", "indoor_seating": "yes", "name": "Lucifer Lives", "opening_hours": "Tu-Su 10:00-17:00", "outdoor_seating": "yes", "pets_allowed": "yes", "smoking": "outside", "wheelchair": "no"}}, {"type": "node", "id": 10743588801, "lat": 50.840364, "lon": 4.3596917, "tags": {"amenity": "cafe", "check_date": "2023-12-30", "contact:website": "https://www.goldenbean.lu/", "internet_access": "wlan", "internet_access:fee": "customers", "name": "Golden Bean", "opening_hours": "Mo-Fr 08:00-18:30; Sa,Su 09:00-18:00", "outdoor_seating": "no", "payment:mastercard": "yes", "payment:visa": "yes", "wheelchair": "no"}}, {"type": "node", "id": 10951776702, "lat": 50.8400652, "lon": 4.3509467, "tags": {"amenity": "cafe", "cuisine": "coffee_shop", "name": "Original Cheesecake"}}, {"type": "node", "id": 11378574332, "lat": 50.837608, "lon": 4.3565474, "tags": {"amenity": "cafe", "contact:email": "lafabriqueenville@gmail.com", "contact:phone": "+32 2 513 99 48", "contact:website": "http://www.lafabriqueresto.be/la-fabrique-en-ville/", "indoor_seating": "yes", "internet_access": "yes", "name": "La Fabrique en Ville", "opening_hours": "Mo-Fr 09:00-15:00; Sa,Su 10:00-15:30", "operator": "La Fabrique", "outdoor_seating": "yes", "source:geometry:ref": "Urbis/6050034", "source:geometry:version": "6", "wheelchair": "yes"}}, {"type": "node", "id": 11578205527, "lat": 50.841195, "lon": 4.3554083, "tags": {"amenity": "cafe", "name": "La Casa Sablon"}}, {"type": "node", "id": 12768361817, "lat": 50.8412782, "lon": 4.3527072, "tags": {"amenity": "cafe", "check_date": "2025-04-19", "cuisine": "pancake", "indoor_seating": "yes", "name": "Poz\"", "outdoor_seating": "yes", "wheelchair": "no"}}, {"type": "node", "id": 12824135905, "lat": 50.8416342, "lon": 4.3548811, "tags": {"amenity": "cafe", "bar": "yes", "contact:instagram": "cafecostermans", "name": "Caf\u00e9 Costermans", "opening_hours": "Tu-Su 09:00-18:30; We,Th 09:00-23:00", "outdoor_seating": "yes", "start_date": "2025", "wikidata": "Q134475454"}}, {"type": "node", "id": 13509250113, "lat": 50.8416782, "lon": 4.353829, "tags": {"amenity": "cafe", "contact:city": "Bruxelles - Brussel", "contact:housenumber": "49", "contact:mobile": "+32 491 26 69 47", "contact:postcode": "1000", "contact:street": "Place du Grand Sablon - Grote Zavel", "contact:website": "https://www.terresdecafe.com/", "cuisine": "coffee_shop", "level": "0", "name": "Terres de Caf\u00e9", "opening_hours": "Mo-Fr 08:00-19:00; Sa-Su 09:30-19:00", "outdoor_seating": "yes"}}]}