{"version": 0.6, "generator": "Overpass API 0.7.62.10 2d4cfc48", "osm3s": {"timestamp_osm_base": "2026-02-10T16:03:35Z", "copyright": "The data included in this document is from www.openstreetmap.org. The data is made available under ODbL."}, "elements": [{"type": "node", "id": 2353224696, "lat": 50.8184392, "lon": 4.3426809, "tags": {"amenity": "cafe", "name": "Le petit Moli\u00e8re"}}, {"type": "node", "id": 4869955189, "lat": 50.8114789, "lon": 4.3428415, "tags": {"amenity": "cafe", "name": "Chat Rabiat"}}, {"type": "node", "id": 7273850933, "lat": 50.8190358, "lon": 4.3440674, "tags": {"amenity": "cafe", "level": "0", "name": "Caf\u00e9 Aa", "opening_hours": "Tu-Sa 10:00-21:00"}}, {"type": "node", "id": 12198805086, "lat": 50.8137664, "lon": 4.3471637, "tags": {"amenity": "cafe", "check_date": "2024-10-05", "check_date:opening_hours": "2024-10-05", "name": "Le Jump", "opening_hours:signed": "no"}}, {"type": "node", "id": 12222826786, "lat": 50.8151042, "lon": 4.3397092, "tags": {"amenity": "cafe", "name": "Moka Moon", "website": "https://mokamoon.be"}}]}