{"version": 0.6, "generator": "Overpass API 0.7.62.10 2d4cfc48", "osm3s": {"timestamp_osm_base": "2026-02-02T16:15:59Z", "copyright": "The data included in this document is from www.openstreetmap.org. The data is made available under ODbL."}, "elements": [{"type": "node", "id": 2429184089, "lat": 50.8441532, "lon": 4.313366, "tags": {"amenity": "bar", "name": "Les Palmiers", "wheelchair": "no"}}, {"type": "node", "id": 6528013885, "lat": 50.8389346, "lon": 4.334871, "tags": {"amenity": "bar", "name": "Bar Bizi-2"}}, {"type": "node", "id": 6528014086, "lat": 50.8391557, "lon": 4.3331519, "tags": {"amenity": "bar", "name": "The Twin\u2018s Bar"}}, {"type": "node", "id": 8987941117, "lat": 50.83743, "lon": 4.3067261, "tags": {"amenity": "bar", "name": "L'EDN"}}, {"type": "node", "id": 9165277133, "lat": 50.8358066, "lon": 4.3065803, "tags": {"amenity": "bar", "name": "Stella Vaillance"}}, {"type": "node", "id": 9165277134, "lat": 50.8353835, "lon": 4.307125, "tags": {"amenity": "bar", "name": "Le B\u00e9guinage", "outdoor_seating": "yes"}}, {"type": "node", "id": 10707615812, "lat": 50.825788, "lon": 4.2780368, "tags": {"amenity": "bar", "contact:facebook": "https://www.facebook.com/tipiguinguette", "contact:website": "https://tipiguinguette.be/anderlecht/", "name": "Tipi \u2013 La Guinguette des \u00c9tangs", "outdoor_seating": "yes", "seasonal": "summer"}}, {"type": "node", "id": 12255042343, "lat": 50.8393371, "lon": 4.3254532, "tags": {"amenity": "bar", "name": "Poney Express"}}]}