{"version": 0.6, "generator": "Overpass API 0.7.62.10 2d4cfc48", "osm3s": {"timestamp_osm_base": "2026-02-02T16:03:45Z", "copyright": "The data included in this document is from www.openstreetmap.org. The data is made available under ODbL."}, "elements": [{"type": "node", "id": 474985851, "lat": 50.8323923, "lon": 4.3495339, "tags": {"amenity": "restaurant", "check_date": "2025-08-08", "indoor_seating": "yes", "name": "Coq D'Or", "outdoor_seating": "yes"}}, {"type": "node", "id": 474985858, "lat": 50.832211, "lon": 4.3493435, "tags": {"amenity": "restaurant", "capacity": "50", "contact:phone": "+32 2 539 29 04", "cuisine": "regional;artisanal;brunch;breakfast", "delivery": "yes", "indoor_seating": "yes", "name": "Oma", "opening_hours": "Tu-Fr 09:00-16:00; Sa,Su 10:30-16:00", "outdoor_seating": "yes", "takeaway": "yes"}}, {"type": "node", "id": 474985859, "lat": 50.83228, "lon": 4.3494072, "tags": {"amenity": "restaurant", "check_date": "2025-08-08", "contact:email": "letaj33@yahoo.com", "contact:phone": "+32 2 538 43 14", "cuisine": "indian", "internet_access": "no", "name": "Le Taj", "opening_hours": "12:00-15:00,18:00-23:00", "payment:mastercard": "yes", "payment:visa": "yes"}}, {"type": "node", "id": 474986928, "lat": 50.8335356, "lon": 4.3525027, "tags": {"amenity": "restaurant", "cuisine": "italian", "name": "Nuovo Rosso"}}, {"type": "node", "id": 826830634, "lat": 50.8333185, "lon": 4.3565909, "tags": {"amenity": "restaurant", "diet:vegetarian": "no", "name": "Belgo Nero"}}, {"type": "node", "id": 993030379, "lat": 50.8306047, "lon": 4.3560389, "tags": {"amenity": "restaurant", "contact:website": "http://www.babdar.be/", "cuisine": "moroccan", "diet:vegan": "no", "diet:vegetarian": "yes", "name": "Bab Dar", "opening_hours": "Mo-Fr 12:00-14:30,19:00-22:30; Sa 19:00-22:30", "wheelchair": "no"}}, {"type": "node", "id": 993031209, "lat": 50.8315803, "lon": 4.3563508, "tags": {"air_conditioning": "yes", "amenity": "restaurant", "cuisine": "lebanese", "diet:vegan": "yes", "diet:vegetarian": "yes", "indoor_seating": "yes", "name": "Le Prince", "opening_hours": "Mo-Su 11:00-23:59,00:00-02:00", "outdoor_seating": "yes", "smoking": "outside", "wheelchair": "limited"}}, {"type": "node", "id": 993032378, "lat": 50.831381, "lon": 4.356287, "tags": {"amenity": "restaurant", "diet:vegan": "yes", "diet:vegetarian": "yes", "name": "Zatar", "wheelchair": "no"}}, {"type": "node", "id": 1121797659, "lat": 50.822537, "lon": 4.3547235, "tags": {"amenity": "restaurant", "cuisine": "asian", "name": "Thai Cafe"}}, {"type": "node", "id": 1247151765, "lat": 50.8311686, "lon": 4.346368}, {"type": "node", "id": 1247151787, "lat": 50.8311669, "lon": 4.3464111}, {"type": "node", "id": 1271056432, "lat": 50.8254439, "lon": 4.3450242, "tags": {"amenity": "restaurant", "check_date": "2025-12-29", "contact:email": "pizzeria@lamolisana.be", "contact:mobile": "+32 455 13 14 65", "contact:website": "https://lamolisana.be", "cuisine": "pizza", "indoor_seating": "yes", "name": "La Molisana", "outdoor_seating": "yes"}}, {"type": "node", "id": 2399129279, "lat": 50.825016, "lon": 4.3462281, "tags": {"amenity": "restaurant", "check_date": "2024-11-13", "cuisine": "portuguese", "name": "Penafidelis"}}, {"type": "node", "id": 2399140978, "lat": 50.8252543, "lon": 4.3441723, "tags": {"amenity": "restaurant", "name": "Belle lurette"}}, {"type": "node", "id": 2659564164, "lat": 50.8376914, "lon": 4.3482543, "tags": {"amenity": "restaurant", "contact:email": "thejudgyvegan@gmail.com", "contact:facebook": "TheJudgyVeganCafe", "contact:instagram": "thejudgyvegan", "contact:phone": "+32 2 540 80 38", "contact:website": "https://www.thejudgyvegan.com/", "cuisine": "cake", "diet:vegan": "only", "indoor_seating": "yes", "name": "The Judgy Vegan", "opening_hours": "Th-Fr 17:30-22:30; Sa-Su 10:30-21:30", "outdoor_seating": "yes"}}, {"type": "node", "id": 2727516209, "lat": 50.8325545, "lon": 4.3431507, "tags": {"amenity": "restaurant", "contact:website": "https://restolosagaves.be/", "cuisine": "mexican", "entrance:kerb:height": "0.13", "entrance:step_count": "1", "entrance:width": "0.7", "name": "Los Agaves"}}, {"type": "node", "id": 3059109802, "lat": 50.8286785, "lon": 4.3354806, "tags": {"amenity": "restaurant", "cuisine": "brazilian", "name": "Boteco's"}}, {"type": "node", "id": 3083236694, "lat": 50.8367993, "lon": 4.3480667, "tags": {"amenity": "restaurant", "capacity": "55", "change:XLT-ZINN": "yes", "check_date:opening_hours": "2023-02-02", "contact:email": "info@leauchaude.be", "contact:facebook": "https://www.facebook.com/het.warm.water", "contact:mobile": "+32 493 37 81 64", "contact:website": "https://www.leauchaude.be/", "cuisine": "regional", "diet:vegan": "yes", "diet:vegetarian": "only", "name": "L'Eau Chaude - Het Warm Water", "name:fr": "L'Eau Chaude", "name:nl": "Het Warm Water", "opening_hours": "Tu-Su 11:00-16:00", "opening_hours:kitchen": "Tu-Su 12:00-15:00", "organic": "only", "outdoor_seating": "yes", "smoking": "outside", "takeaway": "no"}}, {"type": "node", "id": 3100698156, "lat": 50.8321711, "lon": 4.3457516, "tags": {"amenity": "restaurant"}}, {"type": "node", "id": 3100734056, "lat": 50.8309803, "lon": 4.345993, "tags": {"amenity": "restaurant", "check_date": "2025-11-30", "cuisine": "cameroonian", "name": "Le Vieux Mila"}}, {"type": "node", "id": 3100734060, "lat": 50.8310344, "lon": 4.345977, "tags": {"amenity": "restaurant", "cuisine": "grill;steak_house", "name": "La Braise"}}, {"type": "node", "id": 3100748349, "lat": 50.8311499, "lon": 4.3463661}, {"type": "node", "id": 3100748351, "lat": 50.8311509, "lon": 4.3464123}, {"type": "node", "id": 3100748355, "lat": 50.8311329, "lon": 4.3462043}, {"type": "node", "id": 3100748359, "lat": 50.8311351, "lon": 4.3464135}, {"type": "node", "id": 3100748362, "lat": 50.8311707, "lon": 4.3462091}, {"type": "node", "id": 3100748363, "lat": 50.8311644, "lon": 4.3463676}, {"type": "node", "id": 3100748368, "lat": 50.8312072, "lon": 4.3462136}, {"type": "node", "id": 3100748370, "lat": 50.8311995, "lon": 4.3464087}, {"type": "node", "id": 3354136359, "lat": 50.8303197, "lon": 4.3389169, "tags": {"amenity": "restaurant", "capacity": "50", "contact:mobile": "+32 484 70 89 58", "cuisine": "pizza", "name": "Posto al sole (Chez Momo)", "opening_hours": "Tu-Fr 12:00-15:00,18:00-23:00, Sa-Su 18:00-23:00", "smoking": "outside", "takeaway": "yes"}}, {"type": "node", "id": 3376191704, "lat": 50.8275183, "lon": 4.3388507, "tags": {"amenity": "restaurant", "cuisine": "portuguese", "name": "O Assador"}}, {"type": "node", "id": 3377281734, "lat": 50.8308218, "lon": 4.3458289, "tags": {"amenity": "restaurant", "capacity": "20", "check_date": "2025-08-05", "contact:website": "http://www.brusselskitchen.com/chana/bruxelles/restaurant", "cuisine": "falafel;pakora;greek", "diet:vegan": "yes", "diet:vegetarian": "yes", "name": "Chana", "smoking": "no", "takeaway": "yes"}}, {"type": "node", "id": 3431114689, "lat": 50.8317778, "lon": 4.3537081, "tags": {"air_conditioning": "no", "amenity": "restaurant", "cuisine": "pizza", "diet:vegetarian": "yes", "indoor_seating": "yes", "name": "PizzaFresca", "opening_hours": "Mo-Th 18:00-22:00; Fr-Su 18:00-22:30", "outdoor_seating": "yes", "smoking": "no", "takeaway": "yes"}}, {"type": "node", "id": 3743377786, "lat": 50.831247, "lon": 4.348484, "tags": {"amenity": "restaurant", "cuisine": "argentinian", "name": "Araucana"}}, {"type": "node", "id": 3984753218, "lat": 50.8334979, "lon": 4.3452329, "tags": {"amenity": "restaurant", "contact:phone": "+32 2 539 44 54", "contact:website": "https://le-bistro.be/", "cuisine": "regional", "name": "Le Bistro", "outdoor_seating": "yes"}}, {"type": "node", "id": 4005545293, "lat": 50.8268818, "lon": 4.3571214, "tags": {"amenity": "restaurant", "check_date": "2024-08-28", "cuisine": "japanese", "name": "Sushi Roku", "opening_hours": "Mo-Su 11:00-23:30"}}, {"type": "node", "id": 4005546408, "lat": 50.8268849, "lon": 4.3578388, "tags": {"amenity": "restaurant", "check_date": "2024-08-28", "cuisine": "japanese", "name": "Sakura"}}, {"type": "node", "id": 4087728641, "lat": 50.8246209, "lon": 4.3436392, "tags": {"air_conditioning": "no", "amenity": "restaurant", "capacity": "0", "changing_table": "no", "check_date": "2025-08-08", "check_date:diet:gluten_free": "2025-08-08", "check_date:opening_hours": "2025-08-08", "cuisine": "chinese", "diet:gluten_free": "yes", "diet:non-vegetarian": "yes", "diet:vegan": "yes", "diet:vegetarian": "yes", "internet_access": "no", "microbrewery": "no", "name": "Guangdong", "opening_hours": "Fr-We,PH 11:30-14:30,17:30-22:30", "organic": "no", "outdoor_seating": "no", "payment:credit_cards": "yes", "payment:debit_cards": "yes", "smoking": "no", "takeaway": "yes", "toilets": "yes"}}, {"type": "node", "id": 4087728642, "lat": 50.8248886, "lon": 4.3437604, "tags": {"amenity": "restaurant", "capacity": "30", "cuisine": "pitta;grill;friture", "name": "Snack Sila", "smoking": "no", "takeaway": "yes"}}, {"type": "node", "id": 4396143203, "lat": 50.8304774, "lon": 4.3457461, "tags": {"amenity": "restaurant", "check_date": "2025-11-14", "contact:mobile": "+32 471 35 72 42", "diet:gluten_free": "yes", "diet:vegan": "yes", "diet:vegetarian": "yes", "name": "Archie", "opening_hours": "Mo-We 12:00-17:30; Th-Sa 12:00-23:00", "wheelchair": "yes"}}, {"type": "node", "id": 4404448189, "lat": 50.8317094, "lon": 4.356392, "tags": {"amenity": "restaurant", "contact:phone": "+32 2 538 22 39", "contact:website": "https://www.mafolledesoeur.be/", "cuisine": "french", "name": "Ma Folle De Soeur", "name:fr": "Ma Folle De Soeur", "opening_hours": "Mo-Sa 12:00-14:30,18:30-22:30"}}, {"type": "node", "id": 4426245881, "lat": 50.8254014, "lon": 4.3551417, "tags": {"amenity": "restaurant", "contact:instagram": "https://www.instagram.com/mushu.brussels", "cuisine": "japanese", "name": "Mushu"}}, {"type": "node", "id": 4603608017, "lat": 50.8358332, "lon": 4.3398881, "tags": {"amenity": "restaurant", "changing_table": "no", "changing_table:adult": "no", "contact:website": "https://www.entrenousbxl.com/", "cuisine": "italian", "delivery": "yes", "diet:vegan": "no", "diet:vegetarian": "yes", "drive_through": "no", "entrance:kerb:height": "0.11", "entrance:step_count": "1", "entrance:width": "0.85", "name": "Entre nous", "opening_hours": "Mo-Fr 10:00-17:00", "outdoor_seating": "no", "ramp:wheelchair": "no", "smoking": "no", "wheelchair:turning_circle": "no"}}, {"type": "node", "id": 4618471006, "lat": 50.8367324, "lon": 4.3484714, "tags": {"amenity": "restaurant", "contact:website": "https://fishtank.be", "cuisine": "fish", "name": "Fish Tank", "opening_hours": "We-Th 12:00-15:00; Fr-Sa 12:00-21:00; Su 12:00-18:00"}}, {"type": "node", "id": 4646072991, "lat": 50.8328937, "lon": 4.3296027, "tags": {"amenity": "restaurant", "contact:phone": "+32 2 520 77 85", "cuisine": "pizza;italian", "name": "I Panciuti"}}, {"type": "node", "id": 4811558723, "lat": 50.8369632, "lon": 4.3344374, "tags": {"amenity": "restaurant", "check_date": "2023-08-14", "cuisine": "pizza;steak_house", "indoor_seating": "yes", "internet_access": "no", "name": "La Brasserie de la Gare", "outdoor_seating": "yes", "payment:contactless": "yes", "payment:mastercard": "yes", "payment:visa": "yes", "toilets": "yes"}}, {"type": "node", "id": 4811565062, "lat": 50.8370775, "lon": 4.3345854, "tags": {"amenity": "restaurant", "cuisine": "italian", "indoor_seating": "yes", "name": "Santos Palace", "opening_hours": "Mo-Su 08:00-22:30", "outdoor_seating": "yes"}}, {"type": "node", "id": 4846171521, "lat": 50.8256646, "lon": 4.3476947, "tags": {"amenity": "restaurant", "check_date": "2025-08-08", "cuisine": "pizza", "name": "Da Momo", "opening_hours": "Mo-Fr 10:00-15:00; Sa,Su 08:00-24:00; Mo-Fr 17:30-12:00"}}, {"type": "node", "id": 4895361746, "lat": 50.8250629, "lon": 4.3432367, "tags": {"amenity": "restaurant", "capacity": "14", "contact:phone": "+32 2 522 09 68", "contact:website": "https://mo-mo.eu/", "cuisine": "tibetan", "diet:vegan": "only", "diet:vegetarian": "yes", "indoor_seating": "yes", "name": "Mo Mo", "opening_hours": "Tu-Sa 12:00-14:30,19:00-22:00", "outdoor_seating": "yes", "payment:credit_cards": "yes", "payment:debit_cards": "yes", "takeaway": "yes"}}, {"type": "node", "id": 4899337783, "lat": 50.825932, "lon": 4.3464835, "tags": {"amenity": "restaurant", "contact:website": "https://le203.com/", "cuisine": "international", "name": "Le 203", "outdoor_seating": "yes", "smoking": "no", "takeaway": "no"}}, {"type": "node", "id": 4904866144, "lat": 50.8314147, "lon": 4.3560197, "tags": {"amenity": "restaurant", "cuisine": "african", "email": "seydiniang71@gmail.com", "name": "Le Doux Lounge", "self_service": "no", "website": "https://www.douxlounge.be/"}}, {"type": "node", "id": 4973879985, "lat": 50.8234041, "lon": 4.3428312, "tags": {"amenity": "restaurant", "check_date:opening_hours": "2024-10-05", "name": "Caf\u00e9 des Spores", "opening_hours:signed": "no", "website": "https://www.cafedesspores.be"}}, {"type": "node", "id": 5046613063, "lat": 50.8254454, "lon": 4.3583595, "tags": {"amenity": "restaurant", "check_date": "2024-08-28", "cuisine": "chinese;asian", "delivery": "yes", "indoor_seating": "yes", "name": "Dam Sum", "opening_hours": "Tu-Su 18:30-22:00", "outdoor_seating": "yes", "takeaway": "yes", "url": "https://www.brusselskitchen.com/dam-sum/bruxelles/restaurant?lang=en"}}, {"type": "node", "id": 5181632023, "lat": 50.8394438, "lon": 4.3400127, "tags": {"amenity": "restaurant", "contact:email": "info@laruchebrussels.be", "contact:facebook": "https://www.facebook.com/LaRucheRestaurant", "contact:website": "https://laruchebrussels.be/", "cuisine": "steak_house", "name": "La Ruche", "opening_hours": "18:00-24:00", "wikidata": "Q119397007"}}, {"type": "node", "id": 5206653306, "lat": 50.8321714, "lon": 4.3565397, "tags": {"amenity": "restaurant", "contact:mobile": "+32 491 25 53 25", "contact:website": "https://www.sushiavenue.be/", "cuisine": "sushi", "name": "Sushi Avenue"}}, {"type": "node", "id": 5264406562, "lat": 50.8325685, "lon": 4.3438436, "tags": {"amenity": "restaurant", "contact:website": "https://www.holysmokebrussels.com", "diet:vegetarian": "no", "name": "Holy Smoke", "opening_hours": "Tu-Sa 19:00-22:30, We-Sa 12:00-14:00", "wheelchair": "no"}}, {"type": "node", "id": 5340809042, "lat": 50.832464, "lon": 4.3523473, "tags": {"amenity": "restaurant", "contact:phone": "+32 2 538 14 68", "delivery": "no", "name": "Chumadia", "opening_hours": "Mo-Fr 11:45-18:30; PH closed", "outdoor_seating": "yes", "smoking": "outside", "takeaway": "no", "wheelchair": "no"}}, {"type": "node", "id": 5343845810, "lat": 50.8303367, "lon": 4.3451937, "tags": {"amenity": "restaurant", "check_date": "2025-08-05", "contact:mobile": "+32 477 53 31 92", "contact:website": "https://broebbeleir.be", "cuisine": "burger", "name": "Broebbeleir", "outdoor_seating": "pedestrian_zone"}}, {"type": "node", "id": 5514117221, "lat": 50.8299616, "lon": 4.3435729, "tags": {"amenity": "restaurant", "check_date": "2025-10-22", "cuisine": "pizza", "name": "Le Milano"}}, {"type": "node", "id": 5567348794, "lat": 50.8341429, "lon": 4.3559073, "tags": {"amenity": "restaurant", "contact:phone": "+32 2 534 25 02", "contact:website": "https://www.mamylouise.be/", "indoor_seating": "yes", "name": "Mamy Louise Goulet Louise", "opening_hours": "Mo, Tu, Sa 10:00-18:00; We-Fr 10:00-22:00", "outdoor_seating": "yes"}}, {"type": "node", "id": 5781346845, "lat": 50.8255001, "lon": 4.3474516, "tags": {"amenity": "restaurant", "check_date": "2024-09-04", "contact:email": "lewaterloo217@gmail.com", "contact:facebook": "https://www.facebook.com/lewaterloo", "contact:phone": "+32 2 539 28 04", "cuisine": "italian", "description": "Italian Belgium Restaurant", "name": "Le Waterloo", "opening_hours": "Mo-Fr 12:00-15:00, 17:45-22:30; Sa, Su, PH 12:00-22:30", "takeaway": "yes"}}, {"type": "node", "id": 5961590266, "lat": 50.8227493, "lon": 4.3534194, "tags": {"amenity": "restaurant", "cuisine": "japanese", "delivery": "yes", "diet:vegetarian": "yes", "name": "Makisu", "opening_hours": "Mo-Su 12:00-22:00", "outdoor_seating": "no", "payment:cash": "no", "payment:credit_cards": "yes", "payment:maestro": "yes", "smoking": "no", "takeaway": "yes", "wheelchair": "yes"}}, {"type": "node", "id": 6122930912, "lat": 50.8347691, "lon": 4.3553903, "tags": {"amenity": "restaurant", "cuisine": "japanese", "name": "Pok\u00e9 House", "opening_hours": "Mo-Fr 11:30-21:30; Sa 12:00-21:30; Mo 18:00-21:30", "outdoor_seating": "yes", "wheelchair": "no"}}, {"type": "node", "id": 6196635785, "lat": 50.8342917, "lon": 4.3547064, "tags": {"amenity": "restaurant", "check_date:opening_hours": "2025-10-31", "name": "Meat'in", "opening_hours:signed": "no"}}, {"type": "node", "id": 6245160334, "lat": 50.8297882, "lon": 4.3561306, "tags": {"amenity": "restaurant", "check_date": "2025-02-24", "check_date:opening_hours": "2025-02-24", "contact:phone": "+32 2 850 87 13", "contact:website": "https://www.donki.be/", "cuisine": "mexican", "diet:vegan": "yes", "diet:vegetarian": "yes", "indoor_seating": "yes", "name": "Donki", "name:de": "Donki Louise", "opening_hours": "Mo-Su 11:30-21:30", "outdoor_seating": "yes", "payment:cash": "no"}}, {"type": "node", "id": 6245523385, "lat": 50.8339186, "lon": 4.3553826, "tags": {"amenity": "restaurant", "indoor_seating": "yes", "name": "Colonel", "outdoor_seating": "yes"}}, {"type": "node", "id": 6267007741, "lat": 50.8275825, "lon": 4.3554255, "tags": {"amenity": "restaurant", "name": "Mojo lounge"}}, {"type": "node", "id": 6348609386, "lat": 50.8338262, "lon": 4.335858, "tags": {"amenity": "restaurant", "name": "Bun's"}}, {"type": "node", "id": 6557948385, "lat": 50.8346402, "lon": 4.3555358, "tags": {"air_conditioning": "yes", "amenity": "restaurant", "bar": "yes", "branch": "Bruxelles Louise", "brand": "HUGGYS", "changing_table": "yes", "contact:email": "h7@huggys.be", "contact:phone": "+32 2 268 79 36", "contact:website": "https://www.huggys.be/restaurants/bruxelles-2-louise", "cuisine": "burger", "delivery": "yes", "diet:chicken": "yes", "diet:fish": "yes", "diet:gluten_free": "yes", "diet:halal": "yes", "diet:local": "yes", "diet:meat": "yes", "diet:vegan": "yes", "diet:vegetarian": "yes", "highchair": "yes", "indoor_seating": "yes", "name": "Huggys Bruxelles Louise", "opening_hours": "Mo-Su 12:00-22:00", "outdoor_seating": "yes", "payment:cards": "yes", "payment:cash": "yes", "payment:contactless": "yes", "payment:credit_cards": "yes", "payment:debit_cards": "yes", "payment:mastercard": "yes", "payment:visa": "yes", "reservation": "recommended", "smoking": "outside", "takeaway": "yes", "toilets": "yes", "website:menu": "https://www.huggys.be/menus/nouveau-menu-bx", "wheelchair": "no"}}, {"type": "node", "id": 6691305334, "lat": 50.8324435, "lon": 4.3566267, "tags": {"amenity": "restaurant", "cuisine": "korean", "name": "Seoul"}}, {"type": "node", "id": 6815837996, "lat": 50.8247474, "lon": 4.357327, "tags": {"amenity": "restaurant", "check_date": "2024-08-28", "description": "Gastro/pub", "name": "Clair/Obscur"}}, {"type": "node", "id": 6815861331, "lat": 50.8250456, "lon": 4.3570333, "tags": {"amenity": "restaurant", "cuisine": "mediterranean", "name": "Couscous At Home"}}, {"type": "node", "id": 6815893035, "lat": 50.8307256, "lon": 4.3453991, "tags": {"amenity": "restaurant", "check_date": "2025-08-05", "name": "Inanna"}}, {"type": "node", "id": 6815904448, "lat": 50.8310526, "lon": 4.3462265, "tags": {"amenity": "restaurant", "check_date": "2025-11-30", "contact:phone": "+32 2 537 41 27", "contact:website": "https://www.milleetunenuits.be", "cuisine": "couscous", "description": "Sp\u00e9cialit\u00e9s orientales", "name": "Mille et une nuits", "opening_hours": "Tu-Su 18:30-23:00"}}, {"type": "node", "id": 6975721290, "lat": 50.8322284, "lon": 4.3565579, "tags": {"amenity": "restaurant", "check_date": "2023-12-16", "contact:phone": "+32 2 537 44 47", "contact:website": "https://www.premiercomptoir.be", "cuisine": "thai", "diet:vegan": "yes", "diet:vegetarian": "yes", "name": "Premier Comptoir Thai", "opening_hours": "Mo-Sa 19:00-22:30; Tu -Th 12:00-14:00,19:00-22:30", "wheelchair": "limited"}}, {"type": "node", "id": 7102117586, "lat": 50.8371752, "lon": 4.3470661, "tags": {"amenity": "restaurant", "cuisine": "regional", "indoor_seating": "yes", "name": "P'titi", "outdoor_seating": "yes"}}, {"type": "node", "id": 7104235086, "lat": 50.8369782, "lon": 4.3479122, "tags": {"amenity": "restaurant", "check_date": "2025-04-27", "name": "Les anciennes bruxelles"}}, {"type": "node", "id": 7178197003, "lat": 50.8342442, "lon": 4.35506, "tags": {"amenity": "restaurant", "cuisine": "belgian", "indoor_seating": "yes", "internet_access": "yes", "name": "Le Rendez-Vous Des Artistes", "opening_hours": "Mo-Sa 12:00-23:30", "outdoor_seating": "yes"}}, {"type": "node", "id": 7199717964, "lat": 50.8357788, "lon": 4.3503506, "tags": {"amenity": "restaurant", "contact:phone": "+32 2 513 10 91", "name": "L'Inattendu"}}, {"type": "node", "id": 7272488740, "lat": 50.8356296, "lon": 4.3506114, "tags": {"amenity": "restaurant", "contact:email": "info@leslarmesdutigre.be", "contact:phone": "+32 2 512 18 77", "contact:website": "https://www.leslarmesdutigre.be/", "cuisine": "thai", "delivery": "yes", "name": "Les Larmes du Tigre", "opening_hours": "We,Th 12:00-14:00,19:00-22:00; Fr 12:00-14:00,19:00-22:30; Sa 19:00-22:30; Su 12:00-14:00,19:00-21:00", "takeaway": "yes"}}, {"type": "node", "id": 7879536512, "lat": 50.8250509, "lon": 4.3442475, "tags": {"amenity": "restaurant", "indoor_seating": "yes", "name": "My Tannour \u2013 Saint-Gilles", "opening_hours": "Mo-Su 11:30-22:30", "outdoor_seating": "yes"}}, {"type": "node", "id": 7947521689, "lat": 50.83251, "lon": 4.3456933, "tags": {"amenity": "restaurant", "diet:vegetarian": "no", "name": "La perle bleue"}}, {"type": "node", "id": 8015480185, "lat": 50.8238917, "lon": 4.3481706, "tags": {"amenity": "restaurant", "check_date:opening_hours": "2023-12-13", "name": "Le Damoiselle", "opening_hours:signed": "no"}}, {"type": "node", "id": 8017428183, "lat": 50.8257512, "lon": 4.3553454, "tags": {"amenity": "restaurant", "check_date": "2024-08-28", "contact:phone": "+32 2 808 25 20", "contact:website": "https://www.thai-sate.be/", "cuisine": "thai", "name": "Tha\u00ef Sat\u00e9"}}, {"type": "node", "id": 8118974586, "lat": 50.8269434, "lon": 4.3548685, "tags": {"amenity": "restaurant", "check_date": "2025-02-20", "contact:website": "https://www.majolie.brussels", "name": "Ma Jolie", "opening_hours:covid19": "closed", "outdoor_seating": "yes"}}, {"type": "node", "id": 8360058617, "lat": 50.8234466, "lon": 4.3431359, "tags": {"amenity": "restaurant", "name": "Cantine de l'\u00e9chapp\u00e9e"}}, {"type": "node", "id": 8419872116, "lat": 50.8396365, "lon": 4.3421497, "tags": {"amenity": "restaurant", "name": "Chef Yusuf"}}, {"type": "node", "id": 8710771032, "lat": 50.8222998, "lon": 4.3426466, "tags": {"amenity": "restaurant", "contact:email": "info@kneestochin.com", "contact:phone": "+32 2 732 20 56", "contact:website": "https://www.kneestochin.com/", "cuisine": "asian", "diet:lactose_free": "yes", "name": "Knees to Chin", "opening_hours": "Mo-Fr 11:30-14:30,18:00-21:00; Sa 11:30-21:00"}}, {"type": "node", "id": 8757831476, "lat": 50.8309771, "lon": 4.3532837, "tags": {"amenity": "restaurant", "check_date": "2025-03-11", "contact:website": "https://www.anju.be/", "cuisine": "korean", "indoor_seating": "yes", "name": "Anju", "name:ko": "\uc548\uc8fc", "outdoor_seating": "yes"}}, {"type": "node", "id": 8892988084, "lat": 50.831303, "lon": 4.358002, "tags": {"amenity": "restaurant", "contact:instagram": "https://www.instagram.com/eaterskitchens/", "contact:website": "https://www.eaters-louise.com/", "cuisine": "fast_food;asian", "delivery": "yes", "description": "Asian Street Food", "name": "Eaters", "outdoor_seating": "yes"}}, {"type": "node", "id": 8920694534, "lat": 50.8239492, "lon": 4.3571002, "tags": {"amenity": "restaurant", "name": "Baci"}}, {"type": "node", "id": 8929077563, "lat": 50.8344331, "lon": 4.3545581, "tags": {"amenity": "restaurant", "check_date:opening_hours": "2025-10-31", "contact:website": "https://lapanzerottata.com", "cuisine": "italian;pizza", "delivery": "yes", "indoor_seating": "yes", "name": "La Panzerottata", "opening_hours:signed": "no", "outdoor_seating": "yes", "payment:credit_cards": "yes"}}, {"type": "node", "id": 9028494117, "lat": 50.8266393, "lon": 4.3509473, "tags": {"amenity": "restaurant", "check_date": "2025-09-27", "contact:phone": "+32 2 252 24 70", "contact:website": "https://lasmorfia.be/", "cuisine": "italian", "name": "La Smorfia"}}, {"type": "node", "id": 9063920417, "lat": 50.8352359, "lon": 4.3493454, "tags": {"amenity": "restaurant", "contact:phone": "+32 2 512 86 81", "contact:website": "https://www.austekerlapatte.be/", "cuisine": "regional", "diet:vegetarian": "yes", "name": "Au Stekerlapatte", "start_date": "1979", "wikidata": "Q15872769", "wikipedia": "nl:Au Stekerlapatte"}}, {"type": "node", "id": 9580784139, "lat": 50.8265886, "lon": 4.3386044, "tags": {"amenity": "restaurant", "contact:facebook": "https://www.facebook.com/AldeiaVelhaBE/?ref=page_internal", "cuisine": "portuguese", "name": "Aldeia Velha"}}, {"type": "node", "id": 9580784141, "lat": 50.8266252, "lon": 4.338936, "tags": {"amenity": "restaurant", "contact:mobile": "+32 496 98 93 90", "cuisine": "portuguese", "name": "Restaurant Tradi\u00e7\u00f5es"}}, {"type": "node", "id": 9654578108, "lat": 50.8308859, "lon": 4.3459623, "tags": {"amenity": "restaurant", "contact:phone": "+32 2 346 63 89", "contact:website": "https://www.greenmango.be", "cuisine": "burger", "description": "Burger & juice", "indoor_seating": "yes", "name": "Green Mango", "operator": "Green Mango", "outdoor_seating": "yes", "wheelchair": "limited"}}, {"type": "node", "id": 9896161347, "lat": 50.8277809, "lon": 4.3383936, "tags": {"amenity": "restaurant", "contact:phone": "+32 2 537 73 04", "cuisine": "portuguese", "name": "Cais do Douro"}}, {"type": "node", "id": 9901284264, "lat": 50.8278784, "lon": 4.3387517, "tags": {"amenity": "restaurant", "cuisine": "portuguese", "name": "Seven"}}, {"type": "node", "id": 10139554918, "lat": 50.8305814, "lon": 4.3460213, "tags": {"amenity": "restaurant", "changing_table": "yes", "check_date": "2026-02-01", "contact:facebook": "saborlatinoresto", "name": "Sabor Latino", "toilets": "yes", "toilets:menstrual_products": "no", "toilets:wheelchair": "no"}}, {"type": "node", "id": 10159158596, "lat": 50.8335587, "lon": 4.3447467, "tags": {"amenity": "restaurant", "name": "K.No.p"}}, {"type": "node", "id": 10178196872, "lat": 50.8305431, "lon": 4.3388532, "tags": {"amenity": "restaurant", "contact:facebook": "https://www.facebook.com/RestoKritiCEVHarmony", "contact:instagram": "https://www.instagram.com/restaurantkriti/", "contact:phone": "+32 2 538 00 22", "contact:website": "https://www.kriti.be/", "cuisine": "greek", "name": "Kriti", "opening_hours": "Tu-Sa 12:00-15:00, 18:00-22:30; Su 12:00-22:30"}}, {"type": "node", "id": 10178196873, "lat": 50.8303682, "lon": 4.3389157, "tags": {"amenity": "restaurant", "contact:phone": "+32 2 850 39 86", "contact:website": "https://mykonos-grill.be/", "cuisine": "greek", "name": "Mykonos Grill", "opening_hours": "Mo, We-Fr 11:45-15:00, 17:30-23:00; Sa 11:45-22:00; Su 11:00-23:00"}}, {"type": "node", "id": 10246337595, "lat": 50.829926, "lon": 4.336941, "tags": {"amenity": "restaurant", "check_date": "2022-12-08", "contact:email": "restohibiscus@gmail.com", "contact:phone": "+32 2 543 44 88", "contact:website": "https://www.hibiscus-resto.be/", "diet:vegan": "yes", "diet:vegetarian": "yes", "name": "Hibiscus"}}, {"type": "node", "id": 10271182593, "lat": 50.8320064, "lon": 4.3521025, "tags": {"amenity": "restaurant", "contact:facebook": "https://www.facebook.com/salepeperosmarino/", "cuisine": "italian", "indoor_seating": "yes", "name": "Sale Pepe Rosmarino", "outdoor_seating": "yes"}}, {"type": "node", "id": 10283007338, "lat": 50.8262961, "lon": 4.345029, "tags": {"amenity": "restaurant", "cuisine": "brazilian", "name": "Juventude"}}, {"type": "node", "id": 10283007340, "lat": 50.8264439, "lon": 4.3449306, "tags": {"amenity": "restaurant", "contact:facebook": "https://www.facebook.com/profile.php?id=100024059900916", "cuisine": "brazilian", "name": "Viva Brazil"}}, {"type": "node", "id": 10292592243, "lat": 50.8316282, "lon": 4.3436176, "tags": {"amenity": "restaurant", "check_date": "2025-07-26", "check_date:diet:vegan": "2025-07-26", "check_date:diet:vegetarian": "2025-07-26", "contact:email": "info@laporteuse.eu", "contact:phone": "+32 2 537 66 46", "contact:website": "https://laporteuse.eu", "cuisine": "belgian;regional", "diet:vegan": "no", "diet:vegetarian": "yes", "highchair": "yes", "indoor_seating": "yes", "name": "La Porteuse d'Eau", "opening_hours": "Tu-Su 11:00-23:30", "outdoor_seating": "yes", "reservation": "yes", "wheelchair": "no"}}, {"type": "node", "id": 10312580067, "lat": 50.8366379, "lon": 4.3394353, "tags": {"amenity": "restaurant", "check_date": "2026-01-30", "cuisine": "italian", "name": "A modo mio", "opening_hours": "Mo-Fr 11:00-22:00", "wheelchair": "yes"}}, {"type": "node", "id": 10315093507, "lat": 50.8344332, "lon": 4.355043, "tags": {"amenity": "restaurant", "check_date:opening_hours": "2025-10-31", "contact:phone": "+32 2 538 69 24", "indoor_seating": "yes", "name": "News Cafe", "opening_hours:signed": "no", "outdoor_seating": "yes"}}, {"type": "node", "id": 10555005116, "lat": 50.8316119, "lon": 4.3448935, "tags": {"amenity": "restaurant", "contact:website": "https://smala.brussels/resto-smala/", "name": "Smala"}}, {"type": "node", "id": 10555029228, "lat": 50.8316594, "lon": 4.3448977, "tags": {"amenity": "restaurant", "contact:website": "https://churrasqueiraportugalia.be/", "cuisine": "portuguese", "entrance:kerb:height": "0.34", "entrance:step_count": "3", "entrance:width": "0.82", "indoor_seating": "yes", "name": "Churrasqueira Portugalia", "opening_hours": "Tu-Su 10:00-22:00", "outdoor_seating": "yes", "takeaway": "yes"}}, {"type": "node", "id": 10559324108, "lat": 50.8257023, "lon": 4.3466874, "tags": {"amenity": "restaurant", "check_date": "2025-11-30", "contact:phone": "+32 2 426 87 01", "contact:website": "https://littleapo.be/", "cuisine": "vietnamese", "name": "Little Apo"}}, {"type": "node", "id": 10572932355, "lat": 50.8376264, "lon": 4.3493465, "tags": {"amenity": "restaurant", "check_date": "2025-04-27", "contact:mobile": "+32 496 82 01 05", "indoor_seating": "yes", "name": "Le Wine Bar des Marolles", "outdoor_seating": "yes"}}, {"type": "node", "id": 10608434076, "lat": 50.839482, "lon": 4.3419427, "tags": {"amenity": "restaurant", "check_date": "2025-04-20", "name": "Rio do Texas"}}, {"type": "node", "id": 10608434077, "lat": 50.8397293, "lon": 4.3415448, "tags": {"amenity": "restaurant", "name": "Uncle Kasap"}}, {"type": "node", "id": 10612983005, "lat": 50.8354278, "lon": 4.3393053, "tags": {"amenity": "restaurant", "name": "Chez Antonio"}}, {"type": "node", "id": 10686624243, "lat": 50.8269171, "lon": 4.3552128, "tags": {"amenity": "restaurant", "contact:instagram": "soif_de_faim", "name": "Soif de Faim", "opening_hours": "Mo-Th 10:30-15:30; Fr 19:30-21:30"}}, {"type": "node", "id": 10697960159, "lat": 50.8239256, "lon": 4.3494775, "tags": {"amenity": "restaurant", "contact:email": "info@grammes.be", "contact:phone": "+32 2 732 63 00", "contact:website": "https://www.grammes.be/", "cuisine": "italian;bakery", "diet:healthy": "yes", "diet:vegetarian": "yes", "name": "Grammes", "note": "opening_hours=Tu-Fr 12:00-18:30; Sa 07:30-15:00 according to their website (2023-02-28)", "opening_hours": "Tu-Sa 12:00-18:00"}}, {"type": "node", "id": 10764515717, "lat": 50.8259835, "lon": 4.3475025, "tags": {"amenity": "restaurant", "check_date": "2025-08-08", "contact:phone": "+32 2 771 91 08", "contact:website": "https://fernand-obb.be/", "cuisine": "burger;belgian", "name": "Fernand Obb Delicatessen", "opening_hours": "Mo-Su 12:00-22:00"}}, {"type": "node", "id": 10781457309, "lat": 50.8262455, "lon": 4.3450107, "tags": {"amenity": "restaurant", "check_date": "2025-10-08", "contact:website": "https://lacharcuterie.be/", "name": "La Charcuterie", "shop": "deli"}}, {"type": "node", "id": 10792703405, "lat": 50.8231851, "lon": 4.3536672, "tags": {"amenity": "restaurant", "contact:email": "orientalia.traiteur@gmail.com", "contact:phone": "+32 2 520 75 75", "contact:website": "https://orientalia.be/", "name": "Orientalia", "opening_hours": "Tu-Fr 09:00-15:00"}}, {"type": "node", "id": 10816203718, "lat": 50.8233133, "lon": 4.3528073, "tags": {"amenity": "restaurant", "contact:website": "https://at-lebanese.com/", "cuisine": "lebanese", "name": "At Lebanese"}}, {"type": "node", "id": 10864369206, "lat": 50.8370255, "lon": 4.3473829, "tags": {"amenity": "restaurant", "contact:facebook": "LeRenardBleu", "contact:mobile": "+32 493 30 90 00", "cuisine": "regional", "name": "Le Renard Bleu", "opening_hours": "We-Su 12:00-22:00"}}, {"type": "node", "id": 10905595496, "lat": 50.8299641, "lon": 4.3380945, "tags": {"amenity": "restaurant", "diet:halal": "yes", "name": "Pasta Soultana"}}, {"type": "node", "id": 10908419020, "lat": 50.8258985, "lon": 4.3436062, "tags": {"amenity": "restaurant", "contact:email": "leptitbeur1@gmail.com", "contact:facebook": "https://www.facebook.com/Leptitbeur/", "contact:phone": "+32 2 850 59 88", "cuisine": "mediterranean", "name": "PtitBeur", "opening_hours": "Tu-Sa 18:30-22:30"}}, {"type": "node", "id": 10931921413, "lat": 50.8271069, "lon": 4.3552735, "tags": {"amenity": "restaurant", "contact:email": "info@kaijurestaurant.be", "contact:phone": "+32 2 537 10 05", "cuisine": "asian", "description": "Asian street food", "name": "Kaiju", "opening_hours": "Mo-Sa 19:00-23:00"}}, {"type": "node", "id": 10970352948, "lat": 50.8394895, "lon": 4.3400708, "tags": {"amenity": "restaurant", "contact:email": "contact@aulaboureur.com", "contact:mobile": "+32 489 95 60 42", "contact:website": "https://www.aulaboureur.com/", "cuisine": "steak_house", "name": "Au Laboureur", "old_name": "Le Laboureur", "opening_hours": "Fr 17:00-00:00; Sa-Su 15:00-00:00", "wikidata": "Q119397139"}}, {"type": "node", "id": 11078075453, "lat": 50.8233637, "lon": 4.3430882, "tags": {"amenity": "restaurant", "contact:website": "https://la-buvette.be", "diet:vegetarian": "yes", "name": "La Buvette"}}, {"type": "node", "id": 11148754605, "lat": 50.8228753, "lon": 4.3426261, "tags": {"amenity": "restaurant", "check_date": "2025-03-15", "contact:mobile": "+32 485 45 71 37", "cuisine": "chinese", "name": "Shi Shang", "opening_hours": "We-Mo 11:30-15:00, 17:30-23:00"}}, {"type": "node", "id": 11152830251, "lat": 50.8269833, "lon": 4.3578371, "tags": {"amenity": "restaurant", "contact:email": "pozbrussels@gmail.com", "contact:mobile": "+32 484 27 58 95", "cuisine": "coffee", "opening_hours": "Mo-Su 09:00-18:00", "payment:cards": "yes", "payment:cash": "yes", "payment:qr_code": "no", "reservation": "no"}}, {"type": "node", "id": 11186526660, "lat": 50.8274145, "lon": 4.3445613, "tags": {"amenity": "restaurant", "contact:instagram": "@monopoli.brussels", "cuisine": "italian", "description": "Cucina dalla regione della Puglia", "diet:vegetarian": "yes", "name": "Monopoli"}}, {"type": "node", "id": 11223495137, "lat": 50.8229733, "lon": 4.3429237, "tags": {"amenity": "restaurant", "name": "Tokidoki", "opening_hours": "We-Sa 12:00-14:00,18:30-21:30"}}, {"type": "node", "id": 11236949471, "lat": 50.8345615, "lon": 4.3553484, "tags": {"amenity": "restaurant", "cuisine": "mexican", "level": "1", "name": "Ancho", "opening_hours": "Mo-Fr,Su 11:30-14:45,18:00-22:00; Sa 11:30-22:00; PH closed", "wheelchair": "no"}}, {"type": "node", "id": 11236968634, "lat": 50.8344998, "lon": 4.3552016, "tags": {"amenity": "restaurant", "check_date:opening_hours": "2025-10-31", "cuisine": "italian", "indoor_seating": "yes", "name": "Rizes", "opening_hours:signed": "no", "outdoor_seating": "yes", "wheelchair": "no"}}, {"type": "node", "id": 11236977240, "lat": 50.8343808, "lon": 4.3549184, "tags": {"amenity": "restaurant", "check_date:opening_hours": "2025-10-31", "cuisine": "french", "indoor_seating": "yes", "name": "Machina", "opening_hours:signed": "no", "outdoor_seating": "yes", "wheelchair": "yes"}}, {"type": "node", "id": 11238651764, "lat": 50.8345335, "lon": 4.3552817, "tags": {"amenity": "restaurant", "check_date:opening_hours": "2025-10-31", "contact:email": "ledelireparisien@hotmail.com", "contact:phone": "+32 2 537 06 94", "contact:website": "https://www.delireparisien.com", "indoor_seating": "yes", "name": "Le D\u00e9lire Parisien", "opening_hours:signed": "no", "outdoor_seating": "yes", "wheelchair": "no"}}, {"type": "node", "id": 11238652848, "lat": 50.8345487, "lon": 4.3548634, "tags": {"amenity": "restaurant", "check_date:opening_hours": "2025-10-31", "contact:phone": "+32 2 538 87 94", "cuisine": "italian", "indoor_seating": "yes", "name": "Al Piccolo Mondo", "opening_hours:signed": "no", "outdoor_seating": "yes", "wheelchair": "no"}}, {"type": "node", "id": 11238653512, "lat": 50.8344661, "lon": 4.3551215, "tags": {"amenity": "restaurant", "check_date:opening_hours": "2025-10-31", "name": "Woodpecker", "opening_hours:signed": "no"}}, {"type": "node", "id": 11347050264, "lat": 50.8367904, "lon": 4.3355443, "tags": {"amenity": "restaurant", "changing_table": "no", "changing_table:adult": "no", "check_date": "2025-03-17", "check_date:opening_hours": "2024-03-16", "cuisine": "sushi", "diet:vegan": "no", "diet:vegetarian": "no", "entrance:step_count": "0", "entrance:width": "2", "indoor_seating": "yes", "level": "0", "name": "SushiShop", "opening_hours:signed": "no", "outdoor_seating": "no", "wheelchair": "yes", "wheelchair:turning_circle": "yes"}}, {"type": "node", "id": 11583139776, "lat": 50.8289523, "lon": 4.3582545, "tags": {"amenity": "restaurant", "contact:phone": "+32 2 538 57 17", "cuisine": "italian", "name": "Ciao Bella", "opening_hours": "Mo-Fr 12:00-15:00,19:00-22:30; Sa 19:00-22:30; PH closed"}}, {"type": "node", "id": 11587783988, "lat": 50.83487, "lon": 4.3556318, "tags": {"amenity": "restaurant", "contact:website": "https://nami-roll.com/", "name": "Nami", "opening_hours": "Mo-Su 12:00-22:30", "wheelchair": "no"}}, {"type": "node", "id": 11663750418, "lat": 50.8342084, "lon": 4.3548192, "tags": {"amenity": "restaurant", "check_date:opening_hours": "2025-10-31", "contact:website": "https://www.nenu.be/", "cuisine": "vietnamese", "indoor_seating": "yes", "name": "n\u00e9nu", "opening_hours": "Tu 19:00-22:00; We-Sa 12:00-14:00,19:00-22:00", "opening_hours:signed": "no", "outdoor_seating": "yes"}}, {"type": "node", "id": 11884628043, "lat": 50.8242631, "lon": 4.3467689, "tags": {"amenity": "restaurant", "contact:instagram": "https://www.instagram.com/rascals.bxl", "cuisine": "british", "dog": "yes", "indoor_seating": "yes", "name": "Rascal\u2019s cafe", "opening_hours": "Mo-We 08:30-17:00; Th-Fr 08:30-22:30; Sa-Su 08:30-17:00", "outdoor_seating": "yes"}}, {"type": "node", "id": 11896686069, "lat": 50.8346731, "lon": 4.3556133, "tags": {"amenity": "restaurant", "contact:phone": "+32 2 538 12 07", "contact:website": "https://la-vigne.be/", "cuisine": "mediterranean", "name": "La Vigne", "opening_hours": "Mo-Sa 12:00-23:00", "wheelchair": "no"}}, {"type": "node", "id": 11947849644, "lat": 50.8350582, "lon": 4.3393234, "tags": {"amenity": "restaurant", "changing_table": "no", "changing_table:adult": "no", "contact:phone": "+32 2 537 54 34", "contact:website": "https://www.lesateliersdumidi.be/", "diet:vegan": "no", "diet:vegetarian": "no", "entrance:step_count": "0", "entrance:width": "0.69", "name": "Ateliers du midi", "wheelchair:turning_circle": "no"}}, {"type": "node", "id": 11952491070, "lat": 50.8386772, "lon": 4.3382518, "tags": {"amenity": "restaurant", "cuisine": "portuguese", "name": "Atleta"}}, {"type": "node", "id": 11956003781, "lat": 50.8368353, "lon": 4.3358053, "tags": {"air_conditioning": "yes", "amenity": "restaurant", "cuisine": "hawaiian;poke_bowl", "entrance:kerb:height": "0", "entrance:step_count": "0", "entrance:width": "1.1", "indoor_seating": "yes", "name": "Pokawa", "opening_hours": "Mo-Fr 07:00-21:00; Sa,Su 09:00-21:00", "outdoor_seating": "no", "wheelchair": "yes"}}, {"type": "node", "id": 11991331722, "lat": 50.827167, "lon": 4.349756, "tags": {"amenity": "restaurant", "check_date": "2025-08-01", "name": "Flamme", "opening_hours": "Tu-Sa 19:00-22:00"}}, {"type": "node", "id": 12050323825, "lat": 50.8364593, "lon": 4.3398365, "tags": {"amenity": "restaurant", "cuisine": "sandwich", "name": "Mammouth", "opening_hours": "Mo-Fr 11:30 - 17:30", "outdoor_seating": "yes", "smoking": "outside", "takeaway": "yes"}}, {"type": "node", "id": 12074173219, "lat": 50.8243583, "lon": 4.3499193, "tags": {"amenity": "restaurant", "cuisine": "pizza", "name": "Pizza mio"}}, {"type": "node", "id": 12075226751, "lat": 50.8304472, "lon": 4.3351442, "tags": {"amenity": "restaurant", "contact:website": "https://refoodgees.eu/", "name": "Refoodgees", "opening_hours": "Mo-We 10:30-18:00; Th-Fr 10:30-22:00"}}, {"type": "node", "id": 12142631742, "lat": 50.8348046, "lon": 4.3554754, "tags": {"alt_name": "Scopa Focacceria", "amenity": "restaurant", "contact:facebook": "https://facebook.com/Scopafocacceria", "contact:instagram": "scopa_focacceria", "cuisine": "italian;coffee_shop", "diet:mediterranean": "yes", "diet:vegan": "yes", "diet:vegetarian": "yes", "name": "Scopa", "opening_hours": "Mo-We 11:00-19:00; Th-Sa 11:00-21:00", "short_name": "ScopaFoca", "toilets": "yes", "website": "https://scopafoca.it/", "website:menu": "https://www.scopafoca.it/menu-fr-en.pdf"}}, {"type": "node", "id": 12195292596, "lat": 50.8334941, "lon": 4.3454794, "tags": {"amenity": "restaurant", "contact:instagram": "https://www.instagram.com/charbon_bruxelles", "name": "Le Charbon"}}, {"type": "node", "id": 12196596409, "lat": 50.8384325, "lon": 4.3387797, "tags": {"amenity": "restaurant", "cuisine": "portuguese", "name": "Oh! Fadista"}}, {"type": "node", "id": 12211778975, "lat": 50.8313496, "lon": 4.3432587, "tags": {"amenity": "restaurant", "contact:website": "https://sinsenncuisine.be/", "cuisine": "japanese", "name": "Sinsenn"}}, {"type": "node", "id": 12224005969, "lat": 50.8329532, "lon": 4.3567824, "tags": {"amenity": "restaurant", "contact:website": "https://www.frank.brussels/", "name": "Frank St\u00e9phanie"}}, {"type": "node", "id": 12241653090, "lat": 50.8347288, "lon": 4.3552941, "tags": {"amenity": "restaurant", "contact:email": "info@g-spud.com", "contact:phone": "+32 2 538 05 08", "contact:website": "https://www.g-spud.com/", "description": "Specialised in baked potatoes and sweet potatoes topped with fresh ingredients", "name": "G-Spud", "opening_hours": "Mo-Fr 11:15-17:00; Sa 12:00-18:00; Su off; PH off", "payment:cash": "no", "reservation": "no", "takeaway": "yes", "wheelchair": "yes"}}, {"type": "node", "id": 12271484640, "lat": 50.8262605, "lon": 4.3546282, "tags": {"amenity": "restaurant", "contact:instagram": "https://www.instagram.com/seedbaracouscous", "cuisine": "tunisian", "full_name": "Seed Bar \u00e0 Couscous", "name": "Seed", "opening_hours": "Mo-Fr 11:30-15:00", "takeaway": "yes"}}, {"type": "node", "id": 12362346405, "lat": 50.8222422, "lon": 4.3545582, "tags": {"amenity": "restaurant", "cuisine": "french;mediterranean", "name": "Moro"}}, {"type": "node", "id": 12545639962, "lat": 50.8340571, "lon": 4.3549586, "tags": {"amenity": "restaurant", "cuisine": "french", "name": "Comptoir Garcin 2", "opening_hours": "We-Sa 19:30-24:00", "outdoor_seating": "yes", "website": "https://www.garcin.be/", "wheelchair": "no"}}, {"type": "node", "id": 12545639963, "lat": 50.8341897, "lon": 4.3551218, "tags": {"amenity": "restaurant", "contact:email": "info@pholaumi.be", "contact:phone": "+32 2 539 37 63", "cuisine": "vietnamese", "name": "Pho Lau Mi", "opening_hours": "Mo-Sa 12:00-14:45,18:30-22:00; PH off", "outdoor_seating": "yes"}}, {"type": "node", "id": 12546316591, "lat": 50.8347011, "lon": 4.3552278, "tags": {"amenity": "restaurant", "bar": "yes", "check_date:opening_hours": "2025-10-31", "cuisine": "pizza", "name": "Al Bacino", "opening_hours:signed": "no", "outdoor_seating": "yes", "wheelchair": "no"}}, {"type": "node", "id": 12546316598, "lat": 50.8346696, "lon": 4.3551525, "tags": {"amenity": "restaurant", "check_date:opening_hours": "2025-10-31", "name": "Kamen", "opening_hours:signed": "no"}}, {"type": "node", "id": 12568911796, "lat": 50.8291998, "lon": 4.3389826, "tags": {"amenity": "restaurant", "cuisine": "pizza;italian", "delivery": "yes", "name": "Pizzeria Nina Ciao", "opening_hours": "18:00-23:00", "outdoor_seating": "no", "takeaway": "only"}}, {"type": "node", "id": 12585520100, "lat": 50.8278906, "lon": 4.3456374, "tags": {"amenity": "restaurant", "contact:email": "info@koolchou.be", "contact:instagram": "https://www.instagram.com/kool_chou", "contact:phone": "+32 2 270 01 38", "description": "Comptoir familial", "name": "Kool Chou"}}, {"type": "node", "id": 12610306997, "lat": 50.833932, "lon": 4.3450291, "tags": {"amenity": "restaurant", "contact:website": "https://www.bossanovagrill.be/", "cuisine": "brazilian", "diet:vegetarian": "no", "name": "Bossa Nova", "opening_hours": "Tu-Fr 12:00-15:00, 19:00-22:30; Sa 12:00-15:00, 19:00-23:00; Su 12:00-17:00"}}, {"type": "node", "id": 12751773646, "lat": 50.825771, "lon": 4.3476551, "tags": {"amenity": "restaurant", "contact:instagram": "https://www.instagram.com/terter_fabriek", "contact:phone": "+32 2 538 61 64", "contact:website": "https://terter.be/", "diet:vegan": "only", "diet:vegetarian": "only", "indoor_seating": "yes", "internet_access": "wlan", "name": "TerTer", "opening_hours": "Mo-Fr 10:30-16:00; Sa-Su 10:00-15:00", "outdoor_seating": "sidewalk", "wheelchair": "no"}}, {"type": "node", "id": 12805591301, "lat": 50.8252658, "lon": 4.3441492, "tags": {"amenity": "restaurant", "contact:instagram": "bellelurette.bxl", "cuisine": "local", "name": "Belle Lurette", "opening_hours": "Tu-Sa 17:30-00:00"}}, {"type": "node", "id": 12971576342, "lat": 50.8331922, "lon": 4.3370497, "tags": {"amenity": "restaurant", "cuisine": "african", "name": "Petite Restauration Sp\u00e9cialit\u00e9s Africaines"}}, {"type": "node", "id": 13009161082, "lat": 50.8393292, "lon": 4.3390846, "tags": {"amenity": "restaurant", "name": "Y\u00e9men Al-Sa\u00efd"}}, {"type": "node", "id": 13033642677, "lat": 50.8318711, "lon": 4.3461388, "tags": {"amenity": "restaurant", "contact:website": "https://ioda.be/", "name": "iOda"}}, {"type": "node", "id": 13037800034, "lat": 50.8282419, "lon": 4.3424552, "tags": {"amenity": "restaurant", "contact:instagram": "https://www.instagram.com/elmekan.brussels/", "contact:mobile": "+32 497 77 78 87", "contact:website": "https://elmekan.com/", "cuisine": "pizza", "diet:lactose_free": "yes", "diet:organic": "yes", "diet:vegan": "yes", "diet:vegetarian": "yes", "name": "El Mekan", "note": "Payments by VISA or Mastercard not accepted.", "opening_hours": "Tu-Sa 18:00-22:00", "outdoor_seating": "yes", "takeaway": "yes"}}, {"type": "node", "id": 13075447899, "lat": 50.8384161, "lon": 4.3383243, "tags": {"amenity": "restaurant", "contact:facebook": "https://www.facebook.com/people/Bar-Asturias/100057115883708/", "cuisine": "spanish", "indoor_seating": "yes", "kids_area": "no", "name": "Bar Asturias", "opening_hours": "Mo-Fr 10:00-22:00; Su 08:00-22:00", "outdoor_seating": "no", "payment:cards": "yes", "payment:cash": "yes", "payment:qr_code": "no", "reservation": "yes", "service:electricity": "no"}}, {"type": "node", "id": 13316386839, "lat": 50.8361162, "lon": 4.3343066, "tags": {"amenity": "restaurant", "contact:email": "1fmhorta@aramark.be", "contact:website": "https://www.aramark.be/", "cuisine": "canteen", "diet:vegetarian": "yes", "level": "1", "name": "Aramark", "opening_hours": "Mo-Fr 11:30-14:00"}}, {"type": "node", "id": 13484500175, "lat": 50.8245326, "lon": 4.347967, "tags": {"amenity": "restaurant", "cuisine": "italian", "name": "La Tavernetta"}}, {"type": "way", "id": 1046453508, "nodes": [3100748368, 3100748362, 3100748355, 3100748359, 3100748351, 3100748349, 3100748363, 1247151765, 1247151787, 3100748370, 3100748368], "tags": {"amenity": "restaurant", "check_date": "2024-08-31", "contact:email": "saintgilles@standardpizza.be", "contact:phone": "+32 2 218 33 30", "contact:website": "https://standardpizza.be/standard-saint-gilles-fr.html", "cuisine": "pizza", "full_name": "Standard Saint-Gilles - Standard Sint-Gillis", "name": "Standard", "opening_hours": "Mo,We,Th 17:30-22:30; Fr 17:30-23:00; Sa 13:00-23:00; Su 13:00-20:00; Tu off"}}]}