{"version": 0.6, "generator": "Overpass API 0.7.62.10 2d4cfc48", "osm3s": {"timestamp_osm_base": "2026-02-02T16:41:30Z", "copyright": "The data included in this document is from www.openstreetmap.org. The data is made available under ODbL."}, "elements": [{"type": "node", "id": 2589704880, "lat": 50.8968417, "lon": 4.3584053, "tags": {"amenity": "restaurant", "contact:email": "info@skievelat.be", "contact:facebook": "https://www.facebook.com/skievelatdewand/", "contact:phone": "+32 2 735 65 47", "contact:website": "http://www.skievelat.be/", "cuisine": "regional", "name": "Skievelat", "opening_hours": "Tu-Fr 12:00-14:00,18:00-22:00; Sa 18:00-22:00"}}, {"type": "node", "id": 3476202565, "lat": 50.8949151, "lon": 4.3689376, "tags": {"amenity": "restaurant", "contact:email": "hello@levillage-tearoom.be", "contact:facebook": "https://www.facebook.com/people/Le-Village-Tea-Room/100083284033225/", "contact:mobile": "+32 478 11 19 78;+32 484 56 38 36", "contact:website": "https://levillage-tearoom.be/", "name": "Le Village", "opening_hours": "18:00-24:00; Fr,Sa 18:00-02:00"}}, {"type": "node", "id": 3815915894, "lat": 50.8994174, "lon": 4.3602726, "tags": {"amenity": "restaurant", "name": "La Terrasse", "outdoor_seating": "yes"}}, {"type": "node", "id": 4640330024, "lat": 50.8964114, "lon": 4.3578657, "tags": {"amenity": "restaurant", "contact:facebook": "https://www.facebook.com/orientexpresslaken/", "contact:mobile": "+32 486 53 94 22", "contact:phone": "+32 2 262 08 79", "cuisine": "chinese", "delivery": "yes", "name": "Orient Express", "opening_hours": "Tu-Su 11:00-13:30,17:00-21:00", "takeaway": "yes"}}, {"type": "node", "id": 4641896011, "lat": 50.8981942, "lon": 4.3594142, "tags": {"amenity": "restaurant", "contact:phone": "+32 2 269 26 66", "contact:website": "https://www.makiline.be/", "cuisine": "sushi", "delivery": "yes", "name": "Maki Line", "opening_hours": "11:00-14:00,17:30-22:00; Tu off", "operator": "Sushiline", "takeaway": "yes"}}, {"type": "node", "id": 4641896014, "lat": 50.8976635, "lon": 4.3590574, "tags": {"amenity": "restaurant", "contact:facebook": "https://www.facebook.com/people/Restaurant-La-Bocca/100042120712230/", "contact:phone": "+32 2 267 74 85", "cuisine": "mediterranean", "name": "La Bocca", "opening_hours": "12:00-15:00,18:00-23:00", "outdoor_seating": "yes"}}, {"type": "node", "id": 4657153774, "lat": 50.8968975, "lon": 4.3584396, "tags": {"amenity": "restaurant", "contact:mobile": "+32 487 17 61 97", "cuisine": "japanese", "name": "Om Sushi"}}, {"type": "node", "id": 8227681584, "lat": 50.8995838, "lon": 4.3603302, "tags": {"amenity": "restaurant", "contact:email": "lagrappadewand@gmail.com", "contact:facebook": "https://www.facebook.com/people/La-Grappa-De-Wand/61553675926930/", "contact:mobile": "+32 486 32 92 95", "cuisine": "italian;pizza", "name": "La Grappa", "opening_hours": "Tu-Su 11:30-14:30,18:00-22:30"}}, {"type": "node", "id": 8228327081, "lat": 50.8971155, "lon": 4.3602471, "tags": {"amenity": "restaurant", "contact:email": "traiteurlotusthaiviet@gmail.com", "contact:facebook": "https://www.facebook.com/RestoTraiteurLotus/", "contact:phone": "+32 2 366 47 40", "contact:website": "https://traiteurlotus.com/", "cuisine": "thai;vietnamese", "name": "Lotus", "opening_hours": "12:00-14:30,18:00-21:30; We off"}}, {"type": "node", "id": 8583885339, "lat": 50.9006769, "lon": 4.3604377, "tags": {"amenity": "restaurant", "contact:email": "info@chezkloe.be", "contact:phone": "+32 2 267 20 64", "contact:website": "https://chezkloe.be/", "cuisine": "italian", "delivery": "yes", "name": "Chez Klo\u00e9", "opening_hours": "We-Su 12:00-14:00,18:00-22:00"}}, {"type": "node", "id": 9851419065, "lat": 50.8973214, "lon": 4.3605321, "tags": {"amenity": "restaurant", "contact:email": "lavillabantou@outlook.be", "contact:facebook": "https://www.facebook.com/La-Villa-Bantou-Restaurant-101714299161159", "contact:mobile": "+32 470 97 35 15", "contact:website": "https://lavillabantou.be/", "cuisine": "african", "name": "La Villa Bantou", "opening_hours": "Tu,We 18:30-23:00; Th-Su 11:30-15:00,18:30-23:00"}}]}