{"version": 0.6, "generator": "Overpass API 0.7.62.10 2d4cfc48", "osm3s": {"timestamp_osm_base": "2026-02-02T18:26:51Z", "copyright": "The data included in this document is from www.openstreetmap.org. The data is made available under ODbL."}, "elements": [{"type": "node", "id": 1632512990, "lat": 50.8373315, "lon": 4.4313658, "tags": {"amenity": "restaurant", "name": "Le P\u00e9ch\u00e9 Gourmand"}}, {"type": "node", "id": 2356372527, "lat": 50.8407434, "lon": 4.435169, "tags": {"amenity": "restaurant", "contact:phone": "+32 2 772 88 14", "contact:website": "https://www.cafejoyeux.com/fr/content/30-cafe-joyeux-bruxelles", "disused:amenity": "restaurant", "name": "Joyeux", "opening_hours": "We-Su 09:00-19:00", "panoramax": "a5e83ff4-1654-4470-8e82-d6979fafa6f1", "start_date": "2023-01-12"}}, {"type": "node", "id": 2356372556, "lat": 50.8405288, "lon": 4.435374, "tags": {"amenity": "restaurant", "cuisine": "greek", "name": "Opa", "opening_hours": "Mo-Sa 12:00-15:00,18:00-23:00; Su,PH 12:00-15:00"}}, {"type": "node", "id": 4318426092, "lat": 50.8372152, "lon": 4.4320278, "tags": {"amenity": "restaurant", "contact:phone": "+32 2 256 90 15", "contact:website": "https://alliancecafe1150.wixsite.com/lalliancecafe/blank", "cuisine": "regional", "name": "Alliance Caf\u00e9", "opening_hours": "Oct-Mar Mo-Sa 11:00-15:00,18:00-23:00; Apr-Sep Mo-Sa 11:00-23:00"}}, {"type": "node", "id": 7211132238, "lat": 50.8411655, "lon": 4.434525, "tags": {"amenity": "restaurant", "contact:phone": "+32 2 256 98 78", "cuisine": "japanese", "delivery": "yes", "diet:vegetarian": "no", "name": "Mikuriya", "opening_hours": "Mo-Su 11:30-14:00,17:30-22:00", "wheelchair": "no"}}, {"type": "node", "id": 7211696343, "lat": 50.8412065, "lon": 4.4343675, "tags": {"amenity": "restaurant", "name": "Belgitude"}}, {"type": "node", "id": 7212124349, "lat": 50.8411048, "lon": 4.4357004, "tags": {"amenity": "restaurant", "cuisine": "italian", "name": "Leo Taste of Italy"}}, {"type": "node", "id": 7792687885, "lat": 50.8374948, "lon": 4.4327662, "tags": {"alt_name": "Gueleton.Brussels;Gueuleton Belgique", "amenity": "restaurant", "contact:website": "https://www.gueuleton.be/", "cuisine": "french", "name": "Gueuleton"}}, {"type": "node", "id": 7920189201, "lat": 50.84116, "lon": 4.4357468, "tags": {"amenity": "restaurant", "check_date": "2024-07-11", "contact:facebook": "https://www.facebook.com/Le-gar%C3%A7on-de-Toto-541007692587263/", "contact:phone": "+32 2 762 24 53", "cuisine": "french;italian", "name": "Le Gar\u00e7on de Toto", "outdoor_seating": "yes"}}, {"type": "node", "id": 7933930490, "lat": 50.8422869, "lon": 4.4355468, "tags": {"amenity": "restaurant", "check_date": "2024-07-11", "contact:mobile": "+32 497 35 61 11", "name": "Il Ramo d'Oliva", "opening_hours": "\"by appointement\""}}, {"type": "node", "id": 8476208676, "lat": 50.8422647, "lon": 4.4352697, "tags": {"amenity": "restaurant", "cuisine": "asian", "name": "Calamansi"}}, {"type": "node", "id": 8677124921, "lat": 50.8358113, "lon": 4.4307154, "tags": {"amenity": "restaurant", "cuisine": "indian", "name": "Taste of Curry"}}, {"type": "node", "id": 8677124922, "lat": 50.8358076, "lon": 4.4306928, "tags": {"amenity": "restaurant", "contact:website": "ryoma.be", "cuisine": "japanese", "name": "Hayato"}}, {"type": "node", "id": 8979380993, "lat": 50.8408007, "lon": 4.4351235, "tags": {"amenity": "restaurant", "check_date": "2024-07-11", "contact:facebook": "https://www.facebook.com/Little-Valley-100506755548575/", "cuisine": "thai", "name": "Little Valley", "takeaway": "yes"}}, {"type": "node", "id": 10542970855, "lat": 50.8370728, "lon": 4.4322726, "tags": {"amenity": "restaurant", "check_date": "2024-09-29", "contact:phone": "+32 2 899 01 72", "contact:website": "https://kanisos.be/", "cuisine": "greek", "internet_access": "wlan", "internet_access:fee": "customers", "name": "Kanisos", "opening_hours": "Mo off; Tu-Th 11:00-22:00; Fr 11:00-23:00; Sa 12:00-23:00; Su 12:00-22:00", "payment:cash": "yes", "payment:credit_cards": "yes", "payment:debit_cards": "yes"}}, {"type": "node", "id": 10804510983, "lat": 50.8362585, "lon": 4.4315267, "tags": {"amenity": "restaurant", "cuisine": "greek", "name": "La Folie Grecque"}}, {"type": "node", "id": 11374633474, "lat": 50.8356517, "lon": 4.4290563, "tags": {"amenity": "restaurant", "cuisine": "italian", "name": "Coin coin"}}, {"type": "node", "id": 12175016028, "lat": 50.8368297, "lon": 4.4292695, "tags": {"amenity": "restaurant", "cuisine": "pizza", "name": "Bloem-Farine", "opening_hours": "Mo-Fr 12:00-14:30,17:45-23:00", "website": "https://bloem-farine.be"}}, {"type": "node", "id": 12201201854, "lat": 50.8306155, "lon": 4.4342529, "tags": {"amenity": "restaurant", "contact:website": "https://www.levignoble.be/", "cuisine": "french", "name": "Le Vignoble"}}, {"type": "node", "id": 12230103533, "lat": 50.840936, "lon": 4.4349726, "tags": {"amenity": "restaurant", "check_date": "2024-07-11", "cuisine": "international", "diet:vegetarian": "yes", "name": "Buls", "opening_hours": "Mo-Fr 12:00-14:30"}}, {"type": "node", "id": 12230103535, "lat": 50.8410527, "lon": 4.4347621, "tags": {"amenity": "restaurant", "check_date": "2024-07-11", "contact:phone": "+32 2 770 05 55", "contact:website": "https://alpiccolo.net", "cuisine": "italian", "name": "Al Piccolo", "opening_hours": "Tu-Fr 12:00-13:30,18:30-21:30; Sa 18:30-21:30; PH off"}}]}