{"version": 0.6, "generator": "Overpass API 0.7.62.10 2d4cfc48", "osm3s": {"timestamp_osm_base": "2026-02-02T19:07:51Z", "copyright": "The data included in this document is from www.openstreetmap.org. The data is made available under ODbL."}, "elements": [{"type": "node", "id": 3349536701, "lat": 50.8305562, "lon": 4.3459703, "tags": {"amenity": "pub", "check_date": "2025-08-05", "contact:website": "https://cipiace.be", "name": "CiPiaCe", "outdoor_seating": "pedestrian_zone"}}, {"type": "node", "id": 3349536703, "lat": 50.8306426, "lon": 4.3461193, "tags": {"alt_name": "Pub l'Union", "amenity": "pub", "brewery": "various", "changing_table": "no", "changing_table:adult": "no", "check_date": "2025-08-05", "entrance:kerb:height": "0.11", "entrance:step_count": "1", "entrance:width": "1.3", "food": "yes", "indoor_seating": "yes", "name": "Brasserie de l'Union", "opening_hours": "Mo-Su 08:30-23:30", "outdoor_seating": "yes", "ramp:wheelchair": "no", "wheelchair": "limited", "wheelchair:turning_circle": "no"}}, {"type": "node", "id": 4422193252, "lat": 50.8250675, "lon": 4.3443529, "tags": {"amenity": "bar", "name": "Gamin"}}, {"type": "node", "id": 4956343355, "lat": 50.826136, "lon": 4.3450925, "tags": {"amenity": "pub", "check_date:opening_hours": "2023-04-03", "name": "L'Am\u00e8re \u00e0 Boire Saint-Gilles", "opening_hours:signed": "no", "outdoor_seating": "yes"}}, {"type": "node", "id": 6266236214, "lat": 50.8243316, "lon": 4.3431704, "tags": {"amenity": "pub", "contact:mobile": "+32 472 89 74 01", "contact:website": "http://www.beerstorming.net/", "food": "no", "internet_access": "wlan", "microbrewery": "yes", "name": "Beerstorming", "opening_hours": "Fr 14:00-18:00; Sa 14:00-20:00"}}, {"type": "node", "id": 6815871276, "lat": 50.8305426, "lon": 4.3458698, "tags": {"amenity": "pub", "check_date": "2025-03-14", "indoor_seating": "yes", "name": "Brasserie Egalit\u00e9", "outdoor_seating": "yes"}}, {"type": "node", "id": 9575554117, "lat": 50.8264022, "lon": 4.348626, "tags": {"amenity": "pub", "brewery": "Drinkthatbeer", "check_date": "2025-08-01", "contact:website": "https://www.drinkthatbeer.be/", "name": "La Bagarre", "opening_hours": "Tu-Th 17:00-24:00; Fr-Sa 17:00-01:00", "operator": "Drinkthatbeer"}}, {"type": "node", "id": 9653663744, "lat": 50.8255411, "lon": 4.3471716, "tags": {"amenity": "bar", "name": "Swing Bar"}}, {"type": "node", "id": 9654380620, "lat": 50.8245778, "lon": 4.3469882, "tags": {"amenity": "pub", "check_date": "2024-05-07", "indoor_seating": "yes", "name": "Bocage", "opening_hours": "Mo-Sa 08:00-01:00; Su 12:00-23:30", "outdoor_seating": "yes", "payment:credit_cards": "no", "payment:debit_cards": "yes"}}, {"type": "node", "id": 9654388103, "lat": 50.8304305, "lon": 4.345621, "tags": {"amenity": "pub", "check_date": "2025-11-14", "indoor_seating": "yes", "internet_access": "wlan", "name": "Caf\u00e9 Maison du Peuple", "opening_hours": "Mo-Th 11:00-24:00, Fr 11:00-03:00, Sa 09:30-03:00, Su 09:30-23:00", "outdoor_seating": "yes", "payment:credit_cards": "yes", "payment:debit_cards": "yes", "wheelchair": "yes"}}, {"type": "node", "id": 9654404335, "lat": 50.8217592, "lon": 4.3425051, "tags": {"amenity": "pub", "check_date": "2024-10-24", "indoor_seating": "yes", "internet_access": "wlan", "internet_access:fee": "no", "name": "Bar du Matin", "old_name": "L'Alcazar;L'Albert Ier", "opening_hours": "Mo-Th 08:00-01:00, Fr 08:00-03:00, Sa 09:00-03:00, Su 09:00-01:00", "outdoor_seating": "yes", "start_date": "1895", "wheelchair": "limited", "wikidata": "Q131370581", "wikimedia_commons": "Category:Bar du Matin"}}, {"type": "node", "id": 9654570992, "lat": 50.825279, "lon": 4.3442202, "tags": {"amenity": "bar", "check_date": "2025-12-29", "contact:website": "https://www.themodernalchemist.bar/", "indoor_seating": "yes", "name": "The Modern Alchemist", "opening_hours": "Mo-Th 18:00-00:00; Fr-Sa 18:00-01:00", "outdoor_seating": "yes"}}, {"type": "node", "id": 9654641550, "lat": 50.8253434, "lon": 4.3460017, "tags": {"amenity": "pub", "check_date": "2025-12-29", "contact:website": "https://cafelabiche.be/", "indoor_seating": "yes", "mapillary": "1586840428363962", "name": "La Biche", "opening_hours": "Mo-Fr 08:30-23:00; Sa-Su 09:30-23:00", "outdoor_seating": "yes"}}, {"type": "node", "id": 10763523781, "lat": 50.8265246, "lon": 4.3483881, "tags": {"amenity": "bar", "check_date": "2025-08-08", "drink:wine": "yes", "name": "Calmos", "opening_hours": "Mo-Th 17:30-23:30; Fr-Sa 17:30-24:30", "website": "https://calmos.be/"}}, {"type": "node", "id": 10792704806, "lat": 50.8231356, "lon": 4.3536514, "tags": {"amenity": "bar", "name": "Latino Caf\u00e9 Bar", "name:en": "Latino Caf\u00e9 Bar"}}, {"type": "node", "id": 11019548016, "lat": 50.8303413, "lon": 4.3479704, "tags": {"amenity": "bar", "check_date": "2024-11-21", "name": "Maguie", "opening_hours": "Th-Mo 17:00-24:00"}}, {"type": "node", "id": 11360055872, "lat": 50.8256697, "lon": 4.3543713, "tags": {"amenity": "bar", "indoor_seating": "yes", "name": "Le pr\u00e9texte", "outdoor_seating": "yes"}}, {"type": "node", "id": 11734832558, "lat": 50.825382, "lon": 4.3448342, "tags": {"amenity": "bar", "name": "Rubi"}}, {"type": "node", "id": 11893047888, "lat": 50.8228508, "lon": 4.3428786, "tags": {"amenity": "pub", "name": "Dynamo \u2013 Bar de Soif", "opening_hours": "Mo-We 17:00-00:00; Th-Fr 17:00-01:00; Sa 16:00-01:00; Su 16:00-00:00"}}, {"type": "node", "id": 12503693434, "lat": 50.8218794, "lon": 4.3432276, "tags": {"amenity": "bar", "check_date": "2025-01-15", "indoor_seating": "yes", "name": "F\u00e9nix", "outdoor_seating": "yes"}}, {"type": "node", "id": 12541005110, "lat": 50.8244464, "lon": 4.3435856, "tags": {"amenity": "pub", "name": "Brazil"}}, {"type": "node", "id": 12581464188, "lat": 50.8251005, "lon": 4.3433549, "tags": {"amenity": "bar", "indoor_seating": "yes", "name": "Le Comptoir", "outdoor_seating": "yes"}}, {"type": "node", "id": 12628699504, "lat": 50.823896, "lon": 4.3448132, "tags": {"amenity": "pub", "check_date:opening_hours": "2024-04-19", "indoor_seating": "yes", "name": "Moeder Lambic", "opening_hours:signed": "no", "outdoor_seating": "yes", "website": "https://www.moederlambic.com/", "wheelchair": "limited"}}, {"type": "node", "id": 12810876459, "lat": 50.8264017, "lon": 4.3454671, "tags": {"amenity": "bar", "name": "Je suis au boulot"}}]}