{"version": 0.6, "generator": "Overpass API 0.7.62.10 2d4cfc48", "osm3s": {"timestamp_osm_base": "2026-02-03T11:03:58Z", "copyright": "The data included in this document is from www.openstreetmap.org. The data is made available under ODbL."}, "elements": [{"type": "node", "id": 11640077401, "lat": 50.8821276, "lon": 4.4240807, "tags": {"amenity": "restaurant", "level": "0", "name": "Staff Centre Restaurant & Bar - Restaurant et bar du centre du personnel", "name:en": "Staff Centre Restaurant & Bar", "name:fr": "Restaurant et bar du centre du personnel", "opening_hours": "Tu-Th 10:00-22:00; Mo,Fr-Su 10:00-18:00; PH closed", "outdoor_seating": "yes", "reservation": "no", "self_service": "yes", "takeaway": "yes"}}, {"type": "node", "id": 11649347836, "lat": 50.884613, "lon": 4.422094, "tags": {"amenity": "restaurant", "cuisine": "italian", "name": "Sole di Napoli"}}, {"type": "node", "id": 11677259090, "lat": 50.8801604, "lon": 4.4268109, "tags": {"amenity": "restaurant", "contact:phone": "+32 2 707 84 11", "name": "The Diplomat", "opening_hours": "Mo-Fr 11:30-14:00", "reservation": "required"}}]}