{"version": 0.6, "generator": "Overpass API 0.7.62.10 2d4cfc48", "osm3s": {"timestamp_osm_base": "2026-02-02T16:52:44Z", "copyright": "The data included in this document is from www.openstreetmap.org. The data is made available under ODbL."}, "elements": [{"type": "node", "id": 1814305822, "lat": 50.8775579, "lon": 4.3477985, "tags": {"name": "Bockstael", "public_transport": "stop_position", "railway": "tram_stop", "tram": "yes"}}, {"type": "node", "id": 1814861910, "lat": 50.8737495, "lon": 4.3594456, "tags": {"name": "Marie-Christine - Maria-Christina", "name:fr": "Marie-Christine", "name:nl": "Maria-Christina", "public_transport": "stop_position", "railway": "tram_stop", "tram": "yes"}}, {"type": "node", "id": 3136264556, "lat": 50.874008, "lon": 4.3593009, "tags": {"name": "Marie-Christine - Maria-Christina", "name:fr": "Marie-Christine", "name:nl": "Maria-Christina", "public_transport": "stop_position", "railway": "tram_stop", "tram": "yes"}}, {"type": "node", "id": 3136264557, "lat": 50.877014, "lon": 4.3545714, "tags": {"name": "Princesse Cl\u00e9mentine - Prinses Clementina", "name:fr": "Princesse Cl\u00e9mentine", "name:nl": "Prinses Clementina", "public_transport": "stop_position", "railway": "tram_stop", "tram": "yes"}}, {"type": "node", "id": 3136264558, "lat": 50.8771354, "lon": 4.3538261, "tags": {"name": "Princesse Cl\u00e9mentine - Prinses Clementina", "name:fr": "Princesse Cl\u00e9mentine", "name:nl": "Prinses Clementina", "public_transport": "stop_position", "railway": "tram_stop", "tram": "yes"}}, {"type": "node", "id": 3136264560, "lat": 50.8775117, "lon": 4.3503093, "tags": {"name": "Moorslede", "public_transport": "stop_position", "railway": "tram_stop", "tram": "yes"}}, {"type": "node", "id": 3136264563, "lat": 50.8775843, "lon": 4.351097, "tags": {"name": "Moorslede", "public_transport": "stop_position", "railway": "tram_stop", "tram": "yes"}}, {"type": "node", "id": 3136264565, "lat": 50.8775432, "lon": 4.347169, "tags": {"name": "Bockstael", "public_transport": "stop_position", "railway": "tram_stop", "tram": "yes"}}]}