{"version": 0.6, "generator": "Overpass API 0.7.62.10 2d4cfc48", "osm3s": {"timestamp_osm_base": "2026-02-02T17:43:00Z", "copyright": "The data included in this document is from www.openstreetmap.org. The data is made available under ODbL."}, "elements": [{"type": "node", "id": 3323729862, "lat": 50.8274084, "lon": 4.3642985, "tags": {"amenity": "cafe", "check_date": "2026-02-02", "check_date:opening_hours": "2025-06-12", "contact:phone": "+32 2 646 72 14", "contact:website": "https://naturalcaffe.com/", "cuisine": "coffee_shop", "full_name": "Natural Caff\u00e8 Louise", "indoor_seating": "yes", "name": "Natural Caffe", "opening_hours": "Mo-Fr 07:30-18:00; Sa 09:00-19:00; Su 10:00-15:00; PH off", "outdoor_seating": "yes", "wheelchair": "no"}}, {"type": "node", "id": 6969934185, "lat": 50.8231311, "lon": 4.3671823, "tags": {"amenity": "cafe", "contact:facebook": "https://www.facebook.com/kafeibxl/", "contact:phone": "+32 2 808 25 20", "contact:website": "https://www.kafei-bruxelles.be/", "cuisine": "asian;coffee_shop;brunch;pancakes", "name": "Kafei", "opening_hours": "Tu-Th 11:00-18:00; Fr-Su 11:00-17:00; Mo off", "outdoor_seating": "terrace", "reservation": "yes"}}, {"type": "node", "id": 9646133346, "lat": 50.8156169, "lon": 4.3711196, "tags": {"amenity": "cafe", "contact:email": "hello@stellacoffeebar.be", "contact:instagram": "stellacoffeebar", "contact:mobile": "+32 465 91 09 35", "contact:website": "https://linktr.ee/stellacoffeebar/", "name": "Stella Legrand", "opening_hours": "Mo-Fr 07:30-18:00; Sa-Su 09:00-18:00", "outdoor_seating": "yes"}}, {"type": "node", "id": 10313603394, "lat": 50.8166049, "lon": 4.3711661, "tags": {"amenity": "cafe", "check_date": "2023-01-06", "cuisine": "coffee_shop", "internet_access": "wlan", "internet_access:fee": "customers", "name": "Caf\u00e9 de la Presse", "opening_hours": "Mo-Fr 07:30-20:00; Sa,Su 08:30-20:00", "outdoor_seating": "yes"}}, {"type": "node", "id": 11234770039, "lat": 50.8246503, "lon": 4.3656345, "tags": {"amenity": "cafe", "contact:website": "https://www.pauseandplay.be/infos", "name": "Pause and Play", "opening_hours": "We-Su 09:00-19:00"}}, {"type": "node", "id": 11298203500, "lat": 50.817836, "lon": 4.3798279, "tags": {"amenity": "cafe", "check_date:opening_hours": "2026-01-03", "name": "Caf\u00e9 Gumo", "opening_hours:signed": "no"}}, {"type": "node", "id": 11406451521, "lat": 50.8163982, "lon": 4.3826058, "tags": {"amenity": "cafe", "contact:website": "https://www.onobrunchandcoffee.com", "cuisine": "coffee_shop", "name": "Ono Brunch & Coffee"}}, {"type": "node", "id": 11420253503, "lat": 50.8186509, "lon": 4.37886, "tags": {"amenity": "cafe", "name": "Latin Coffee", "wheelchair": "limited"}}, {"type": "node", "id": 12447420002, "lat": 50.8178453, "lon": 4.3802918, "tags": {"amenity": "cafe", "contact:instagram": "https://www.instagram.com/koukou.coffee", "name": "Koukou"}}, {"type": "node", "id": 12548617003, "lat": 50.8276273, "lon": 4.3691318, "tags": {"amenity": "cafe", "check_date": "2026-02-02", "name": "Ch\u00e1 Shi"}}, {"type": "node", "id": 12762971802, "lat": 50.820131, "lon": 4.3682371, "tags": {"amenity": "cafe", "contact:email": "info@thewaynecafe.com", "contact:facebook": "61572520707221", "contact:instagram": "wayne.brussels", "contact:phone": "+32 2 241 86 68", "contact:website": "https://thewaynecafe.com/", "cuisine": "coffee_shop;sandwich", "name": "The Wayne Caf\u00e9", "opening_hours": "Mo-We, Sa 08:00-18:00; Th-Fr 08:00-22:00; Su 10:00-16:00"}}, {"type": "node", "id": 13206761970, "lat": 50.8274477, "lon": 4.3682665, "tags": {"amenity": "cafe", "contact:website": "https://www.dogoodcafe.org/", "description": "Dog-friendly cafe, with food and drinks for humans and for dogs", "dog": "yes", "name": "Dogood"}}]}