{"version": 0.6, "generator": "Overpass API 0.7.62.10 2d4cfc48", "osm3s": {"timestamp_osm_base": "2026-02-02T16:02:46Z", "copyright": "The data included in this document is from www.openstreetmap.org. The data is made available under ODbL."}, "elements": [{"type": "node", "id": 370760304, "lat": 50.7982151, "lon": 4.4187415, "tags": {"name": "Wiener", "public_transport": "stop_position", "railway": "tram_stop", "tram": "yes"}}, {"type": "node", "id": 3136263167, "lat": 50.79546, "lon": 4.4078132, "tags": {"name": "Boitsfort Gare - Bosvoorde Station", "name:fr": "Boitsfort Gare", "name:nl": "Bosvoorde Station", "public_transport": "stop_position", "railway": "tram_stop", "tram": "yes"}}, {"type": "node", "id": 3136263205, "lat": 50.7956231, "lon": 4.4128201, "tags": {"name": "Delleur", "public_transport": "stop_position", "railway": "tram_stop", "tram": "yes"}}, {"type": "node", "id": 3136263225, "lat": 50.7957492, "lon": 4.4135723, "tags": {"name": "Delleur", "public_transport": "stop_position", "railway": "tram_stop", "tram": "yes"}}, {"type": "node", "id": 3136263431, "lat": 50.7981191, "lon": 4.4182652, "tags": {"name": "Wiener", "public_transport": "stop_position", "railway": "tram_stop", "tram": "yes"}}, {"type": "node", "id": 3136263644, "lat": 50.801001, "lon": 4.4226723, "tags": {"name": "Fauconnerie - Valkerij", "name:fr": "Fauconnerie", "name:nl": "Valkerij", "public_transport": "stop_position", "railway": "tram_stop", "tram": "yes"}}, {"type": "node", "id": 3136263695, "lat": 50.8048539, "lon": 4.4263904, "tags": {"name": "Tenreuken", "public_transport": "stop_position", "railway": "tram_stop", "tram": "yes"}}, {"type": "node", "id": 3136263709, "lat": 50.8050993, "lon": 4.4267053, "tags": {"name": "Tenreuken", "public_transport": "stop_position", "railway": "tram_stop", "tram": "yes"}}, {"type": "node", "id": 4943887039, "lat": 50.8008508, "lon": 4.4223533, "tags": {"name": "Fauconnerie - Valkerij", "name:fr": "Fauconnerie", "name:nl": "Valkerij", "public_transport": "stop_position", "railway": "tram_stop", "tram": "yes"}}, {"type": "node", "id": 4977578451, "lat": 50.7955628, "lon": 4.4071524, "tags": {"name": "Boitsfort Gare - Bosvoorde Station", "name:fr": "Boitsfort Gare", "name:nl": "Bosvoorde Station", "public_transport": "stop_position", "railway": "tram_stop", "tram": "yes"}}, {"type": "node", "id": 4983752235, "lat": 50.8090981, "lon": 4.4275687, "tags": {"name": "Parc Seny - Seny-park", "name:fr": "Parc Seny", "name:nl": "Seny-park", "public_transport": "stop_position", "railway": "tram_stop", "tram": "yes"}}, {"type": "node", "id": 4983752240, "lat": 50.8082861, "lon": 4.4271939, "tags": {"name": "Parc Seny - Seny-park", "name:fr": "Parc Seny", "name:nl": "Seny-park", "public_transport": "stop_position", "railway": "tram_stop", "tram": "yes"}}]}