{"version": 0.6, "generator": "Overpass API 0.7.62.10 2d4cfc48", "osm3s": {"timestamp_osm_base": "2026-02-02T18:32:00Z", "copyright": "The data included in this document is from www.openstreetmap.org. The data is made available under ODbL."}, "elements": [{"type": "node", "id": 1099540273, "lat": 50.8403524, "lon": 4.4018015, "tags": {"amenity": "pub", "name": "Caf\u00e9 Le Batonnier", "outdoor_seating": "sidewalk", "wheelchair": "limited"}}, {"type": "node", "id": 2375856393, "lat": 50.8382299, "lon": 4.3971853, "tags": {"amenity": "pub", "name": "L'Alternative", "outdoor_seating": "yes", "wheelchair": "limited"}}, {"type": "node", "id": 4393710487, "lat": 50.8407613, "lon": 4.400872, "tags": {"amenity": "pub", "name": "Le Petit Paris", "wheelchair": "limited"}}, {"type": "node", "id": 4394004430, "lat": 50.8419578, "lon": 4.4013387, "tags": {"amenity": "pub", "name": "Taverne L'Aristo"}}, {"type": "node", "id": 4394134167, "lat": 50.8380011, "lon": 4.3973341, "tags": {"amenity": "pub", "check_date": "2023-09-14", "name": "Au d\u00e9j\u00e0 vu", "outdoor_seating": "yes", "wheelchair": "limited"}}, {"type": "node", "id": 5800912585, "lat": 50.8489109, "lon": 4.4018626, "tags": {"amenity": "pub", "name": "Le Diamant"}}, {"type": "node", "id": 6684895649, "lat": 50.8433206, "lon": 4.3959101, "tags": {"amenity": "pub", "check_date:opening_hours": "2025-10-30", "name": "Floribar", "opening_hours:signed": "no"}}, {"type": "node", "id": 9631020507, "lat": 50.8449401, "lon": 4.3955851, "tags": {"amenity": "pub", "contact:email": "wappers1030@gmail.com", "contact:facebook": "LeWappers", "contact:phone": "+32 2 732 32 07", "cuisine": "sandwich;pasta;noodles;coffee_shop;chicken", "description": "Taverne de quartier proposant une belle s\u00e9lection de bi\u00e8res belges!!", "name": "Le Wappers", "opening_hours": "Mo-Fr 10:30-10:30", "outdoor_seating": "sidewalk", "panoramax": "33cd808b-3ac9-4f5a-b6fd-48feb8fe9515"}}]}