{"version": 0.6, "generator": "Overpass API 0.7.62.10 2d4cfc48", "osm3s": {"timestamp_osm_base": "2026-02-02T17:19:16Z", "copyright": "The data included in this document is from www.openstreetmap.org. The data is made available under ODbL."}, "elements": [{"type": "node", "id": 2699716303, "lat": 50.811862, "lon": 4.3927774, "tags": {"amenity": "restaurant", "cuisine": "chinese", "name": "Orient Kitchen"}}, {"type": "node", "id": 3317485994, "lat": 50.8100499, "lon": 4.3972273, "tags": {"amenity": "restaurant", "contact:mobile": "+32 488 31 10 30", "contact:phone": "+32 2 672 76 45", "contact:website": "https://www.ilnabucco.com/", "cuisine": "italian;indian", "diet:vegan": "yes", "diet:vegetarian": "yes", "internet_access": "wlan", "name": "Il Nabucco", "opening_hours": "Tu-Su 12:00-14:30,18:00-22:00"}}, {"type": "node", "id": 4903511028, "lat": 50.8095796, "lon": 4.3957328, "tags": {"amenity": "restaurant", "contact:email": "info@babam.be", "contact:instagram": "babam.bxl", "contact:phone": "+32 2 660 26 77", "contact:website": "https://babam.be/", "cuisine": "fine_dining", "diet:vegetarian": "yes", "name": "Babam", "opening_hours": "Mo-Fr 19:00-23:00; We-Fr 12:00-14:00; PH off", "opening_hours:kitchen": "Mo-Fr 19:00-22:00; We-Fr 12:00-14:00; PH off"}}, {"type": "node", "id": 6070536160, "lat": 50.8125622, "lon": 4.3916952, "tags": {"amenity": "restaurant", "cuisine": "italian", "name": "Il Perfetto", "opening_hours": "12:00-14:00, 18:00-23:00"}}, {"type": "node", "id": 6070797866, "lat": 50.8102958, "lon": 4.3861795, "tags": {"amenity": "restaurant", "contact:facebook": "https://www.facebook.com/RestoSolbosch", "contact:phone": "+32 2 640 13 60", "contact:website": "https://restosolbosch.be/", "cuisine": "french", "name": "Solbosch", "opening_hours": "Mo-Sa 11:00-22:00", "outdoor_seating": "yes", "takeaway": "yes", "wheelchair": "yes"}}, {"type": "node", "id": 6070797867, "lat": 50.8125618, "lon": 4.3891501, "tags": {"amenity": "restaurant", "contact:mobile": "+32 470 910 227", "contact:phone": "+32 2 267 35 74", "contact:website": "https://www.pizzaditalia-ixelles.be", "cuisine": "pizza", "delivery": "yes", "diet:vegetarian": "yes", "name": "Pizza D\u2019Italia", "opening_hours": "Mo-Sa 11:00 - 24:00", "takeaway": "only"}}, {"type": "node", "id": 12206642525, "lat": 50.8072217, "lon": 4.3920744, "tags": {"amenity": "restaurant", "contact:website": "https://www.boisdelacambre.be/index.php/le-restaurant", "cuisine": "french", "name": "Restaurant Tennis Club du Bois de la Cambre"}}, {"type": "node", "id": 12484239272, "lat": 50.807454, "lon": 4.3843706, "tags": {"amenity": "restaurant", "contact:mobile": "+32 476 81 17 70", "contact:website": "https://refoodgees.eu/", "cuisine": "syrian", "name": "Refoodgees Villa Empain", "opening_hours": "We-Su 11:30-17:30"}}, {"type": "node", "id": 12610630257, "lat": 50.8064974, "lon": 4.3875098, "tags": {"amenity": "restaurant", "cuisine": "lebanese", "level": "0", "name": "Excellence Ixelles", "opening_hours": "Mo-Tu 11:00-21:00, We 11:00-19:30, Th-Fr 11:00-21:00, Sa 12:00-21:00, Su 11:30-17:00", "outdoor_seating": "no", "takeaway": "yes", "wheelchair": "no"}}, {"type": "node", "id": 12610669839, "lat": 50.807452, "lon": 4.3922113, "tags": {"amenity": "restaurant", "name": "So'Square", "opening_hours": "Mo-Fr 12:00-18:00", "opening_hours:kitchen": "Mo-Fr 12:00-15:00"}}, {"type": "node", "id": 13283290839, "lat": 50.8133495, "lon": 4.3818118, "tags": {"amenity": "restaurant", "contact:website": "https://www.ulb.be/fr/vie-sur-les-campus/alimentation-commerces-et-marches", "cuisine": "regional", "name": "Chez Th\u00e8o", "opening_hours": "Mo-Fr 11:30-14:15"}}, {"type": "node", "id": 13473963149, "lat": 50.8088744, "lon": 4.3866989, "tags": {"amenity": "restaurant", "contact:phone": "+32 2 850 46 41", "contact:website": "https://dalelo.be/", "cuisine": "pizza", "delivery": "yes", "name": "Pizza Pasta Da Lelo", "opening_hours": "Mo-Fr 11:30-14:30,17:30-22:30; Sa,Su 17:30-22:30", "takeaway": "only", "wheelchair": "yes"}}, {"type": "node", "id": 13482755744, "lat": 50.811907, "lon": 4.3927051, "tags": {"amenity": "restaurant", "contact:phone": "+32 2 527 24 95", "contact:website": "https://pizza-pulcinella.com/", "cuisine": "pizza", "name": "Pulcinella", "opening_hours": "Mo-Su 11:30-23:00"}}]}