{"version": 0.6, "generator": "Overpass API 0.7.62.10 2d4cfc48", "osm3s": {"timestamp_osm_base": "2026-02-03T11:57:14Z", "copyright": "The data included in this document is from www.openstreetmap.org. The data is made available under ODbL."}, "elements": [{"type": "node", "id": 2087650947, "lat": 50.8762271, "lon": 4.3145752, "tags": {"amenity": "restaurant", "contact:website": "https://www.lespotesentoque.be/", "cuisine": "french", "name": "Les potes en toque", "opening_hours": "Mo-Su 12:00-14:00,19:00-22:00"}}, {"type": "node", "id": 3018223106, "lat": 50.8693525, "lon": 4.3084166, "tags": {"amenity": "restaurant", "cuisine": "indian", "name": "Indian Mixed Grill"}}, {"type": "node", "id": 9927050943, "lat": 50.8733266, "lon": 4.3132062, "tags": {"amenity": "restaurant", "contact:facebook": "https://m.facebook.com/maisondekhinkali/", "contact:mobile": "+32 484 13 61 23", "cuisine": "georgian", "name": "Maison Kinkhali"}}, {"type": "node", "id": 12945088838, "lat": 50.8757378, "lon": 4.3196623, "tags": {"amenity": "restaurant", "contact:email": "lapizzeriadeschnus@gmail.com", "contact:facebook": "https://www.facebook.com/leschnus/", "contact:phone": "+32 2 427 24 38", "contact:website": "https://lapizzeriadeschnus.com/", "cuisine": "italian;pizza", "name": "La Pizzeria des Chnus"}}]}