{"version": 0.6, "generator": "Overpass API 0.7.62.10 2d4cfc48", "osm3s": {"timestamp_osm_base": "2026-02-02T16:41:30Z", "copyright": "The data included in this document is from www.openstreetmap.org. The data is made available under ODbL."}, "elements": [{"type": "node", "id": 8231932682, "lat": 50.8962056, "lon": 4.3580752, "tags": {"amenity": "childcare", "contact:email": "crechepapotipapota@gmail.com", "contact:facebook": "https://www.facebook.com/www.papotipapota.be/", "contact:mobile": "+32 487 43 77 44", "contact:website": "https://www.papotipapota.be/", "name": "Papoti Papota", "opening_hours": "Mo-Fr 07:30-18:00"}}, {"type": "node", "id": 9927290821, "lat": 50.8997509, "lon": 4.3601083, "tags": {"amenity": "childcare", "contact:email": "crechepapotipapota2@gmail.com", "contact:facebook": "https://www.facebook.com/www.papotipapota.be/", "contact:mobile": "+32 484 60 95 05", "name": "Papoti Papota", "opening_hours": "Mo-Fr 07:30-18:00", "website": "https://www.papotipapota.be/"}}, {"type": "node", "id": 11020889373, "lat": 50.8948366, "lon": 4.3674627, "tags": {"amenity": "childcare", "contact:email": "les_petitslutins@yahoo.com", "contact:mobile": "+32 472 90 92 37", "contact:website": "https://sites.google.com/site/petitslutinsbe/", "name": "Les Petits Lutins", "opening_hours": "Mo-Fr 07:30-18:00"}}, {"type": "node", "id": 11825725443, "lat": 50.8981419, "lon": 4.3573486, "tags": {"amenity": "childcare", "capacity": "53", "contact:website": "https://www.kinderopvanginbrussel.be/nl/koningin-astrid", "name": "Kim Gevaert", "opening_hours": "Mo-Fr 07:00-18:00"}}, {"type": "node", "id": 11825749323, "lat": 50.89882, "lon": 4.3628436, "tags": {"amenity": "childcare", "contact:email": "wanneke@skynet.be", "contact:phone": "+32 2 262 13 62", "contact:website": "https://www.wanneke.be/", "name": "'t Wanneke", "opening_hours": "Mo-Fr 07:00-18:00"}}]}