{"version": 0.6, "generator": "Overpass API 0.7.62.10 2d4cfc48", "osm3s": {"timestamp_osm_base": "2026-02-02T15:53:35Z", "copyright": "The data included in this document is from www.openstreetmap.org. The data is made available under ODbL."}, "elements": [{"type": "node", "id": 144208291, "lat": 50.8129111, "lon": 4.3474317, "tags": {"name": "Vanderkindere", "public_transport": "stop_position", "railway": "tram_stop", "tram": "yes"}}, {"type": "node", "id": 159497995, "lat": 50.8120121, "lon": 4.353223, "tags": {"name": "Churchill", "public_transport": "stop_position", "railway": "tram_stop", "tram": "yes"}}, {"type": "node", "id": 410466361, "lat": 50.7895599, "lon": 4.3739504, "tags": {"name": "Fort-Jaco", "public_transport": "stop_position", "railway": "tram_stop", "tram": "yes"}}, {"type": "node", "id": 1020458831, "lat": 50.7965144, "lon": 4.3481809, "tags": {"name": "Dieweg", "public_transport": "stop_position", "railway": "tram_stop", "tram": "yes"}}, {"type": "node", "id": 2086487397, "lat": 50.7948048, "lon": 4.3191964, "tags": {"name": "Stalle (P)", "public_transport": "stop_position", "railway": "tram_stop", "tram": "yes"}}, {"type": "node", "id": 2307013285, "lat": 50.7956184, "lon": 4.3489226, "tags": {"name": "Dieweg", "public_transport": "stop_position", "railway": "tram_stop", "tram": "yes"}}, {"type": "node", "id": 3115598741, "lat": 50.8004938, "lon": 4.3370165, "tags": {"name": "Globe", "public_transport": "stop_position", "railway": "tram_stop", "tram": "yes"}}, {"type": "node", "id": 3115598911, "lat": 50.7959407, "lon": 4.3201705, "tags": {"name": "Carrefour Stalle - Kruispunt Stalle", "name:fr": "Carrefour Stalle", "name:nl": "Kruispunt Stalle", "public_transport": "stop_position", "railway": "tram_stop", "tram": "yes"}}, {"type": "node", "id": 3115598912, "lat": 50.7959483, "lon": 4.3208174, "tags": {"name": "Carrefour Stalle - Kruispunt Stalle", "name:fr": "Carrefour Stalle", "name:nl": "Kruispunt Stalle", "public_transport": "stop_position", "railway": "tram_stop", "tram": "yes"}}, {"type": "node", "id": 3115599018, "lat": 50.7962242, "lon": 4.3241992, "tags": {"name": "\u00c9gide Van Ophem", "public_transport": "stop_position", "railway": "tram_stop", "tram": "yes"}}, {"type": "node", "id": 3115599064, "lat": 50.7963207, "lon": 4.323669, "tags": {"name": "\u00c9gide Van Ophem", "public_transport": "stop_position", "railway": "tram_stop", "tram": "yes"}}, {"type": "node", "id": 3115599078, "lat": 50.7963129, "lon": 4.3211966, "tags": {"name": "Carrefour Stalle - Kruispunt Stalle", "name:fr": "Carrefour Stalle", "name:nl": "Kruispunt Stalle", "public_transport": "stop_position", "railway": "tram_stop", "tram": "yes"}}, {"type": "node", "id": 3115599117, "lat": 50.7965394, "lon": 4.3481593, "tags": {"name": "Dieweg", "public_transport": "stop_position", "railway": "tram_stop", "tram": "yes"}}, {"type": "node", "id": 3115599119, "lat": 50.7967586, "lon": 4.3461301, "tags": {"name": "Dieweg", "public_transport": "stop_position", "railway": "tram_stop", "tram": "yes"}}, {"type": "node", "id": 3115599132, "lat": 50.7967453, "lon": 4.3290684, "tags": {"name": "Wagon - Wagen", "name:fr": "Wagon", "name:nl": "Wagen", "public_transport": "stop_position", "railway": "tram_stop", "tram": "yes"}}, {"type": "node", "id": 3115599141, "lat": 50.7967923, "lon": 4.3210643, "tags": {"name": "Carrefour Stalle - Kruispunt Stalle", "name:fr": "Carrefour Stalle", "name:nl": "Kruispunt Stalle", "public_transport": "stop_position", "railway": "tram_stop", "tram": "yes"}}, {"type": "node", "id": 3115599161, "lat": 50.7968734, "lon": 4.3296027, "tags": {"name": "Wagon - Wagen", "name:fr": "Wagon", "name:nl": "Wagen", "public_transport": "stop_position", "railway": "tram_stop", "tram": "yes"}}, {"type": "node", "id": 3115599266, "lat": 50.797953, "lon": 4.343408, "tags": {"name": "Wolvendael", "public_transport": "stop_position", "railway": "tram_stop", "tram": "yes"}}, {"type": "node", "id": 3115599273, "lat": 50.7982965, "lon": 4.3430642, "tags": {"name": "Wolvendael", "public_transport": "stop_position", "railway": "tram_stop", "tram": "yes"}}, {"type": "node", "id": 3115599314, "lat": 50.7987257, "lon": 4.3194171, "tags": {"name": "Merlo", "public_transport": "stop_position", "railway": "tram_stop", "tram": "yes"}}, {"type": "node", "id": 3115599340, "lat": 50.7991181, "lon": 4.3193909, "tags": {"name": "Merlo", "public_transport": "stop_position", "railway": "tram_stop", "tram": "yes"}}, {"type": "node", "id": 3115599587, "lat": 50.8006655, "lon": 4.3375126, "tags": {"name": "Globe", "public_transport": "stop_position", "railway": "tram_stop", "tram": "yes"}}, {"type": "node", "id": 3115599598, "lat": 50.8007959, "lon": 4.3409755, "tags": {"name": "Marlow", "public_transport": "stop_position", "railway": "tram_stop", "tram": "yes"}}, {"type": "node", "id": 3115599753, "lat": 50.8015999, "lon": 4.3405739, "tags": {"name": "Marlow", "public_transport": "stop_position", "railway": "tram_stop", "tram": "yes"}}, {"type": "node", "id": 3123735564, "lat": 50.8075912, "lon": 4.3441159, "tags": {"name": "Boetendael", "public_transport": "stop_position", "railway": "tram_stop", "tram": "yes"}}, {"type": "node", "id": 3123735585, "lat": 50.8108661, "lon": 4.3461834, "tags": {"name": "Messidor", "public_transport": "stop_position", "railway": "tram_stop", "tram": "yes"}}, {"type": "node", "id": 3124859046, "lat": 50.8032926, "lon": 4.3413499, "tags": {"name": "H\u00e9ros - Helden", "name:fr": "H\u00e9ros", "name:nl": "Helden", "public_transport": "stop_position", "railway": "tram_stop", "tram": "yes"}}, {"type": "node", "id": 3124859066, "lat": 50.8036745, "lon": 4.3416346, "tags": {"name": "H\u00e9ros - Helden", "name:fr": "H\u00e9ros", "name:nl": "Helden", "public_transport": "stop_position", "railway": "tram_stop", "tram": "yes"}}, {"type": "node", "id": 3124859081, "lat": 50.806635, "lon": 4.3434665, "tags": {"name": "Boetendael", "public_transport": "stop_position", "railway": "tram_stop", "tram": "yes"}}, {"type": "node", "id": 3125340246, "lat": 50.8098047, "lon": 4.3454671, "tags": {"name": "Messidor", "public_transport": "stop_position", "railway": "tram_stop", "tram": "yes"}}, {"type": "node", "id": 3125490971, "lat": 50.791232, "lon": 4.3681872, "tags": {"name": "Alphonse XIII", "public_transport": "stop_position", "railway": "tram_stop", "tram": "yes"}}, {"type": "node", "id": 3125491243, "lat": 50.7936335, "lon": 4.3665842, "tags": {"name": "Place Saint-Job - Sint-Jobplein", "name:fr": "Place Saint-Job", "name:nl": "Sint-Jobplein", "public_transport": "stop_position", "railway": "tram_stop", "tram": "yes"}}, {"type": "node", "id": 3125491260, "lat": 50.7939837, "lon": 4.3664121, "tags": {"name": "Place Saint-Job - Sint-Jobplein", "name:fr": "Place Saint-Job", "name:nl": "Sint-Jobplein", "public_transport": "stop_position", "railway": "tram_stop", "tram": "yes"}}, {"type": "node", "id": 3125491412, "lat": 50.7945825, "lon": 4.3564966, "tags": {"name": "Lancaster", "public_transport": "stop_position", "railway": "tram_stop", "tram": "yes"}}, {"type": "node", "id": 3125491429, "lat": 50.7946855, "lon": 4.3578686, "tags": {"name": "Lancaster", "public_transport": "stop_position", "railway": "tram_stop", "tram": "yes"}}, {"type": "node", "id": 3132140743, "lat": 50.8114046, "lon": 4.3584563, "tags": {"name": "Cavell", "public_transport": "stop_position", "railway": "tram_stop", "tram": "yes"}}, {"type": "node", "id": 3132140744, "lat": 50.8114012, "lon": 4.3616176, "tags": {"name": "Gossart", "public_transport": "stop_position", "railway": "tram_stop", "tram": "yes"}}, {"type": "node", "id": 3132140773, "lat": 50.8114616, "lon": 4.3633579, "tags": {"name": "Gossart", "public_transport": "stop_position", "railway": "tram_stop", "tram": "yes"}}, {"type": "node", "id": 3132140787, "lat": 50.8115505, "lon": 4.356736, "tags": {"name": "Cavell", "public_transport": "stop_position", "railway": "tram_stop", "tram": "yes"}}, {"type": "node", "id": 3132140876, "lat": 50.811928, "lon": 4.3672715, "tags": {"name": "Longchamp", "public_transport": "stop_position", "railway": "tram_stop", "tram": "yes"}}, {"type": "node", "id": 3132141072, "lat": 50.8121691, "lon": 4.3525619, "tags": {"name": "Churchill", "public_transport": "stop_position", "railway": "tram_stop", "tram": "yes"}}, {"type": "node", "id": 3132141118, "lat": 50.8131564, "lon": 4.3487155, "tags": {"name": "Vanderkindere", "public_transport": "stop_position", "railway": "tram_stop", "tram": "yes"}}, {"type": "node", "id": 3132141124, "lat": 50.8133832, "lon": 4.3481249, "tags": {"name": "Vanderkindere", "public_transport": "stop_position", "railway": "tram_stop", "tram": "yes"}}, {"type": "node", "id": 3132141442, "lat": 50.814995, "lon": 4.3678062, "tags": {"name": "Bascule", "public_transport": "stop_position", "railway": "tram_stop", "tram": "yes"}}, {"type": "node", "id": 3268984113, "lat": 50.8132543, "lon": 4.3388261, "tags": {"name": "Coghen", "public_transport": "stop_position", "railway": "tram_stop", "tram": "yes"}}, {"type": "node", "id": 3269440364, "lat": 50.8074472, "lon": 4.3368068, "tags": {"name": "Bens", "public_transport": "stop_position", "railway": "tram_stop", "tram": "yes"}}, {"type": "node", "id": 3269440386, "lat": 50.8096003, "lon": 4.3372816, "tags": {"name": "Roosendael", "public_transport": "stop_position", "railway": "tram_stop", "tram": "yes"}}, {"type": "node", "id": 3269540069, "lat": 50.7888451, "lon": 4.3335388, "tags": {"name": "Engeland", "public_transport": "stop_position", "railway": "tram_stop", "tram": "yes"}}, {"type": "node", "id": 3269540071, "lat": 50.7889547, "lon": 4.3339996, "tags": {"name": "Engeland", "public_transport": "stop_position", "railway": "tram_stop", "tram": "yes"}}, {"type": "node", "id": 3269540162, "lat": 50.7917554, "lon": 4.332679, "tags": {"name": "Uccle Calevoet - Ukkel Kalevoet", "name:fr": "Uccle Calevoet", "name:nl": "Ukkel Kalevoet", "public_transport": "stop_position", "railway": "tram_stop", "tram": "yes"}}, {"type": "node", "id": 3271162251, "lat": 50.780213, "lon": 4.3258922, "tags": {"name": "Van Haelen", "public_transport": "stop_position", "railway": "tram_stop", "tram": "yes"}}, {"type": "node", "id": 3271162252, "lat": 50.7802161, "lon": 4.3258469, "tags": {"name": "Van Haelen", "public_transport": "stop_position", "railway": "tram_stop", "tram": "yes"}}, {"type": "node", "id": 3271162993, "lat": 50.7871406, "lon": 4.3298247, "tags": {"name": "Bourdon - Horzel", "name:fr": "Bourdon", "name:nl": "Horzel", "public_transport": "stop_position", "railway": "tram_stop", "tram": "yes"}}, {"type": "node", "id": 3818247085, "lat": 50.7941455, "lon": 4.3342164, "tags": {"name": "Jeanne Herreman", "public_transport": "stop_position", "railway": "tram_stop", "tram": "yes"}}, {"type": "node", "id": 4411483166, "lat": 50.7976251, "lon": 4.3361946, "tags": {"name": "Rittweger", "public_transport": "stop_position", "railway": "tram_stop", "tram": "yes"}}, {"type": "node", "id": 4411483167, "lat": 50.7981186, "lon": 4.336279, "tags": {"name": "Rittweger", "public_transport": "stop_position", "railway": "tram_stop", "tram": "yes"}}, {"type": "node", "id": 4411483168, "lat": 50.794365, "lon": 4.3343184, "tags": {"name": "Jeanne Herreman", "public_transport": "stop_position", "railway": "tram_stop", "tram": "yes"}}, {"type": "node", "id": 4411483175, "lat": 50.7912372, "lon": 4.3328912, "tags": {"name": "Uccle Calevoet - Ukkel Kalevoet", "name:fr": "Uccle Calevoet", "name:nl": "Ukkel Kalevoet", "public_transport": "stop_position", "railway": "tram_stop", "tram": "yes"}}, {"type": "node", "id": 4411940509, "lat": 50.7869185, "lon": 4.3296404, "tags": {"name": "Bourdon - Horzel", "name:fr": "Bourdon", "name:nl": "Horzel", "public_transport": "stop_position", "railway": "tram_stop", "tram": "yes"}}, {"type": "node", "id": 4412497057, "lat": 50.7842595, "lon": 4.3279755, "tags": {"name": "Crematorium", "public_transport": "stop_position", "railway": "tram_stop", "tram": "yes"}}, {"type": "node", "id": 4412497061, "lat": 50.7847875, "lon": 4.3283485, "tags": {"name": "Crematorium", "public_transport": "stop_position", "railway": "tram_stop", "tram": "yes"}}, {"type": "node", "id": 4415721498, "lat": 50.8116766, "lon": 4.3553535, "tags": {"name": "Churchill", "public_transport": "stop_position", "railway": "tram_stop", "tram": "yes"}}, {"type": "node", "id": 4415721499, "lat": 50.811708, "lon": 4.3541123, "tags": {"name": "Churchill", "public_transport": "stop_position", "railway": "tram_stop", "tram": "yes"}}, {"type": "node", "id": 4415721500, "lat": 50.8117999, "lon": 4.3546716, "tags": {"name": "Churchill", "public_transport": "stop_position", "railway": "tram_stop", "tram": "yes"}}, {"type": "node", "id": 4415721501, "lat": 50.8118401, "lon": 4.3542364, "tags": {"name": "Churchill", "public_transport": "stop_position", "railway": "tram_stop", "tram": "yes"}}, {"type": "node", "id": 4415721502, "lat": 50.8119651, "lon": 4.3536422, "tags": {"name": "Churchill", "public_transport": "stop_position", "railway": "tram_stop", "tram": "yes"}}, {"type": "node", "id": 4415721503, "lat": 50.8120908, "lon": 4.3537725, "tags": {"name": "Churchill", "public_transport": "stop_position", "railway": "tram_stop", "tram": "yes"}}, {"type": "node", "id": 4459483159, "lat": 50.8006068, "lon": 4.3364864, "tags": {"name": "Globe", "public_transport": "stop_position", "railway": "tram_stop", "tram": "yes"}}, {"type": "node", "id": 4571404175, "lat": 50.7952995, "lon": 4.3187979, "tags": {"name": "Stalle (P)", "public_transport": "stop_position", "railway": "tram_stop", "tram": "yes"}}, {"type": "node", "id": 4665197229, "lat": 50.8119725, "lon": 4.3678395, "tags": {"name": "Longchamp", "public_transport": "stop_position", "railway": "tram_stop", "tram": "yes"}}, {"type": "node", "id": 4799104682, "lat": 50.7931997, "lon": 4.3202964, "tags": {"name": "Keyenbempt", "public_transport": "stop_position", "railway": "tram_stop", "tram": "yes"}}, {"type": "node", "id": 4799104684, "lat": 50.7935304, "lon": 4.3206606, "tags": {"name": "Keyenbempt", "public_transport": "stop_position", "railway": "tram_stop", "tram": "yes"}}, {"type": "node", "id": 4938606257, "lat": 50.8030124, "lon": 4.3365917, "tags": {"name": "Xavier de Bue", "public_transport": "stop_position", "railway": "tram_stop", "tram": "yes"}}, {"type": "node", "id": 4938612401, "lat": 50.8041831, "lon": 4.3366858, "tags": {"name": "Xavier de Bue", "public_transport": "stop_position", "railway": "tram_stop", "tram": "yes"}}, {"type": "node", "id": 4940068747, "lat": 50.8072392, "lon": 4.3368414, "tags": {"name": "Bens", "public_transport": "stop_position", "railway": "tram_stop", "tram": "yes"}}, {"type": "node", "id": 4940090341, "lat": 50.81073, "lon": 4.3377876, "tags": {"name": "Roosendael", "public_transport": "stop_position", "railway": "tram_stop", "tram": "yes"}}, {"type": "node", "id": 4940120273, "lat": 50.8128887, "lon": 4.3386236, "tags": {"name": "Coghen", "public_transport": "stop_position", "railway": "tram_stop", "tram": "yes"}}, {"type": "node", "id": 5173004788, "lat": 50.7910979, "lon": 4.3687066, "tags": {"name": "Alphonse XIII", "public_transport": "stop_position", "railway": "tram_stop", "tram": "yes"}}, {"type": "node", "id": 5201741601, "lat": 50.7947349, "lon": 4.3524364, "tags": {"name": "Th\u00e9venet", "public_transport": "stop_position", "railway": "tram_stop", "tram": "yes"}}, {"type": "node", "id": 5201741609, "lat": 50.7947433, "lon": 4.3525649, "tags": {"name": "Th\u00e9venet", "public_transport": "stop_position", "railway": "tram_stop", "tram": "yes"}}, {"type": "node", "id": 5257789897, "lat": 50.799452, "lon": 4.3364748, "tags": {"name": "Globe", "public_transport": "stop_position", "railway": "tram_stop", "tram": "yes"}}, {"type": "node", "id": 5424301614, "lat": 50.7952696, "lon": 4.3187384, "tags": {"name": "Stalle (P)", "public_transport": "stop_position", "railway": "tram_stop", "tram": "yes"}}, {"type": "node", "id": 5424301850, "lat": 50.7951003, "lon": 4.3188428, "tags": {"name": "Stalle (P)", "public_transport": "stop_position", "railway": "tram_stop", "tram": "yes"}}, {"type": "node", "id": 12974029091, "lat": 50.7942033, "lon": 4.3625844, "tags": {"name": "Gare de Saint-Job - Station Sint-Job", "name:fr": "Gare de Saint-Job", "name:nl": "Station Sint-Job", "public_transport": "stop_position", "railway": "tram_stop", "tram": "yes"}}, {"type": "node", "id": 12974063463, "lat": 50.794302, "lon": 4.3620111, "tags": {"name": "Gare de Saint-Job - Station Sint-Job", "name:fr": "Gare de Saint-Job", "name:nl": "Station Sint-Job", "public_transport": "stop_position", "railway": "tram_stop", "tram": "yes"}}]}