{"version": 0.6, "generator": "Overpass API 0.7.62.10 2d4cfc48", "osm3s": {"timestamp_osm_base": "2026-02-03T10:44:29Z", "copyright": "The data included in this document is from www.openstreetmap.org. The data is made available under ODbL."}, "elements": [{"type": "node", "id": 1025220504, "lat": 50.8357954, "lon": 4.3111864, "tags": {"amenity": "restaurant", "contact:phone": "+32 2 523 28 76", "cuisine": "belgian", "name": "Friture Ren\u00e9", "opening_hours": "Mo-Tu off;We-Su 11:45-14:30,18:00-22:00", "smoking": "no"}}, {"type": "node", "id": 2506793778, "lat": 50.8354683, "lon": 4.3062064, "tags": {"amenity": "restaurant", "indoor_seating": "yes", "name": "La Ville de Brugge", "outdoor_seating": "yes"}}, {"type": "node", "id": 2623699495, "lat": 50.8361197, "lon": 4.3056199, "tags": {"amenity": "restaurant", "capacity": "50", "cuisine": "regional", "name": "Les Tr\u00e9taux"}}, {"type": "node", "id": 3030559233, "lat": 50.8384995, "lon": 4.3068291, "tags": {"amenity": "restaurant", "indoor_seating": "yes", "name": "P\u00e9n\u00e9lope", "outdoor_seating": "no"}}, {"type": "node", "id": 9165277135, "lat": 50.8354107, "lon": 4.3062535, "tags": {"amenity": "restaurant", "cuisine": "middle_eastern;lebanese;syrian", "indoor_seating": "yes", "name": "Le Baron", "outdoor_seating": "yes"}}, {"type": "node", "id": 9165277138, "lat": 50.8351338, "lon": 4.3077904, "tags": {"amenity": "restaurant", "cuisine": "french;belgian", "name": "La Tribune", "outdoor_seating": "yes"}}, {"type": "node", "id": 10858830347, "lat": 50.8359473, "lon": 4.3101254, "tags": {"amenity": "restaurant", "cuisine": "spanish", "name": "Caf\u00e9 Asturiano", "panoramax": "95d0f19b-7976-4996-8ae1-d6c72ab72fc6", "url": "https://www.bruzz.be/videoreeks/bruzz-international-zondag-7-mei-2023/video-spaans-portugese-bar-asturiano-we-hebben"}}, {"type": "node", "id": 12947376923, "lat": 50.8357671, "lon": 4.3007927, "tags": {"amenity": "restaurant", "contact:mobile": "+32 495 12 34 50", "contact:phone": "+32 2 648 62 12", "contact:website": "https://rozanarestaurant.be/", "cuisine": "lebanese", "name": "Rozana", "opening_hours": "We-Th 12:00-22:30; Fr-Sa 12:00-23:00; Su 12:00-22:30"}}, {"type": "node", "id": 12947380927, "lat": 50.8372227, "lon": 4.3052422, "tags": {"amenity": "restaurant", "contact:facebook": "https://www.facebook.com/profile.php?id=61560903186909", "cuisine": "world", "name": "Ma Broeck", "opening_hours": "Tu 12:00-14:00;Th 12:00-14:00;Fr 12:00-14:00; Sa 18:00-21:00"}}]}