{"version": 0.6, "generator": "Overpass API 0.7.62.10 2d4cfc48", "osm3s": {"timestamp_osm_base": "2026-02-10T15:08:30Z", "copyright": "The data included in this document is from www.openstreetmap.org. The data is made available under ODbL."}, "elements": [{"type": "node", "id": 2422528371, "lat": 50.8532828, "lon": 4.3475568, "tags": {"amenity": "restaurant", "changing_table": "no", "cuisine": "french", "entrance:kerb:height": "0", "entrance:step_count": "0", "entrance:width": "1.03", "name": "La Boussole", "payment:american_express": "yes", "payment:mastercard": "yes", "payment:visa": "yes", "payment:visa_electron": "yes", "wheelchair:turning_circle": "no"}}, {"type": "node", "id": 2422528374, "lat": 50.8517211, "lon": 4.3486323, "tags": {"amenity": "restaurant", "cuisine": "pasta", "name": "Pasta Bar", "note": "Closed as of 2023-07-22, could not determine whether it is out of business or closed during holidays"}}, {"type": "node", "id": 2501834384, "lat": 50.8568936, "lon": 4.3469641, "tags": {"amenity": "restaurant", "check_date": "2025-06-26", "contact:phone": "+32 2 425 73 60", "contact:website": "https://bargerestaurant.be/", "cuisine": "french;regional", "name": "Barge", "outdoor_seating": "no"}}, {"type": "node", "id": 2509496037, "lat": 50.8519414, "lon": 4.3507362, "tags": {"amenity": "restaurant", "contact:phone": "+32 2 219 39 33", "cuisine": "indian;nepalese;tibetan", "internet_access": "wlan", "name": "New Annapurna", "opening_hours": "11:30-14:30,17:30-23:00", "self_service": "no"}}, {"type": "node", "id": 2509496063, "lat": 50.8522947, "lon": 4.352661, "tags": {"amenity": "restaurant", "contact:facebook": "https://www.facebook.com/superfourchette", "contact:instagram": "superfourchette", "contact:phone": "+32 2 267 13 01", "description": "Restaurant with music concerts, sells music CDs", "live_music": "yes", "name": "Super Fourchette", "opening_hours": "Mo 12:00-14:00; Tu-Fr 12:00-14:00,18:30-21:30", "panoramax": "abb7edc0-45cc-4eda-a3bd-db56640838ff", "wheelchair": "no"}}, {"type": "node", "id": 2509496144, "lat": 50.852326, "lon": 4.3497339, "tags": {"amenity": "restaurant", "check_date:opening_hours": "2025-02-02", "contact:email": "brasseriedugourmet@gmail.com", "contact:phone": "+32 2 223 33 40", "cuisine": "regional", "name": "Brasserie du Gourmet", "opening_hours": "Mo,Tu,Th,Fr 12:00-15:00,18:30-22:30; We 18:30-22:30; Sa 18:30-22:30"}}, {"type": "node", "id": 2509496183, "lat": 50.8527231, "lon": 4.3522921, "tags": {"amenity": "restaurant", "contact:mobile": "+32 471 10 32 96;+32 472 46 21 65", "contact:website": "https://lafonda.be", "cuisine": "colombian", "name": "La Fonda", "opening_hours": "Fr 18:00-23:00; Sa 13:00-23:00; Su 13:00-21:30"}}, {"type": "node", "id": 3000941409, "lat": 50.853293, "lon": 4.3535047, "tags": {"amenity": "restaurant", "cuisine": "thai", "name": "Tha\u00ef Bangkok"}}, {"type": "node", "id": 4069920584, "lat": 50.8532196, "lon": 4.3513785, "tags": {"amenity": "restaurant", "contact:mobile": "+32 470 040 933", "contact:website": "https://habesha-restaurant.be/", "cuisine": "ethiopian", "diet:vegetarian": "yes", "name": "Habesha", "opening_hours": "Tu-Fr 18:00-23:00; Sa-Su 12:00-23:00"}}, {"type": "node", "id": 4318622689, "lat": 50.8511827, "lon": 4.3490999, "tags": {"amenity": "restaurant", "check_date": "2025-06-26", "contact:phone": "+32 2 217 90 12", "contact:website": "https://www.pampas.be/pampas-rodizio-brussels-catherine-en", "cuisine": "brazilian", "diet:vegan": "no", "diet:vegetarian": "yes", "name": "Pampas Rodizio", "opening_hours": "Mo-Fr 18:00-22:30; Sa 17:30-22:30; Su 12:00-14:30,18:00-22:30"}}, {"type": "node", "id": 4370027741, "lat": 50.8511595, "lon": 4.3501479, "tags": {"amenity": "restaurant", "contact:email": "vismet@hotmail.com", "contact:phone": "+32 2 218 85 45", "contact:website": "https://levismet.be/", "cuisine": "seafood", "entrance:kerb:height": "0", "entrance:step_count": "0", "name": "Vismet", "opening_hours": "Mo off; Tu-Sa 12:00-14:00,19:00-22:00; Su off", "operator": "Tom Decroos", "toilets:wheelchair": "yes", "toilets:wheelchair:accessible_via": "ground floor", "wheelchair": "limited", "wheelchair:turning_circle": "yes"}}, {"type": "node", "id": 4370027742, "lat": 50.8511383, "lon": 4.3503053, "tags": {"amenity": "restaurant", "contact:phone": "+32 2 218 62 83", "cuisine": "regional", "name": "Resto 26", "opening_hours": "Mo-Sa 12:00-15:00,18:00-23:00; Su 18:00-23:00", "smoking": "separated", "wheelchair": "yes"}}, {"type": "node", "id": 4764541942, "lat": 50.8539266, "lon": 4.3538751, "tags": {"amenity": "restaurant", "contact:phone": "+32 2 217 80 05", "cuisine": "pizza", "name": "Il Colosseo", "opening_hours": "Mo-Fr 11:30-14:30,18:00-22:00; Sa 11:30-14:30; Su,PH off"}}, {"type": "node", "id": 4811111885, "lat": 50.8518002, "lon": 4.3504706, "tags": {"amenity": "restaurant", "contact:mobile": "+32 473 25 89 29", "contact:phone": "+32 2 218 80 02", "cuisine": "vietnamese", "name": "L\u00ea-Duy", "opening_hours": "Mo-Fr 11:30-15:00,18:00-23:30; Sa 18:00-23:30; Su off", "takeaway": "yes"}}, {"type": "node", "id": 5010092323, "lat": 50.8541703, "lon": 4.3540176, "tags": {"amenity": "restaurant", "contact:phone": "+32 2 414 35 31", "contact:website": "https://www.sipslurpbrussel.be/", "cuisine": "noodles", "name": "Sip & Slurp"}}, {"type": "node", "id": 5024073444, "lat": 50.8518356, "lon": 4.3507248, "tags": {"alt_name": "Le Sorrento de Martine", "amenity": "restaurant", "contact:phone": "+32 2 218 53 09", "cuisine": "regional", "name": "Le Sorrento", "opening_hours": "Mo-Fr 11:30-14:30"}}, {"type": "node", "id": 5092050388, "lat": 50.8530076, "lon": 4.3512867, "tags": {"amenity": "restaurant", "contact:website": "https://www.labattante.be/", "cuisine": "african", "level": "0", "name": "La Battante", "outdoor_seating": "no", "takeaway": "yes", "wheelchair": "no"}}, {"type": "node", "id": 5092050391, "lat": 50.8528439, "lon": 4.3512159, "tags": {"amenity": "restaurant", "contact:mobile": "+32 456 21 87 23", "contact:website": "http://www.loscharros.be/", "cuisine": "mexican", "name": "Los Charros", "opening_hours": "Tu, Su 18:00-21:30; We-Sa 12:00-21:30"}}, {"type": "node", "id": 5092050392, "lat": 50.8527872, "lon": 4.3511913, "tags": {"amenity": "restaurant", "contact:mobile": "+32 498 48 17 31", "cuisine": "tapas", "name": "Kick Tap'ass", "opening_hours": "Tu-Fr 11:45-14:15,18:00-24:00; Sa 18:00-24:00"}}, {"type": "node", "id": 5116638654, "lat": 50.8557377, "lon": 4.351217, "tags": {"amenity": "restaurant", "contact:email": "info@beaucoupfish.be", "contact:facebook": "https://www.facebook.com/beaucoupfish/", "contact:phone": "+32 2 218 64 20", "contact:website": "https://beaucoupfish.be", "cuisine": "seafood", "name": "Beaucoup Fish", "opening_hours": "Mo-Fr 12:00-14:00,18:30-21:30"}}, {"type": "node", "id": 5553150412, "lat": 50.8515773, "lon": 4.3503441, "tags": {"amenity": "restaurant", "contact:phone": "+32 2 781 07 27", "contact:website": "https://harvestrestaurantbruxelles.be/en/restaurant-brussels/", "cuisine": "regional", "name": "Harvest", "opening_hours": "12:00-14:00,19:00-22:00; Fr 12:00-14:00,19:00-23:00, Sa 19:00-23:00, Su-Mo off"}}, {"type": "node", "id": 6253235185, "lat": 50.8527068, "lon": 4.3496195, "tags": {"amenity": "restaurant", "name": "Crush", "opening_hours": "Mo,Tu,Th-Sa 12:00-14:30,19:00-22:30; We,Su off"}}, {"type": "node", "id": 8118474192, "lat": 50.8513581, "lon": 4.3488823, "tags": {"amenity": "restaurant", "cuisine": "japanese", "diet:vegan": "yes", "indoor_seating": "yes", "name": "Sensei Sushi", "opening_hours": "Mo-Th 11:30-23:00; Fr 15:30-03:30; Sa 11:30-23:30; Su 11:30-23:00", "outdoor_seating": "yes"}}, {"type": "node", "id": 8385019732, "lat": 50.8531175, "lon": 4.3476706, "tags": {"amenity": "restaurant", "contact:email": "info@dalongyi.be", "contact:mobile": "+32 478 68 88 89", "contact:website": "https://www.dalongyi.be", "cuisine": "hot_pot", "description": "Service Hours: - First Service at 18:00 - Second Service at 20:00", "diet:fish": "yes", "diet:meat": "yes", "diet:vegetarian": "yes", "entrance:kerb:height": "0.12", "entrance:ramp": "yes", "entrance:step_count": "1", "entrance:width": "1.2", "name": "Da Long Yi", "opening_hours": "Mo-Th 17:00-22:30; Fr-Su 12:00-15:00, 17:00-23:00", "reservation": "recommended", "takeaway": "no", "wheelchair:turning_circle": "yes"}}, {"type": "node", "id": 9561105843, "lat": 50.8578239, "lon": 4.3461435, "tags": {"amenity": "restaurant", "contact:facebook": "https://www.facebook.com/CoeurdesilesRestaurant/", "contact:phone": "+32 2 217 78 65", "cuisine": "mauritian", "name": "C\u0153ur des \u00eeles", "opening_hours": "Mo-Sa 17:00-23:00"}}, {"type": "node", "id": 10151493045, "lat": 50.855251, "lon": 4.3518563, "tags": {"amenity": "restaurant", "check_date:opening_hours": "2024-07-07", "contact:email": "info@beaucoupbelge.be", "contact:phone": "+32 2 771 40 82", "contact:website": "https://beaucoupbelge.be", "cuisine": "regional", "name": "Beaucoup Belge", "opening_hours": "Mo, Tu, Th, Fr 12:00-14:00, 18:00-22:00; We 09:00-14:00, 18:00-22:00", "opening_hours:signed": "no"}}, {"type": "node", "id": 11164907673, "lat": 50.8549464, "lon": 4.3544473, "tags": {"amenity": "restaurant", "name": "L'Atelier de Willy", "website": "https://www.latelierdewilly.be"}}, {"type": "node", "id": 11274910847, "lat": 50.8535434, "lon": 4.3536511, "tags": {"amenity": "restaurant", "cuisine": "arab", "name": "Nonni", "note": "Not clear whether it is a restaurant or a hotel; surprisingly closed during a 10:00 p.m. survey"}}, {"type": "node", "id": 12206674319, "lat": 50.8523098, "lon": 4.3509366, "tags": {"amenity": "restaurant", "contact:email": "info@toukoul.be", "contact:phone": "+32 2 223 73 77", "contact:website": "https://www.toukoul.be/", "cuisine": "ethiopian", "name": "Toukoul", "opening_hours": "Mo-We 18:00-22:30; Th 12:00-14:30,18:00-22:30, Fr 12:30-14:30,18:00-23:00; Sa-Su 12:30-15:30,18:00-23:00"}}, {"type": "node", "id": 12593425730, "lat": 50.8531911, "lon": 4.3522606, "tags": {"amenity": "restaurant", "contact:mobile": "+32 485 42 02 72", "cuisine": "sushi", "name": "Osaka Sushi"}}]}