{"version": 0.6, "generator": "Overpass API 0.7.62.10 2d4cfc48", "osm3s": {"timestamp_osm_base": "2026-02-02T16:50:44Z", "copyright": "The data included in this document is from www.openstreetmap.org. The data is made available under ODbL."}, "elements": [{"type": "node", "id": 1200029076, "lat": 50.8733905, "lon": 4.3587744, "tags": {"amenity": "cafe", "name": "Tanja"}}, {"type": "node", "id": 1200029086, "lat": 50.872939, "lon": 4.3575811, "tags": {"amenity": "cafe", "name": "Fiume"}}, {"type": "node", "id": 1200215878, "lat": 50.8703645, "lon": 4.3430174, "tags": {"amenity": "cafe", "name": "L` Orchid\u00e8e"}}, {"type": "node", "id": 9166948797, "lat": 50.8706622, "lon": 4.3482841, "tags": {"amenity": "cafe", "contact:email": "koffieentreami.e.s@gmail.com", "contact:facebook": "https://www.facebook.com/KoffieEntreAmies", "cuisine": "coffee_shop", "description": "Koffie Entre Ami.e.s est un bar \u00e0 caf\u00e9 coop\u00e9rative \u00e0 BeHere, Brussels. Een ontmoetingsplek met goede koffie, thee, kombucha, jus, cakes et des lunch-to-go. Come meet us for your daily fix!", "name": "Koffie Entre Ami.e.s"}}, {"type": "node", "id": 9937699132, "lat": 50.8787925, "lon": 4.3481502, "tags": {"amenity": "cafe", "name": "Caf\u00e9 Paris"}}, {"type": "node", "id": 10697395233, "lat": 50.8760216, "lon": 4.3524528, "tags": {"amenity": "cafe", "name": "Mosaic"}}, {"type": "node", "id": 11263157150, "lat": 50.8774651, "lon": 4.3467906, "tags": {"amenity": "cafe", "name": "Relax"}}]}