{"version": 0.6, "generator": "Overpass API 0.7.62.10 2d4cfc48", "osm3s": {"timestamp_osm_base": "2026-02-03T11:25:28Z", "copyright": "The data included in this document is from www.openstreetmap.org. The data is made available under ODbL."}, "elements": [{"type": "node", "id": 2393949154, "lat": 50.8732598, "lon": 4.4014784, "tags": {"amenity": "restaurant", "contact:phone": "+32 2 242 72 81", "contact:website": "http://www.leromantic.be/", "cuisine": "bistro", "name": "Le Romantic"}}, {"type": "node", "id": 5338639639, "lat": 50.8684223, "lon": 4.3993717, "tags": {"amenity": "restaurant", "cuisine": "pasta", "name": "86eme Avenue"}}, {"type": "node", "id": 6505549693, "lat": 50.8728832, "lon": 4.3992774, "tags": {"amenity": "restaurant", "check_date": "2024-02-11", "name": "Tivoli"}}, {"type": "node", "id": 8614758405, "lat": 50.8686987, "lon": 4.3998379, "tags": {"amenity": "restaurant", "contact:mobile": "+32 455 19 60 13", "contact:phone": "+32 2 852 33 46", "contact:website": "https://www.paradise-of-india.be/", "cuisine": "indian", "name": "Paradise of India", "opening_hours": "Mo-Th,Su 11:30-14:30,18:00-22:30; Fr-Sa 11:30-14:30,18:00-23:00"}}, {"type": "node", "id": 8806227618, "lat": 50.870793, "lon": 4.3999398, "tags": {"amenity": "restaurant", "contact:phone": "+32 2 524 64 90", "contact:website": "https://www.le-manhattan.be/", "cuisine": "burger;grill;steak_house", "name": "Le Manhattan"}}, {"type": "node", "id": 12740046596, "lat": 50.8725467, "lon": 4.4001104, "tags": {"amenity": "restaurant", "cuisine": "pasta", "name": "Pasta Comedia", "website": "https://www.pastacomedia.be", "website:menu": "https://www.pastacomedia.be/menu.php"}}, {"type": "node", "id": 13057213181, "lat": 50.8734003, "lon": 4.4030204, "tags": {"amenity": "restaurant", "contact:website": "https://www.ungoutdecheznous.be", "cuisine": "regional", "name": "Un go\u00fbt de chez nous"}}]}