{"version": 0.6, "generator": "Overpass API 0.7.62.10 2d4cfc48", "osm3s": {"timestamp_osm_base": "2026-02-02T18:34:00Z", "copyright": "The data included in this document is from www.openstreetmap.org. The data is made available under ODbL."}, "elements": [{"type": "node", "id": 347996071, "lat": 50.8389893, "lon": 4.3982882, "tags": {"alt_name": "Brasserie La Terrasse", "amenity": "restaurant", "contact:phone": "+32 2 732 28 51", "contact:website": "http://www.brasserielaterrasse.be", "diet:vegetarian": "no", "name": "La Terrasse", "opening_hours": "Mo-Su 11:00-23:00", "outdoor_seating": "yes", "wheelchair": "yes"}}, {"type": "node", "id": 353002715, "lat": 50.8390124, "lon": 4.3981764, "tags": {"alt_name": "Manhattn's Merode", "amenity": "restaurant", "contact:website": "https://www.manhattns.com/location/merode", "diet:vegan": "yes", "diet:vegetarian": "yes", "name": "Manhattn's Burger", "opening_hours": "Mo-Su 11:30-22:30", "operator": "Manhattn's", "outdoor_seating": "yes", "wheelchair": "no", "wheelchair:description": "Only the front part of the terrace is accessible. The rest of the establishment is not."}}, {"type": "node", "id": 746463040, "lat": 50.8387106, "lon": 4.3978948, "tags": {"amenity": "restaurant", "contact:website": "https://kneestochin.com/", "cuisine": "asian", "name": "Knees to chin", "opening_hours": "Mo-Su 11:30-22:30", "wheelchair": "limited"}}, {"type": "node", "id": 766847753, "lat": 50.8390327, "lon": 4.3980783, "tags": {"amenity": "restaurant", "contact:phone": "+32 2 733 78 88", "contact:website": "https://www.paradisduliban.be/", "cuisine": "lebanese", "diet:vegan": "yes", "diet:vegetarian": "yes", "name": "Paradis du Liban", "opening_hours": "Mo-Su,PH 11:45-14:05,17:55-22:30", "wheelchair": "no"}}, {"type": "node", "id": 1191725633, "lat": 50.8390515, "lon": 4.3979875, "tags": {"amenity": "restaurant", "contact:email": "pizza-merode@nonalife.com", "contact:website": "https://www.nonalife.com", "cuisine": "pizza", "delivery": "yes", "diet:vegan": "yes", "diet:vegetarian": "yes", "level": "0", "name": "Nona Pizza", "opening_hours": "Mo-Fr 12:00-14:30,18:00-24:00; Sa,Su 12:00-24:00", "reservation": "yes", "reservation:website": "https://www.nonalife.com/merode-reservations", "wheelchair": "no"}}, {"type": "node", "id": 2298697317, "lat": 50.8394325, "lon": 4.3997023, "tags": {"amenity": "restaurant", "cuisine": "ramen", "name": "Umamido"}}, {"type": "node", "id": 2375856379, "lat": 50.8389021, "lon": 4.3986503, "tags": {"amenity": "restaurant", "contact:website": "https://www.le-carpediem.be", "diet:vegetarian": "yes", "name": "Carpe Diem", "outdoor_seating": "yes", "wheelchair": "no"}}, {"type": "node", "id": 2375856394, "lat": 50.8380965, "lon": 4.3969123, "tags": {"amenity": "restaurant", "check_date": "2022-08-21", "cuisine": "greek", "diet:vegan": "no", "diet:vegetarian": "yes", "name": "Ellinikon", "wheelchair": "no"}}, {"type": "node", "id": 2402389452, "lat": 50.8394754, "lon": 4.3998551, "tags": {"amenity": "restaurant", "check_date": "2023-08-26", "contact:email": "pj70@poulepoulette.com", "contact:phone": "+32 2 895 57 00", "contact:website": "https://poulepoulette.com/fr/locaties/merode/", "cuisine": "chicken", "name": "Poule & Poulette", "opening_hours": "Mo,Tu 12:00-14:30,17:00-21:45; We,Th 12:00-21:45; Fr,Sa 12:00-22:00; Su 12:00-21:00; PH 12:00-22:00", "outdoor_seating": "yes", "wheelchair": "no"}}, {"type": "node", "id": 4393976320, "lat": 50.8427343, "lon": 4.400758, "tags": {"amenity": "restaurant", "check_date": "2025-08-30", "contact:phone": "+3223551485", "cuisine": "italian;pizza", "name": "La Motta", "opening_hours": "Mo-Tu off; We-Su 12:00-15:00,18:00-22:00", "outdoor_seating": "yes", "payment:cash": "yes", "payment:credit_cards": "yes", "payment:debit_cards": "yes", "takeaway": "yes"}}, {"type": "node", "id": 4394618973, "lat": 50.8397421, "lon": 4.3939474, "tags": {"amenity": "restaurant", "check_date:opening_hours": "2025-10-30", "contact:email": "info@bagnole-brasserie.be", "contact:mobile": "+32 477 56 35 35", "contact:website": "https://bagnole-brasserie.be/", "name": "Bagnole Brasserie", "opening_hours": "Mo-Su 11:00-17:00", "wheelchair": "yes"}}, {"type": "node", "id": 4394904485, "lat": 50.8417808, "lon": 4.403652, "tags": {"amenity": "restaurant", "contact:mobile": "+32 488 61 69 18", "contact:website": "https://www.facebook.com/Saz%C3%B3n-de-Sof%C3%ADa-Resto-270088044836566/", "cuisine": "peruvian", "diet:vegetarian": "no", "name": "Saz\u00f3n de Sofia", "wheelchair": "no"}}, {"type": "node", "id": 4417740033, "lat": 50.840424, "lon": 4.4006537, "tags": {"amenity": "restaurant", "contact:phone": "+32 2 733 22 10", "contact:website": "https://latypiq.be/", "diet:vegan": "yes", "diet:vegetarian": "yes", "name": "Latypiq", "opening_hours": "Mo-Sa 09:00-22:00", "wheelchair": "limited"}}, {"type": "node", "id": 4441017282, "lat": 50.8394653, "lon": 4.4007937, "tags": {"amenity": "restaurant", "check_date": "2025-05-31", "contact:email": "info@yumizuki.com", "contact:mobile": "+32 486 81 60 32", "contact:website": "https://yumizuki.com/", "cuisine": "sushi", "delivery": "yes", "diet:vegetarian": "no", "internet_access": "wlan", "internet_access:fee": "customers", "name": "Yumizuki", "opening_hours": "Mo-Sa 11:30-21:00; Su off", "payment:cash": "yes", "payment:credit_cards": "yes", "payment:debit_cards": "yes", "takeaway": "yes", "toilets": "yes", "wheelchair": "yes"}}, {"type": "node", "id": 4614241946, "lat": 50.8433288, "lon": 4.3957873, "tags": {"amenity": "restaurant", "contact:mobile": "+32 471 38 80 34", "cuisine": "italian", "delivery": "yes", "name": "Drogheria Morelli", "opening_hours": "Tu-Fr 12:00-15:00, 18:00-21:00; Sa 18:00-21:00", "outdoor_seating": "yes", "takeaway": "yes"}}, {"type": "node", "id": 11035866115, "lat": 50.8383266, "lon": 4.3978146, "tags": {"amenity": "restaurant", "contact:website": "https://mytannour.com/", "cuisine": "syrian", "delivery": "yes", "diet:vegan": "yes", "diet:vegetarian": "yes", "name": "My Tannour", "opening_hours": "Mo-Su 12:00-23:00", "outdoor_seating": "yes", "takeaway": "yes", "wheelchair": "limited"}}, {"type": "node", "id": 11727704330, "lat": 50.8382458, "lon": 4.4018371, "tags": {"amenity": "restaurant", "check_date:opening_hours": "2023-12-16", "contact:website": "https://www.buonemaniere.be", "cuisine": "italian", "name": "Le Buone Maniere", "opening_hours:signed": "no"}}, {"type": "node", "id": 11730308198, "lat": 50.839693, "lon": 4.3994122, "tags": {"amenity": "restaurant", "check_date:opening_hours": "2024-04-28", "contact:website": "https://www.makifornia.be", "cuisine": "sushi", "name": "Makifornia Merode", "opening_hours:signed": "no"}}, {"type": "node", "id": 11966257488, "lat": 50.8481537, "lon": 4.3995503, "tags": {"amenity": "restaurant", "name": "Butcha Burger steaks&co"}}, {"type": "node", "id": 12320541845, "lat": 50.839531, "lon": 4.400814, "tags": {"amenity": "restaurant", "cuisine": "italian", "name": "Don Antonio"}}]}