{"version": 0.6, "generator": "Overpass API 0.7.62.10 2d4cfc48", "osm3s": {"timestamp_osm_base": "2026-02-03T10:22:00Z", "copyright": "The data included in this document is from www.openstreetmap.org. The data is made available under ODbL."}, "elements": [{"type": "node", "id": 2534393043, "lat": 50.8499558, "lon": 4.330032, "tags": {"amenity": "restaurant", "name": "Buffalo"}}, {"type": "node", "id": 9883890893, "lat": 50.8475949, "lon": 4.3285438, "tags": {"amenity": "restaurant", "bar": "yes", "contact:phone": "+32 2 289 00 59", "contact:website": "https://barrecyclart.be/", "diet:vegan": "yes", "indoor_seating": "yes", "name": "Resto Bar Recyclart", "opening_hours": "Tu 18:00-00:00; We-Fr 10:00-17:00", "outdoor_seating": "yes", "reservation": "required", "wikidata": "Q116068113"}}, {"type": "node", "id": 12791415801, "lat": 50.8498829, "lon": 4.333052, "tags": {"amenity": "restaurant", "cuisine": "arab", "name": "Macadamiam", "opening_hours": "Mo-Tu, Th-Fr 09:30-16:30; Sa-Su 10:00-19:00"}}]}