{"version": 0.6, "generator": "Overpass API 0.7.62.10 2d4cfc48", "osm3s": {"timestamp_osm_base": "2026-02-02T18:10:28Z", "copyright": "The data included in this document is from www.openstreetmap.org. The data is made available under ODbL."}, "elements": [{"type": "node", "id": 2373367143, "lat": 50.8500735, "lon": 4.4509378, "tags": {"amenity": "restaurant", "check_date:opening_hours": "2025-10-29", "cuisine": "sandwich;pasta;turkish", "name": "Snack Club", "opening_hours": "Mo-Fr 08:00-16:00", "outdoor_seating": "yes", "toilets:wheelchair": "no", "wheelchair": "limited"}}, {"type": "node", "id": 2373367148, "lat": 50.8502187, "lon": 4.4509829, "tags": {"amenity": "restaurant", "cuisine": "italian", "name": "Little Italy", "opening_hours:signed": "no"}}, {"type": "node", "id": 2373516198, "lat": 50.8500511, "lon": 4.4534181, "tags": {"amenity": "restaurant", "contact:phone": "+32 2 770 92 38", "contact:website": "https://www.dicietdailleurs.be/", "level": "1", "name": "D'Ici & d'Ailleurs"}}, {"type": "node", "id": 4231863502, "lat": 50.8479005, "lon": 4.4575432, "tags": {"amenity": "restaurant", "contact:website": "https://fujihouse.be/", "cuisine": "japanese", "name": "Fuji House", "smoking": "no", "takeaway": "yes"}}, {"type": "node", "id": 5844472287, "lat": 50.8504277, "lon": 4.4542815, "tags": {"amenity": "restaurant", "contact:mobile": "+32 478 11 86 73", "cuisine": "asian;sandwich", "delivery": "Mo-Fr 08:00-11:00,14:00-18:00; PH off", "name": "D'Asie Express", "opening_hours": "Mo-Fr 08:00-18:00; PH off", "outdoor_seating": "yes", "takeaway": "yes"}}, {"type": "node", "id": 5923976745, "lat": 50.8505832, "lon": 4.4582859, "tags": {"amenity": "restaurant", "contact:phone": "+32 2 772 47 16", "name": "Le Mounier", "opening_hours": "Mo-Fr 09:30-24:00; Su 11:00-21:00", "opening_hours:kitchen": "Mo-Th 12:00-14:45,19:00-22:00, Fr 12:00-14:45,19:00-22:45", "opening_hours:url": "https://www.mounier.be/infrastructure/restaurant-le-mounier/", "wheelchair": "no"}}, {"type": "node", "id": 7934875992, "lat": 50.8544837, "lon": 4.4483039, "tags": {"amenity": "restaurant", "contact:mobile": "+32 477 58 79 70", "contact:website": "https://www.myrorestaurant.be/", "delivery": "yes", "lgbtq": "welcome", "name": "MYRO", "opening_hours": "Mo-Fr 11:30-18:30; Sa off; Su 11:00-14:30", "takeaway": "yes", "wheelchair": "yes"}}, {"type": "node", "id": 8617276129, "lat": 50.8508978, "lon": 4.4514631, "tags": {"amenity": "restaurant", "check_date:opening_hours": "2025-10-29", "contact:phone": "+32 2 771 78 17", "name": "Le Panier de Saint-Luc", "opening_hours:signed": "no"}}, {"type": "node", "id": 8628214736, "lat": 50.8499148, "lon": 4.4527022, "tags": {"amenity": "restaurant", "bar": "yes", "brewery": "yes", "contact:phone": "+32 2 779 57 36", "name": "Le Traminot", "outdoor_seating": "yes"}}, {"type": "node", "id": 8645123603, "lat": 50.8504809, "lon": 4.4529784, "tags": {"amenity": "restaurant", "contact:phone": "+32 10 47 33 86", "contact:website": "https://uclouvain.be/fr/decouvrir/resto-u/le-martin-v-self.html", "name": "Le Martin V", "opening_hours": "Mo-Fr 12:00-14:00", "operator": "UCLouvain", "self_service": "only"}}, {"type": "node", "id": 8645123606, "lat": 50.850332, "lon": 4.4535946, "tags": {"amenity": "restaurant", "level": "0", "name": "Stamene\u00ef"}}, {"type": "node", "id": 8662891108, "lat": 50.8496842, "lon": 4.4522051, "tags": {"amenity": "restaurant", "check_date:opening_hours": "2025-10-29", "contact:phone": "+32 2 309 92 02", "name": "Le Cercle de la Vecqu\u00e9e", "opening_hours:signed": "no"}}, {"type": "node", "id": 8665200636, "lat": 50.8486117, "lon": 4.4504745, "tags": {"amenity": "restaurant", "contact:mobile": "+32 485 26 64 27", "contact:website": "https://www.scottysnzpies.be/", "cuisine": "new_zealand", "name": "Scotty's NZ Pies \u2013 The Kiwi Traiteur"}}, {"type": "node", "id": 8998951567, "lat": 50.8514893, "lon": 4.4516959, "tags": {"amenity": "restaurant", "check_date:opening_hours": "2025-10-29", "contact:phone": "+32 2 764 37 36", "contact:website": "https://www.saintluc.be/fr/restauration", "level": "0", "name": "Le Lucullus", "opening_hours": "Mo-Su 11:30-14:15"}}, {"type": "node", "id": 8998951568, "lat": 50.8518887, "lon": 4.4519387, "tags": {"amenity": "restaurant", "contact:phone": "+32 2 764 12 45", "contact:website": "https://www.saintluc.be/fr/restauration", "level": "4", "name": "Le Medoc", "opening_hours": "Mo-Sa 11:30-17:30"}}, {"type": "node", "id": 8998951581, "lat": 50.8522081, "lon": 4.4520926, "tags": {"amenity": "restaurant", "check_date:opening_hours": "2025-10-29", "level": "4", "name": "Chou Vert et Vert Chou", "opening_hours": "Mo-Fr 07:00-18:00; Sa-Su 11:00-18:00", "website": "https://www.saintluc.be/fr/restauration"}}, {"type": "node", "id": 12079295515, "lat": 50.8469286, "lon": 4.4408979, "tags": {"amenity": "restaurant", "contact:phone": "+32 2 763 33 88", "contact:website": "http://kwakbrasserie.be", "name": "Brasserie Kwak", "opening_hours": "PH,Mo-Su 12:00-23:00", "opening_hours:kitchen": "PH,Mo-Su 12:00-22:30"}}, {"type": "node", "id": 12206584397, "lat": 50.8472201, "lon": 4.4497392, "tags": {"amenity": "restaurant", "cuisine": "greek", "name": "Mykonos"}}, {"type": "node", "id": 12574118880, "lat": 50.8546026, "lon": 4.4480527, "tags": {"amenity": "restaurant", "name": "Ancho"}}]}