{"version": 0.6, "generator": "Overpass API 0.7.62.10 2d4cfc48", "osm3s": {"timestamp_osm_base": "2026-02-03T09:27:44Z", "copyright": "The data included in this document is from www.openstreetmap.org. The data is made available under ODbL."}, "elements": [{"type": "node", "id": 2883509608, "lat": 50.8604561, "lon": 4.3931076, "tags": {"name": "Chazal", "public_transport": "stop_position", "railway": "tram_stop", "tram": "yes"}}, {"type": "node", "id": 2883560179, "lat": 50.8667533, "lon": 4.385352, "tags": {"name": "Louis Bertrand", "public_transport": "stop_position", "railway": "tram_stop", "tram": "yes"}}, {"type": "node", "id": 4862205013, "lat": 50.8625415, "lon": 4.3869527, "tags": {"name": "H\u00e9liotropes - Heliotropen", "name:fr": "H\u00e9liotropes", "name:nl": "Heliotropen", "public_transport": "stop_position", "railway": "tram_stop", "tram": "yes"}}, {"type": "node", "id": 4862205051, "lat": 50.8635832, "lon": 4.3857316, "tags": {"name": "H\u00e9liotropes - Heliotropen", "name:fr": "H\u00e9liotropes", "name:nl": "Heliotropen", "public_transport": "stop_position", "railway": "tram_stop", "tram": "yes"}}, {"type": "node", "id": 4914931449, "lat": 50.8680201, "lon": 4.3853678, "tags": {"name": "H\u00f4pital Paul Brien - Paul Brien-ziekenhuis", "name:fr": "H\u00f4pital Paul Brien", "name:nl": "Paul Brien-ziekenhuis", "public_transport": "stop_position", "railway": "tram_stop", "tram": "yes"}}, {"type": "node", "id": 5145059192, "lat": 50.8654388, "lon": 4.385092, "tags": {"name": "Louis Bertrand", "public_transport": "stop_position", "railway": "tram_stop", "tram": "yes"}}, {"type": "node", "id": 5145090639, "lat": 50.8611139, "lon": 4.3913421, "tags": {"name": "Chazal", "public_transport": "stop_position", "railway": "tram_stop", "tram": "yes"}}]}