{"version": 0.6, "generator": "Overpass API 0.7.62.10 2d4cfc48", "osm3s": {"timestamp_osm_base": "2026-02-02T19:12:59Z", "copyright": "The data included in this document is from www.openstreetmap.org. The data is made available under ODbL."}, "elements": [{"type": "node", "id": 826830627, "lat": 50.8333229, "lon": 4.3564716, "tags": {"amenity": "cafe", "check_date": "2025-04-27", "name": "Arion Caf\u00e9"}}, {"type": "node", "id": 1242137440, "lat": 50.8337948, "lon": 4.3552048, "tags": {"amenity": "cafe", "check_date": "2023-01-08", "contact:phone": "+32 2 356 31 26", "contact:website": "https://lloydcoffee.com/en/shops/", "cuisine": "coffee_shop", "indoor_seating": "yes", "internet_access": "yes", "internet_access:fee": "customers", "internet_access:ssid": "Lloyd.guests", "name": "Lloyd Coffee Eatery", "opening_hours": "Mo-Fr 08:00-20:00; Sa,Su 09:00-20:00", "outdoor_seating": "yes", "payment:cash": "no", "payment:mastercard": "yes", "payment:visa": "yes", "service:electricity": "no", "short_name": "Lloyd Louise", "wheelchair": "yes"}}, {"type": "node", "id": 3128417991, "lat": 50.8267703, "lon": 4.3548132, "tags": {"amenity": "cafe", "contact:website": "https://hntrlnd.be", "cuisine": "breakfast;tea", "diet:gluten_free": "yes", "diet:vegan": "yes", "diet:vegetarian": "yes", "indoor_seating": "yes", "name": "Hinterland", "opening_hours": "Mo-Tu,Th-Fr 08:00-16:00; Sa-Su 09:00-17:00; We off", "outdoor_seating": "no", "wheelchair": "limited"}}, {"type": "node", "id": 3323729862, "lat": 50.8274084, "lon": 4.3642985, "tags": {"amenity": "cafe", "check_date": "2026-02-02", "check_date:opening_hours": "2025-06-12", "contact:phone": "+32 2 646 72 14", "contact:website": "https://naturalcaffe.com/", "cuisine": "coffee_shop", "full_name": "Natural Caff\u00e8 Louise", "indoor_seating": "yes", "name": "Natural Caffe", "opening_hours": "Mo-Fr 07:30-18:00; Sa 09:00-19:00; Su 10:00-15:00; PH off", "outdoor_seating": "yes", "wheelchair": "no"}}, {"type": "node", "id": 4005545291, "lat": 50.8269365, "lon": 4.357736, "tags": {"alt_name": "Pozcaf\u00e9", "amenity": "cafe", "contact:facebook": "Pozbrussels", "contact:website": "https://pozbrussels.be", "cuisine": "coffee_shop", "internet_access": "wlan", "name": "Poz\" Caf\u00e9", "opening_hours": "Mo-Fr 07:00-19:00; Sa 08:00-19:00; Su 10:00-19:00", "wheelchair": "yes"}}, {"type": "node", "id": 5266156156, "lat": 50.8269231, "lon": 4.3626179, "tags": {"amenity": "cafe", "cuisine": "coffee_shop", "name": "Akko Caf\u00e9", "opening_hours": "We-Mo 09:00-17:00", "opening_hours:kitchen": "We-Mo 11:00-14:00"}}, {"type": "node", "id": 5404313121, "lat": 50.8263992, "lon": 4.3619753, "tags": {"amenity": "cafe", "contact:email": "contact@cup-28.be", "contact:facebook": "https://www.facebook.com/Cup28.bx/", "contact:instagram": "https://www.instagram.com/cup28.bx/", "contact:phone": "+32 2 831 96 93", "cuisine": "waffle;cafe;coffee_shop", "name": "Cup28\u00b0", "opening_hours": "Tu-Fr 08:00-18:30; Sa-Mo 11:00-18:00", "outdoor_seating": "yes", "website": "https://cup28.be"}}, {"type": "node", "id": 5801705139, "lat": 50.8238276, "lon": 4.3594592, "tags": {"amenity": "cafe", "contact:website": "https://delitraiteur.com/shop/delitraiteur-chatelain/", "full_name": "Delitraiteur Ch\u00e2telain", "name": "Delitraiteur", "opening_hours": "Mo-Su 07:00-22:00", "payment:cash": "yes", "payment:credit_cards": "yes", "payment:maestro": "yes", "payment:mastercard": "yes", "payment:visa": "yes", "shop": "convenience"}}, {"type": "node", "id": 5801705140, "lat": 50.8260905, "lon": 4.3545959, "tags": {"amenity": "cafe", "check_date:opening_hours": "2024-07-08", "contact:email": "kiliane@jackiecoffee.com", "contact:facebook": "https://www.facebook.com/JackieCoffeeBxl/", "contact:mobile": "+32 477 98 66 63", "internet_access": "wlan", "internet_access:fee": "no", "name": "Jackie", "opening_hours:signed": "no", "outdoor_seating": "yes", "start_date": "2021-10", "was:name": "Parlor Coffee"}}, {"type": "node", "id": 5801705142, "lat": 50.8236836, "lon": 4.3589499, "tags": {"amenity": "cafe", "contact:website": "https://www.edenjapon.be", "cuisine": "tea;coffee_shop", "name": "Eden", "opening_hours": "Tu-Sa 10:00-19:00"}}, {"type": "node", "id": 6218551539, "lat": 50.8274013, "lon": 4.3553676, "tags": {"amenity": "cafe", "name": "Caf\u00e9 Janson"}}, {"type": "node", "id": 6245049286, "lat": 50.8271056, "lon": 4.3629159, "tags": {"amenity": "cafe", "contact:website": "https://www.belgacoffee.com", "name": "Belga & Co", "opening_hours": "Mo-Fr 07:30-18:30; Sa-Su 08:30-18:30", "outdoor_seating": "yes", "wheelchair": "no"}}, {"type": "node", "id": 6502305994, "lat": 50.8265002, "lon": 4.3615221, "tags": {"amenity": "cafe", "check_date:opening_hours": "2025-02-03", "contact:email": "bisoubrussels@gmail.com", "contact:phone": "+32 2 887 06 36", "contact:website": "https://www.bisoubrussels.be/", "diet:vegan": "yes", "diet:vegetarian": "yes", "indoor_seating": "yes", "level": "0", "name": "Bisou", "opening_hours": "Mo-Fr 08:00-18:00; Sa,Su 09:00-18:00", "outdoor_seating": "yes", "smoking": "no", "takeaway": "yes"}}, {"type": "node", "id": 6969934185, "lat": 50.8231311, "lon": 4.3671823, "tags": {"amenity": "cafe", "contact:facebook": "https://www.facebook.com/kafeibxl/", "contact:phone": "+32 2 808 25 20", "contact:website": "https://www.kafei-bruxelles.be/", "cuisine": "asian;coffee_shop;brunch;pancakes", "name": "Kafei", "opening_hours": "Tu-Th 11:00-18:00; Fr-Su 11:00-17:00; Mo off", "outdoor_seating": "terrace", "reservation": "yes"}}, {"type": "node", "id": 7174881703, "lat": 50.8258257, "lon": 4.3545113, "tags": {"amenity": "cafe", "contact:instagram": "https://www.instagram.com/kookoo.cafee/", "indoor_seating": "yes", "name": "KooKoo", "outdoor_seating": "yes", "wheelchair": "no"}}, {"type": "node", "id": 7834762885, "lat": 50.8240458, "lon": 4.363075, "tags": {"amenity": "cafe", "contact:facebook": "https://www.facebook.com/HolyBagelsandcoffee", "contact:instagram": "https://www.instagram.com/holybagels/", "contact:mobile": "+32 466 40 52 68", "contact:website": "https://holy-bagels.com/", "cuisine": "bagel;coffee_shop", "name": "Holy Bagels", "opening_hours": "Mo-Tu,Th-Fr 08:00-16:00; Sa-Su 09:00-16:00", "outdoor_seating": "yes"}}, {"type": "node", "id": 9654374703, "lat": 50.8232958, "lon": 4.3585175, "tags": {"amenity": "cafe", "name": "Le Bistro"}}, {"type": "node", "id": 10607657861, "lat": 50.83034, "lon": 4.3559543, "tags": {"amenity": "cafe", "contact:website": "https://www.stellacoffeebar.be/", "description": "Cafe and dog", "diet:vegetarian": "yes", "name": "Stella", "opening_hours": "Mo-Fr 08:00-17:00; Sa 09:00-18:00; Su 09:00-17:00", "takeaway": "yes"}}, {"type": "node", "id": 10792703407, "lat": 50.8236365, "lon": 4.3538115, "tags": {"amenity": "cafe", "name": "Olive Restaurant"}}, {"type": "node", "id": 11234770039, "lat": 50.8246503, "lon": 4.3656345, "tags": {"amenity": "cafe", "contact:website": "https://www.pauseandplay.be/infos", "name": "Pause and Play", "opening_hours": "We-Su 09:00-19:00"}}, {"type": "node", "id": 12202464491, "lat": 50.8314274, "lon": 4.3601085, "tags": {"amenity": "cafe", "name": "Leopold Cafe Presse", "website": "https://leopoldcafepresse.com"}}, {"type": "node", "id": 12205646397, "lat": 50.8314274, "lon": 4.3601085, "tags": {"amenity": "cafe", "website": "https://leopoldcafepresse.com/"}}, {"type": "node", "id": 12222861503, "lat": 50.8310344, "lon": 4.3561678, "tags": {"amenity": "cafe", "name": "Stella Coffee Bar", "website": "https://stellacoffeebar.wixsite.com/stellacoffeebar"}}, {"type": "node", "id": 12568071404, "lat": 50.82709, "lon": 4.3558317, "tags": {"amenity": "cafe", "contact:website": "https://lenewchattouille.be", "name": "Le New Chattouille", "opening_hours": "Th-Fr 17:00-21:00; Sa-Su 13:00-20:00", "start_date": "2014", "theme": "cat"}}, {"type": "node", "id": 12568899171, "lat": 50.8269882, "lon": 4.3618391, "tags": {"amenity": "cafe", "name": "Darjeeling Garden", "opening_hours": "Tu-Sa 10:00-18:00", "outdoor_seating": "yes", "toilets": "yes", "toilets:wheelchair": "no"}}, {"type": "node", "id": 13041912401, "lat": 50.8306529, "lon": 4.3608979, "tags": {"amenity": "cafe", "brand": "Le Pain Quotidien", "brand:wikidata": "Q2046903", "cuisine": "coffee_shop", "name": "Le Pain Quotidien", "outdoor_seating": "no", "takeaway": "yes"}}]}