{"version": 0.6, "generator": "Overpass API 0.7.62.10 2d4cfc48", "osm3s": {"timestamp_osm_base": "2026-02-02T14:18:30Z", "copyright": "The data included in this document is from www.openstreetmap.org. The data is made available under ODbL."}, "elements": [{"type": "node", "id": 3115598741, "lat": 50.8004938, "lon": 4.3370165, "tags": {"name": "Globe", "public_transport": "stop_position", "railway": "tram_stop", "tram": "yes"}}, {"type": "node", "id": 3115599132, "lat": 50.7967453, "lon": 4.3290684, "tags": {"name": "Wagon - Wagen", "name:fr": "Wagon", "name:nl": "Wagen", "public_transport": "stop_position", "railway": "tram_stop", "tram": "yes"}}, {"type": "node", "id": 3115599161, "lat": 50.7968734, "lon": 4.3296027, "tags": {"name": "Wagon - Wagen", "name:fr": "Wagon", "name:nl": "Wagen", "public_transport": "stop_position", "railway": "tram_stop", "tram": "yes"}}, {"type": "node", "id": 3115599266, "lat": 50.797953, "lon": 4.343408, "tags": {"name": "Wolvendael", "public_transport": "stop_position", "railway": "tram_stop", "tram": "yes"}}, {"type": "node", "id": 3115599273, "lat": 50.7982965, "lon": 4.3430642, "tags": {"name": "Wolvendael", "public_transport": "stop_position", "railway": "tram_stop", "tram": "yes"}}, {"type": "node", "id": 3115599587, "lat": 50.8006655, "lon": 4.3375126, "tags": {"name": "Globe", "public_transport": "stop_position", "railway": "tram_stop", "tram": "yes"}}, {"type": "node", "id": 3115599598, "lat": 50.8007959, "lon": 4.3409755, "tags": {"name": "Marlow", "public_transport": "stop_position", "railway": "tram_stop", "tram": "yes"}}, {"type": "node", "id": 3115599753, "lat": 50.8015999, "lon": 4.3405739, "tags": {"name": "Marlow", "public_transport": "stop_position", "railway": "tram_stop", "tram": "yes"}}, {"type": "node", "id": 3123735564, "lat": 50.8075912, "lon": 4.3441159, "tags": {"name": "Boetendael", "public_transport": "stop_position", "railway": "tram_stop", "tram": "yes"}}, {"type": "node", "id": 3124859046, "lat": 50.8032926, "lon": 4.3413499, "tags": {"name": "H\u00e9ros - Helden", "name:fr": "H\u00e9ros", "name:nl": "Helden", "public_transport": "stop_position", "railway": "tram_stop", "tram": "yes"}}, {"type": "node", "id": 3124859066, "lat": 50.8036745, "lon": 4.3416346, "tags": {"name": "H\u00e9ros - Helden", "name:fr": "H\u00e9ros", "name:nl": "Helden", "public_transport": "stop_position", "railway": "tram_stop", "tram": "yes"}}, {"type": "node", "id": 3124859081, "lat": 50.806635, "lon": 4.3434665, "tags": {"name": "Boetendael", "public_transport": "stop_position", "railway": "tram_stop", "tram": "yes"}}, {"type": "node", "id": 3125340246, "lat": 50.8098047, "lon": 4.3454671, "tags": {"name": "Messidor", "public_transport": "stop_position", "railway": "tram_stop", "tram": "yes"}}, {"type": "node", "id": 3268984113, "lat": 50.8132543, "lon": 4.3388261, "tags": {"name": "Coghen", "public_transport": "stop_position", "railway": "tram_stop", "tram": "yes"}}, {"type": "node", "id": 3269440364, "lat": 50.8074472, "lon": 4.3368068, "tags": {"name": "Bens", "public_transport": "stop_position", "railway": "tram_stop", "tram": "yes"}}, {"type": "node", "id": 3269440386, "lat": 50.8096003, "lon": 4.3372816, "tags": {"name": "Roosendael", "public_transport": "stop_position", "railway": "tram_stop", "tram": "yes"}}, {"type": "node", "id": 3269540162, "lat": 50.7917554, "lon": 4.332679, "tags": {"name": "Uccle Calevoet - Ukkel Kalevoet", "name:fr": "Uccle Calevoet", "name:nl": "Ukkel Kalevoet", "public_transport": "stop_position", "railway": "tram_stop", "tram": "yes"}}, {"type": "node", "id": 3818247085, "lat": 50.7941455, "lon": 4.3342164, "tags": {"name": "Jeanne Herreman", "public_transport": "stop_position", "railway": "tram_stop", "tram": "yes"}}, {"type": "node", "id": 4411483166, "lat": 50.7976251, "lon": 4.3361946, "tags": {"name": "Rittweger", "public_transport": "stop_position", "railway": "tram_stop", "tram": "yes"}}, {"type": "node", "id": 4411483167, "lat": 50.7981186, "lon": 4.336279, "tags": {"name": "Rittweger", "public_transport": "stop_position", "railway": "tram_stop", "tram": "yes"}}, {"type": "node", "id": 4411483168, "lat": 50.794365, "lon": 4.3343184, "tags": {"name": "Jeanne Herreman", "public_transport": "stop_position", "railway": "tram_stop", "tram": "yes"}}, {"type": "node", "id": 4411483175, "lat": 50.7912372, "lon": 4.3328912, "tags": {"name": "Uccle Calevoet - Ukkel Kalevoet", "name:fr": "Uccle Calevoet", "name:nl": "Ukkel Kalevoet", "public_transport": "stop_position", "railway": "tram_stop", "tram": "yes"}}, {"type": "node", "id": 4459483159, "lat": 50.8006068, "lon": 4.3364864, "tags": {"name": "Globe", "public_transport": "stop_position", "railway": "tram_stop", "tram": "yes"}}, {"type": "node", "id": 4938606257, "lat": 50.8030124, "lon": 4.3365917, "tags": {"name": "Xavier de Bue", "public_transport": "stop_position", "railway": "tram_stop", "tram": "yes"}}, {"type": "node", "id": 4938612401, "lat": 50.8041831, "lon": 4.3366858, "tags": {"name": "Xavier de Bue", "public_transport": "stop_position", "railway": "tram_stop", "tram": "yes"}}, {"type": "node", "id": 4940068747, "lat": 50.8072392, "lon": 4.3368414, "tags": {"name": "Bens", "public_transport": "stop_position", "railway": "tram_stop", "tram": "yes"}}, {"type": "node", "id": 4940090341, "lat": 50.81073, "lon": 4.3377876, "tags": {"name": "Roosendael", "public_transport": "stop_position", "railway": "tram_stop", "tram": "yes"}}, {"type": "node", "id": 4940120273, "lat": 50.8128887, "lon": 4.3386236, "tags": {"name": "Coghen", "public_transport": "stop_position", "railway": "tram_stop", "tram": "yes"}}, {"type": "node", "id": 5257789897, "lat": 50.799452, "lon": 4.3364748, "tags": {"name": "Globe", "public_transport": "stop_position", "railway": "tram_stop", "tram": "yes"}}]}