{"version": 0.6, "generator": "Overpass API 0.7.62.10 2d4cfc48", "osm3s": {"timestamp_osm_base": "2026-02-02T15:54:39Z", "copyright": "The data included in this document is from www.openstreetmap.org. The data is made available under ODbL."}, "elements": [{"type": "node", "id": 344814348, "lat": 50.8391956, "lon": 4.3975674, "tags": {"name": "Avenue des Gaulois - Galli\u00ebrslaan", "name:fr": "Avenue des Gaulois", "name:nl": "Galli\u00ebrslaan", "railway": "subway_entrance", "ref": "4", "wheelchair": "no"}}, {"type": "node", "id": 344814349, "lat": 50.8397975, "lon": 4.3978796, "tags": {"name": "Avenue de l'Yser - IJzerlaan", "name:fr": "Avenue de l'Yser", "name:nl": "IJzerlaan", "railway": "subway_entrance", "ref": "1", "wheelchair": "no"}}, {"type": "node", "id": 492564287, "lat": 50.8394963, "lon": 4.3988454, "tags": {"name": "Avenue de Tervuren - Tervurenlaan", "name:fr": "Avenue de Tervuren", "name:nl": "Tervurenlaan", "railway": "subway_entrance", "ref": "2", "wheelchair": "no"}}, {"type": "node", "id": 495243882, "lat": 50.8319904, "lon": 4.4043932, "tags": {"name": "Boulevard Saint-Michel - Sint-Michielslaan", "name:fr": "Boulevard Saint-Michel", "name:nl": "Sint-Michielslaan", "railway": "subway_entrance", "ref": "1"}}, {"type": "node", "id": 495243917, "lat": 50.832283, "lon": 4.4053139, "tags": {"name": "Avenue Boileau - Boileaulaan", "name:fr": "Avenue Boileau", "name:nl": "Boileaulaan", "railway": "subway_entrance", "ref": "5"}}, {"type": "node", "id": 495243938, "lat": 50.8340406, "lon": 4.4062621, "tags": {"name": "Rue P\u00e8re Eudore Devroye - Pater Eudore Devroyestraat", "name:fr": "Rue P\u00e8re Eudore Devroye", "name:nl": "Pater Eudore Devroyestraat", "official_name": "Rue P\u00e8re E. Devroye - Pater Eudore Devroyestraat", "railway": "subway_entrance", "ref": "4"}}, {"type": "node", "id": 495243958, "lat": 50.8340398, "lon": 4.4053541, "tags": {"name": "Rue Charles Legrelle - Charles Legrellestraat", "name:fr": "Rue Charles Legrelle", "name:nl": "Charles Legrellestraat", "railway": "subway_entrance", "ref": "3"}}, {"type": "node", "id": 766847748, "lat": 50.8383224, "lon": 4.3999107, "tags": {"name": "Square Princesse Jean de M\u00e9rode - Prinses Jean de M\u00e9rodeplein", "name:fr": "Square Princesse Jean de M\u00e9rode", "name:nl": "Prinses Jean de M\u00e9rodeplein", "railway": "subway_entrance", "ref": "7", "subway": "yes", "wheelchair": "no"}}, {"type": "node", "id": 1181417677, "lat": 50.8330376, "lon": 4.4017905, "tags": {"name": "Pont Fernand Demany - Fernand Demanybrug", "name:fr": "Pont Fernand Demany", "name:nl": "Fernand Demanybrug", "railway": "subway_entrance", "ref": "2", "wheelchair": "no"}}, {"type": "node", "id": 1181417866, "lat": 50.832743, "lon": 4.4020856, "tags": {"name": "Pont Fernand Demany - Fernand Demanybrug", "name:fr": "Pont Fernand Demany", "name:nl": "Fernand Demanybrug", "railway": "subway_entrance", "ref": "1", "wheelchair": "no"}}, {"type": "node", "id": 1204761513, "lat": 50.8293588, "lon": 4.4031478, "tags": {"name": "Boulevard Louis Schimdt - Louis Schmidtlaan", "name:fr": "Boulevard Louis Schimdt", "name:nl": "Louis Schmidtlaan", "railway": "subway_entrance", "ref": "3", "wheelchair": "yes"}}, {"type": "node", "id": 1856080319, "lat": 50.8394186, "lon": 4.3994043, "tags": {"name": "Rue des Tongres - Tongerenstraat", "name:fr": "Rue des Tongres", "name:nl": "Tongerenstraat", "railway": "subway_entrance", "ref": "8", "wheelchair": "no"}}, {"type": "node", "id": 2514253706, "lat": 50.8270982, "lon": 4.4040311, "tags": {"name": "Avenue des Volontaires - Vrijwilligerslaan", "name:fr": "Avenue des Volontaires", "name:nl": "Vrijwilligerslaan", "railway": "subway_entrance", "ref": "1", "wheelchair": "yes"}}, {"type": "node", "id": 3886281800, "lat": 50.8391331, "lon": 4.3983638, "tags": {"name": "Avenue des Celtes - Keltenlaan", "name:fr": "Avenue des Celtes", "name:nl": "Keltenlaan", "railway": "subway_entrance", "ref": "3", "wheelchair": "yes"}}, {"type": "node", "id": 4663183775, "lat": 50.8340817, "lon": 4.4051584, "tags": {"name": "Rue Charles Legrelle - Charles Legrellestraat", "name:fr": "Rue Charles Legrelle", "name:nl": "Charles Legrellestraat", "railway": "subway_entrance", "ref": "2"}}, {"type": "node", "id": 4690365603, "lat": 50.8271249, "lon": 4.4041916, "tags": {"name": "Avenue des Volontaires - Vrijwilligerslaan", "name:fr": "Avenue des Volontaires", "name:nl": "Vrijwilligerslaan", "railway": "subway_entrance", "ref": "2", "wheelchair": "yes"}}, {"type": "node", "id": 4716471711, "lat": 50.8393111, "lon": 4.3979157, "tags": {"bicycle": "yes", "name": "Avenue des Gaulois - Galli\u00ebrslaan", "name:fr": "Avenue des Gaulois", "name:nl": "Galli\u00ebrslaan", "railway": "subway_entrance", "ref": "4H", "wheelchair": "yes"}}]}