{"version": 0.6, "generator": "Overpass API 0.7.62.10 2d4cfc48", "osm3s": {"timestamp_osm_base": "2026-02-03T10:44:29Z", "copyright": "The data included in this document is from www.openstreetmap.org. The data is made available under ODbL."}, "elements": [{"type": "node", "id": 1025220489, "lat": 50.8386559, "lon": 4.3068145, "tags": {"amenity": "cafe"}}, {"type": "node", "id": 1321555240, "lat": 50.8353022, "lon": 4.2985334, "tags": {"amenity": "cafe", "name": "Le Stade"}}, {"type": "node", "id": 2366068091, "lat": 50.8361264, "lon": 4.3059161, "tags": {"alt_name": "Het Paviljoen", "amenity": "cafe", "cuisine": "coffee_shop", "name": "Taverne Le Pavillon", "wifi": "yes"}}, {"type": "node", "id": 2641836961, "lat": 50.8365464, "lon": 4.3074189, "tags": {"amenity": "cafe", "contact:website": "https://la-fourmiliere.be", "indoor_seating": "yes", "internet_access": "yes", "name": "La Fourmili\u00e8re", "outdoor_seating": "yes"}}, {"type": "node", "id": 9654034029, "lat": 50.8354072, "lon": 4.2969337, "tags": {"amenity": "cafe", "name": "Le Transfert VII", "outdoor_seating": "yes"}}, {"type": "node", "id": 10263178609, "lat": 50.8397844, "lon": 4.3117685, "tags": {"amenity": "cafe", "contact:phone": "+32 2 502 00 82", "name": "Les Nouvelles Caves d'Artois"}}, {"type": "node", "id": 12587076344, "lat": 50.8355518, "lon": 4.3115833, "tags": {"amenity": "cafe", "check_date": "2025-02-14", "indoor_seating": "yes", "name": "Brasserie Wayez", "outdoor_seating": "yes"}}]}